{
  "type": "FeatureCollection",
  "name": "Ấp Ô Rồm",
  "crs": {
    "type": "name",
    "properties": {
      "name": "urn:ogc:def:crs:OGC:1.3:CRS84"
    }
  },
  "features": [
    {
      "type": "Feature",
      "properties": {
        "Layer": "AP 12",
        "PaperSpace": null,
        "SubClasses": "AcDbEntity:AcDbHatch",
        "Linetype": null,
        "EntityHandle": "2BFA08",
        "Text": "ANSI31",
        "sap_nhap_tu": [
          "Ấp Ô Rồm"
        ],
        "so_ho_sau_sap_nhap": 429,
        "so_dan_sau_sap_nhap": 1848,
        "dien_tich_sau_sap_nhap_ha": 334.77,
        "ma": "3005012",
        "ten": "Ấp Ô Rồm",
        "loai": "Ấp",
        "dien_tich_km2": "3.3477",
        "dien_tich_ha": "334.77",
        "dan_so": "1848",
        "so_ho": "429",
        "mat_do_km2": "552.02"
      },
      "geometry": {
        "type": "Polygon",
        "coordinates": [
          [
            [
              106.12480700481774,
              9.87325254240795
            ],
            [
              106.12487207246947,
              9.873690740341896
            ],
            [
              106.12493234976522,
              9.874275592417
            ],
            [
              106.12498133254535,
              9.876098021292393
            ],
            [
              106.12402344928412,
              9.875754902169287
            ],
            [
              106.12378081458176,
              9.876345626006524
            ],
            [
              106.12326772987825,
              9.876140770778777
            ],
            [
              106.12252519705417,
              9.875801941328497
            ],
            [
              106.12192312191402,
              9.875548618194689
            ],
            [
              106.12130185156633,
              9.877227745366483
            ],
            [
              106.12031235199898,
              9.876897918266936
            ],
            [
              106.11975862561975,
              9.878114371534945
            ],
            [
              106.11913543420128,
              9.877955902051129
            ],
            [
              106.11862606117279,
              9.879027269820186
            ],
            [
              106.11785992761885,
              9.878849086996643
            ],
            [
              106.11713686282862,
              9.878695680355195
            ],
            [
              106.11664892979388,
              9.878551617042005
            ],
            [
              106.11580108983016,
              9.878365060450447
            ],
            [
              106.11439781080392,
              9.878012205619623
            ],
            [
              106.11377106984811,
              9.877856738096611
            ],
            [
              106.11319270482147,
              9.87771784478575
            ],
            [
              106.1130598612536,
              9.8779108530424
            ],
            [
              106.11276290392388,
              9.877639415892189
            ],
            [
              106.11244564292785,
              9.87741689249104
            ],
            [
              106.11215242074896,
              9.877241639875372
            ],
            [
              106.1118432653606,
              9.877087399153266
            ],
            [
              106.11063744444881,
              9.876521754780368
            ],
            [
              106.10982066972443,
              9.876127647091472
            ],
            [
              106.10865944005768,
              9.87561852655664
            ],
            [
              106.10797239444813,
              9.875293858280667
            ],
            [
              106.10620469167121,
              9.87447484332891
            ],
            [
              106.10424918909607,
              9.873556100341178
            ],
            [
              106.10563159688283,
              9.87013234418582
            ],
            [
              106.10506443230284,
              9.870017533674195
            ],
            [
              106.10516427469983,
              9.868966894200426
            ],
            [
              106.10496765252684,
              9.867321732251693
            ],
            [
              106.10440941974217,
              9.865850422023662
            ],
            [
              106.10457453626783,
              9.865511309117064
            ],
            [
              106.1048320454633,
              9.865627843806173
            ],
            [
              106.10500531860994,
              9.865699774212967
            ],
            [
              106.1052075094969,
              9.865779970763526
            ],
            [
              106.10539819921088,
              9.865852954668888
            ],
            [
              106.10549796397753,
              9.865663628103416
            ],
            [
              106.10554878767516,
              9.865663048583816
            ],
            [
              106.10555956476132,
              9.865665135887628
            ],
            [
              106.10583214058356,
              9.865127230700939
            ],
            [
              106.10657919301129,
              9.863653819991947
            ],
            [
              106.10659242067352,
              9.86362841681271
            ],
            [
              106.10665005122917,
              9.863518730617129
            ],
            [
              106.10634468835967,
              9.863408702729924
            ],
            [
              106.10641182052542,
              9.863295663187786
            ],
            [
              106.10642279515419,
              9.863277180783916
            ],
            [
              106.1064092628553,
              9.863271608453603
            ],
            [
              106.10641925202057,
              9.863249710150644
            ],
            [
              106.10675846678772,
              9.862975414921342
            ],
            [
              106.10703538499494,
              9.86313639708546
            ],
            [
              106.10743675319269,
              9.862698067629324
            ],
            [
              106.10807990278201,
              9.863198076743323
            ],
            [
              106.10819971544817,
              9.863302560787218
            ],
            [
              106.10843491835388,
              9.863486311039429
            ],
            [
              106.10844570313756,
              9.863500577086635
            ],
            [
              106.10880024405071,
              9.863778233305293
            ],
            [
              106.1090388443207,
              9.863974634999988
            ],
            [
              106.10933812689572,
              9.864149046527913
            ],
            [
              106.1096409310174,
              9.863709536450491
            ],
            [
              106.10947822810132,
              9.8635846063688
            ],
            [
              106.10987476415758,
              9.86314791037396
            ],
            [
              106.10989674911954,
              9.863154380463245
            ],
            [
              106.11017578809215,
              9.862881456594051
            ],
            [
              106.1102418745512,
              9.86282374293482
            ],
            [
              106.1106010968124,
              9.862474363749568
            ],
            [
              106.11073490037147,
              9.862353418026638
            ],
            [
              106.11093733774774,
              9.862171951006978
            ],
            [
              106.11073201310658,
              9.861973772493926
            ],
            [
              106.11048659418589,
              9.861787601137717
            ],
            [
              106.1102712452568,
              9.861591791232996
            ],
            [
              106.11010970402144,
              9.861453568348752
            ],
            [
              106.11034009065104,
              9.861200261959281
            ],
            [
              106.11134155587185,
              9.860513196335186
            ],
            [
              106.11156038471724,
              9.86037121046369
            ],
            [
              106.11272488139511,
              9.859595329558587
            ],
            [
              106.11280531017778,
              9.859553411945761
            ],
            [
              106.11352722447403,
              9.859061781763874
            ],
            [
              106.11379915455602,
              9.858892302363287
            ],
            [
              106.1142484358202,
              9.858585612312789
            ],
            [
              106.11514054984569,
              9.857937794372653
            ],
            [
              106.1151775487002,
              9.857928414220261
            ],
            [
              106.11526572173058,
              9.857883950332372
            ],
            [
              106.11538982664813,
              9.857751146346336
            ],
            [
              106.11601142710747,
              9.857982949791342
            ],
            [
              106.11607726469667,
              9.85803780159863
            ],
            [
              106.11621631701708,
              9.85808431908596
            ],
            [
              106.11674675753382,
              9.858375370602563
            ],
            [
              106.11741885165024,
              9.858744144506424
            ],
            [
              106.11743223862102,
              9.85875149782785
            ],
            [
              106.11742773024237,
              9.8586805307146
            ],
            [
              106.11740875238921,
              9.858379123576226
            ],
            [
              106.11740330386519,
              9.858292878133984
            ],
            [
              106.11789228402472,
              9.858254099312854
            ],
            [
              106.11803440364567,
              9.85824380300177
            ],
            [
              106.11836562510099,
              9.85821982136427
            ],
            [
              106.11837418369204,
              9.858378802116674
            ],
            [
              106.11837720828906,
              9.858435333206751
            ],
            [
              106.11862259570961,
              9.858213521168505
            ],
            [
              106.11970080961545,
              9.857140402567254
            ],
            [
              106.1200165348105,
              9.856844438589446
            ],
            [
              106.12023353619291,
              9.856703716583056
            ],
            [
              106.12023922110495,
              9.85674485374706
            ],
            [
              106.12024937490335,
              9.856738949102597
            ],
            [
              106.12031648101359,
              9.857228329520712
            ],
            [
              106.1203402021204,
              9.857401348185697
            ],
            [
              106.12049007104,
              9.858494445293049
            ],
            [
              106.12048141753627,
              9.858497716127212
            ],
            [
              106.12048908687213,
              9.85855321648126
            ],
            [
              106.12003772911198,
              9.858721132160708
            ],
            [
              106.11968827583259,
              9.858923579241775
            ],
            [
              106.11960819767987,
              9.859055008088323
            ],
            [
              106.11875147615518,
              9.85980629709408
            ],
            [
              106.11798351312092,
              9.86058463627337
            ],
            [
              106.11727199634049,
              9.861566031886513
            ],
            [
              106.11724615757457,
              9.861693382739281
            ],
            [
              106.11693819043874,
              9.862536699444547
            ],
            [
              106.1177551382555,
              9.863187273009478
            ],
            [
              106.11845726929101,
              9.863821147481348
            ],
            [
              106.11869318301636,
              9.864040783440954
            ],
            [
              106.11914957202605,
              9.864463537311108
            ],
            [
              106.11953606529279,
              9.86475821128659
            ],
            [
              106.11991666109208,
              9.865101628979444
            ],
            [
              106.12023445791934,
              9.865388381479786
            ],
            [
              106.12124098159985,
              9.866287236404794
            ],
            [
              106.12179937414473,
              9.86679230137155
            ],
            [
              106.1222172148468,
              9.867170238692779
            ],
            [
              106.12241748994433,
              9.867443907107234
            ],
            [
              106.12267267454007,
              9.867726794383815
            ],
            [
              106.12375985463933,
              9.868454880007214
            ],
            [
              106.12417439025872,
              9.868593373647677
            ],
            [
              106.12429394850936,
              9.869076845798045
            ],
            [
              106.12434230167852,
              9.869348746919837
            ],
            [
              106.12480700481774,
              9.87325254240795
            ]
          ]
        ]
      }
    }
  ]
}
