{
  "type": "FeatureCollection",
  "name": "Ấp Trà Kháo",
  "crs": {
    "type": "name",
    "properties": {
      "name": "urn:ogc:def:crs:OGC:1.3:CRS84"
    }
  },
  "features": [
    {
      "type": "Feature",
      "properties": {
        "Layer": "AP 3",
        "PaperSpace": null,
        "SubClasses": "AcDbEntity:AcDbHatch",
        "Linetype": null,
        "EntityHandle": "2BF8A9",
        "Text": "ANSI31",
        "sap_nhap_tu": [
          "Ấp Trà Kháo"
        ],
        "so_ho_sau_sap_nhap": 686,
        "so_dan_sau_sap_nhap": 2780,
        "dien_tich_sau_sap_nhap_ha": 376.49,
        "ma": "3005003",
        "ten": "Ấp Trà Kháo",
        "loai": "Ấp",
        "dien_tich_km2": "3.76",
        "dien_tich_ha": "376.49",
        "dan_so": "2780",
        "so_ho": "686",
        "mat_do_km2": "739.36",
        "audio": "audio/Tra Khao.mp3",
        "can_bo": [
          {
            "ho_ten": "Thạch Ngọc",
            "chuc_vu": "Bí thư Chi bộ",
            "so_dien_thoai": "0974 750 440"
          },
          {
            "ho_ten": "Thạch Ngân",
            "chuc_vu": "Trưởng Ban Nhân Dân",
            "so_dien_thoai": "0787 955 977"
          },
          {
            "ho_ten": "Phạm Thị Mỹ Hạnh",
            "chuc_vu": "Trưởng Ban công tác Mặt trận",
            "so_dien_thoai": "0355 840 804"
          }
        ]
      },
      "geometry": {
        "type": "Polygon",
        "coordinates": [
          [
            [
              106.08799579190531,
              9.888048854036802
            ],
            [
              106.0879872083661,
              9.888144437466698
            ],
            [
              106.08796981509306,
              9.888259656301878
            ],
            [
              106.08793569328854,
              9.888812783166683
            ],
            [
              106.08789274066615,
              9.88932243594165
            ],
            [
              106.08783656368227,
              9.889830484349226
            ],
            [
              106.08776562335402,
              9.890651032005858
            ],
            [
              106.08770996277374,
              9.891398497790853
            ],
            [
              106.08769015500789,
              9.891489218421107
            ],
            [
              106.08773303166036,
              9.891516304089244
            ],
            [
              106.08773316266804,
              9.891523320045943
            ],
            [
              106.08801304404737,
              9.891700586230023
            ],
            [
              106.08809769159085,
              9.891922496872885
            ],
            [
              106.08821199403965,
              9.89220710345864
            ],
            [
              106.0883721188373,
              9.89216016932029
            ],
            [
              106.0884809419984,
              9.892337463066164
            ],
            [
              106.08865603829305,
              9.892658852288559
            ],
            [
              106.0885329268952,
              9.892702014788068
            ],
            [
              106.08873970623813,
              9.893200742224353
            ],
            [
              106.08875326119859,
              9.893234352776101
            ],
            [
              106.08873534908331,
              9.893243516028274
            ],
            [
              106.08876334021647,
              9.893312995956665
            ],
            [
              106.08850561895613,
              9.893445543075286
            ],
            [
              106.08809756312034,
              9.893541915839071
            ],
            [
              106.08780099070906,
              9.89361946780441
            ],
            [
              106.08757519683003,
              9.893759824509424
            ],
            [
              106.0875251118788,
              9.893796376304302
            ],
            [
              106.08742280740782,
              9.893871024616072
            ],
            [
              106.08583138636331,
              9.893176286479227
            ],
            [
              106.08418672276046,
              9.892300470172918
            ],
            [
              106.08257850815372,
              9.891486157848728
            ],
            [
              106.08238815872798,
              9.891378644629837
            ],
            [
              106.08173392800244,
              9.892016347954604
            ],
            [
              106.08107394337124,
              9.892631249527906
            ],
            [
              106.08032640478896,
              9.893256425466712
            ],
            [
              106.07949833223888,
              9.893899173518662
            ],
            [
              106.07808070148984,
              9.894703494308677
            ],
            [
              106.07756099955046,
              9.894999919479728
            ],
            [
              106.07748459912162,
              9.894986997183635
            ],
            [
              106.07660543977453,
              9.895341287042864
            ],
            [
              106.07595775027642,
              9.895630218147408
            ],
            [
              106.07521729079761,
              9.895935066077298
            ],
            [
              106.07496559025316,
              9.89603315526451
            ],
            [
              106.07471205601502,
              9.896101953260782
            ],
            [
              106.07433801899386,
              9.896245739421152
            ],
            [
              106.0742553233073,
              9.895977298847075
            ],
            [
              106.0739923479706,
              9.89529631778808
            ],
            [
              106.07268233240485,
              9.896008496082727
            ],
            [
              106.07145929094159,
              9.896812290362897
            ],
            [
              106.07059471768318,
              9.897626009025164
            ],
            [
              106.0700061763707,
              9.898119141366658
            ],
            [
              106.06975745568393,
              9.898510173948479
            ],
            [
              106.06856671859006,
              9.897708663979362
            ],
            [
              106.0684487450731,
              9.897660969436721
            ],
            [
              106.06817107032317,
              9.897477313979493
            ],
            [
              106.0680031311136,
              9.897447153529805
            ],
            [
              106.06772360955023,
              9.897334564965675
            ],
            [
              106.06746640904193,
              9.89821242402136
            ],
            [
              106.0671217610662,
              9.898930594885394
            ],
            [
              106.0669246815595,
              9.8993507912458
            ],
            [
              106.06674312463593,
              9.899682440357159
            ],
            [
              106.06667256488822,
              9.899716267828037
            ],
            [
              106.0666454827671,
              9.899660728281045
            ],
            [
              106.06555007972722,
              9.897836448505396
            ],
            [
              106.06407262232463,
              9.895386833089084
            ],
            [
              106.06337583427826,
              9.89413859977499
            ],
            [
              106.06300677121381,
              9.893605930262883
            ],
            [
              106.06246597565749,
              9.892685916926716
            ],
            [
              106.06318489797111,
              9.892092996552766
            ],
            [
              106.063788899957,
              9.89126286506571
            ],
            [
              106.06572746396371,
              9.888668984083433
            ],
            [
              106.06599557430016,
              9.888982893489628
            ],
            [
              106.06811383878956,
              9.887635894136286
            ],
            [
              106.06837469854285,
              9.887912288799521
            ],
            [
              106.06858118076146,
              9.888167048379767
            ],
            [
              106.06861393464443,
              9.888226740390227
            ],
            [
              106.0686396842715,
              9.888496940200907
            ],
            [
              106.06884936003408,
              9.888717709626615
            ],
            [
              106.06890145902327,
              9.888802707787837
            ],
            [
              106.06897636196648,
              9.888950018676171
            ],
            [
              106.06928257338694,
              9.889155133896105
            ],
            [
              106.06941965891899,
              9.889131952855497
            ],
            [
              106.06956022365988,
              9.889061102626693
            ],
            [
              106.0697885333511,
              9.888833169195173
            ],
            [
              106.07028793138348,
              9.888547673603227
            ],
            [
              106.07063871303212,
              9.888420080823701
            ],
            [
              106.07091302496019,
              9.889021316793416
            ],
            [
              106.07133964313277,
              9.888815907441678
            ],
            [
              106.07170206176946,
              9.888596300529457
            ],
            [
              106.0723514143893,
              9.888208090461227
            ],
            [
              106.0737091173662,
              9.887163820090459
            ],
            [
              106.07415253804538,
              9.887383856408583
            ],
            [
              106.07492523489418,
              9.887830665619818
            ],
            [
              106.07549797458769,
              9.888068969463736
            ],
            [
              106.07630797517952,
              9.887093891290723
            ],
            [
              106.07650599712267,
              9.886981960069413
            ],
            [
              106.07662252199356,
              9.886889518344004
            ],
            [
              106.07695175046918,
              9.886547135634661
            ],
            [
              106.07758633197433,
              9.885896634101787
            ],
            [
              106.07815886867525,
              9.885306411624653
            ],
            [
              106.07875511835968,
              9.884720555624396
            ],
            [
              106.07931754866573,
              9.884254823348071
            ],
            [
              106.079813596339,
              9.883891884984735
            ],
            [
              106.08008649100334,
              9.883689360959604
            ],
            [
              106.08028150086808,
              9.883611332863818
            ],
            [
              106.08049020360002,
              9.883236500159315
            ],
            [
              106.08075805647307,
              9.882933575930869
            ],
            [
              106.0809261030892,
              9.882557303999196
            ],
            [
              106.08119591911019,
              9.881953278337706
            ],
            [
              106.08122883952592,
              9.881603365319608
            ],
            [
              106.08123848043392,
              9.881291229880508
            ],
            [
              106.08128615990572,
              9.881089138845736
            ],
            [
              106.08144159087024,
              9.88082869502294
            ],
            [
              106.08151263790387,
              9.88067129416178
            ],
            [
              106.08153575435533,
              9.880517269582914
            ],
            [
              106.08150954368548,
              9.880137496211345
            ],
            [
              106.08152985611721,
              9.879823654605985
            ],
            [
              106.0815752077247,
              9.879173929525992
            ],
            [
              106.08156992708417,
              9.87879607660629
            ],
            [
              106.08167364825304,
              9.878302610515425
            ],
            [
              106.08179348698458,
              9.877758768899795
            ],
            [
              106.08190945978427,
              9.877592425522758
            ],
            [
              106.08220625531763,
              9.877218351261481
            ],
            [
              106.08256795423686,
              9.87673371710239
            ],
            [
              106.08272055954859,
              9.87636908837022
            ],
            [
              106.08273862998115,
              9.876081315880901
            ],
            [
              106.08281782496347,
              9.875809155566547
            ],
            [
              106.08299144863811,
              9.875513078421653
            ],
            [
              106.08333053595366,
              9.875215242432509
            ],
            [
              106.08376217061064,
              9.874787006095152
            ],
            [
              106.08419800529006,
              9.874367530161368
            ],
            [
              106.08448603228344,
              9.874065257738462
            ],
            [
              106.08464133731346,
              9.873834802146504
            ],
            [
              106.08471800201107,
              9.873860426649195
            ],
            [
              106.08483261142028,
              9.87391140254177
            ],
            [
              106.08500662411934,
              9.87398867639335
            ],
            [
              106.08514278255481,
              9.874049256361918
            ],
            [
              106.08516591257454,
              9.87414382344484
            ],
            [
              106.0852464676125,
              9.874272524251326
            ],
            [
              106.08534912302405,
              9.874369496696346
            ],
            [
              106.08542063478912,
              9.87443704797798
            ],
            [
              106.08567307211166,
              9.87467530449446
            ],
            [
              106.0858080186839,
              9.87483166842844
            ],
            [
              106.08596041619005,
              9.875008254877429
            ],
            [
              106.08632062811569,
              9.875401656111627
            ],
            [
              106.08673201291853,
              9.875858348587748
            ],
            [
              106.08695809792928,
              9.8761459260143
            ],
            [
              106.08699661439763,
              9.876270902643682
            ],
            [
              106.08704228077129,
              9.876365849069945
            ],
            [
              106.08710764953389,
              9.876465191471123
            ],
            [
              106.087219500674,
              9.876553964691345
            ],
            [
              106.08732859570149,
              9.876785236488383
            ],
            [
              106.08741587620369,
              9.876949467472569
            ],
            [
              106.08749441236877,
              9.877021201281515
            ],
            [
              106.08751347734737,
              9.877128852109411
            ],
            [
              106.08752176059714,
              9.877275128885172
            ],
            [
              106.08757424095545,
              9.877356139443188
            ],
            [
              106.08763225900348,
              9.87742348768646
            ],
            [
              106.08768878913892,
              9.877525829059842
            ],
            [
              106.08782498029177,
              9.877817088813126
            ],
            [
              106.08801018957732,
              9.878139184776348
            ],
            [
              106.08816904560382,
              9.878562320011882
            ],
            [
              106.08820671461878,
              9.878671746573138
            ],
            [
              106.0882345501542,
              9.878788965982288
            ],
            [
              106.08825692018155,
              9.878960443833146
            ],
            [
              106.08838402971669,
              9.879425406019724
            ],
            [
              106.08847755832383,
              9.87977243548115
            ],
            [
              106.08847980759087,
              9.879909319588423
            ],
            [
              106.08850411445547,
              9.880298241653483
            ],
            [
              106.08854841924007,
              9.880755030270807
            ],
            [
              106.08854564795332,
              9.88135023583206
            ],
            [
              106.08853014700894,
              9.881503877697268
            ],
            [
              106.088483828468,
              9.882119773945805
            ],
            [
              106.0884124609963,
              9.883057861918624
            ],
            [
              106.08840067635437,
              9.883208875244211
            ],
            [
              106.08834871921968,
              9.883874690268303
            ],
            [
              106.08830818071883,
              9.884408298872817
            ],
            [
              106.08827516848876,
              9.884713325698037
            ],
            [
              106.08824590784177,
              9.884974494783446
            ],
            [
              106.08823839915648,
              9.88521302214274
            ],
            [
              106.08818631221493,
              9.885867083403696
            ],
            [
              106.08813974842394,
              9.886345459049469
            ],
            [
              106.08812245551061,
              9.886568361737055
            ],
            [
              106.08811475995084,
              9.886753092605174
            ],
            [
              106.08809504011673,
              9.887046975139674
            ],
            [
              106.08808411532213,
              9.887143132783255
            ],
            [
              106.08808202248962,
              9.887161553430671
            ],
            [
              106.08799579190531,
              9.888048854036802
            ]
          ]
        ]
      }
    }
  ]
}