{
  "type": "FeatureCollection",
  "name": "Ấp Giồng Dầu",
  "crs": {
    "type": "name",
    "properties": {
      "name": "urn:ogc:def:crs:OGC:1.3:CRS84"
    }
  },
  "features": [
    {
      "type": "Feature",
      "properties": {
        "Layer": "AP 7",
        "PaperSpace": null,
        "SubClasses": "AcDbEntity:AcDbHatch",
        "Linetype": null,
        "EntityHandle": "2BF9A9",
        "Text": "ANSI31",
        "sap_nhap_tu": [
          "Ấp Giồng Dầu"
        ],
        "so_ho_sau_sap_nhap": 413,
        "so_dan_sau_sap_nhap": 1704,
        "dien_tich_sau_sap_nhap_ha": 321.91,
        "ma": "3005007",
        "ten": "Ấp Giồng Dầu",
        "loai": "Ấp",
        "dien_tich_km2": "0.3219",
        "dien_tich_ha": "321.91",
        "dan_so": "1704",
        "so_ho": "413",
        "mat_do_km2": "5293.40"
      },
      "geometry": {
        "type": "Polygon",
        "coordinates": [
          [
            [
              106.089977376387,
              9.903417540694551
            ],
            [
              106.09030234198046,
              9.90340573124828
            ],
            [
              106.09050901640849,
              9.90338107357677
            ],
            [
              106.09092556448435,
              9.90338709504226
            ],
            [
              106.09096340101753,
              9.903536827485334
            ],
            [
              106.09150156505383,
              9.90337543947595
            ],
            [
              106.0915252463859,
              9.90363241317007
            ],
            [
              106.09156572901696,
              9.90382052852697
            ],
            [
              106.09164262388293,
              9.90383031126862
            ],
            [
              106.09175823402056,
              9.903873524730079
            ],
            [
              106.09187029959253,
              9.90392324520835
            ],
            [
              106.09198122041383,
              9.903995634614795
            ],
            [
              106.09205700054505,
              9.904049008434795
            ],
            [
              106.09216214369934,
              9.904102981457328
            ],
            [
              106.09230406561855,
              9.904174086455226
            ],
            [
              106.0925643429081,
              9.904293616640155
            ],
            [
              106.09276828464333,
              9.904371998885962
            ],
            [
              106.0928104638408,
              9.904451308485669
            ],
            [
              106.09284027876716,
              9.904551245394863
            ],
            [
              106.09287022452408,
              9.9046732522781
            ],
            [
              106.09291581273135,
              9.904924434035573
            ],
            [
              106.0930012777138,
              9.9052421176566
            ],
            [
              106.09300853576487,
              9.90527236661364
            ],
            [
              106.09310235730003,
              9.905673316337248
            ],
            [
              106.0931328542782,
              9.905797483113611
            ],
            [
              106.09324785992179,
              9.906315771595176
            ],
            [
              106.09329703197761,
              9.90653122410584
            ],
            [
              106.09330510025481,
              9.90660636247106
            ],
            [
              106.09329049466952,
              9.906648367776778
            ],
            [
              106.09325526685983,
              9.906682579609909
            ],
            [
              106.0932594422787,
              9.906824143421888
            ],
            [
              106.09325879143188,
              9.906993825043863
            ],
            [
              106.09321108463435,
              9.907072080115594
            ],
            [
              106.09323319898809,
              9.907138923021545
            ],
            [
              106.0932148102899,
              9.907409937113982
            ],
            [
              106.09321099517129,
              9.907925578322883
            ],
            [
              106.09321165998351,
              9.908194036175157
            ],
            [
              106.09317273906555,
              9.908913353054931
            ],
            [
              106.0934881950031,
              9.908985579310485
            ],
            [
              106.09359482431255,
              9.909002931231626
            ],
            [
              106.09403585337151,
              9.909091360359431
            ],
            [
              106.09402934480113,
              9.909161816762323
            ],
            [
              106.09404435837925,
              9.909245170522928
            ],
            [
              106.09407220229647,
              9.909364124922607
            ],
            [
              106.09410518350079,
              9.909550826911044
            ],
            [
              106.09405741884488,
              9.9095572167742
            ],
            [
              106.09412577281,
              9.909726638162502
            ],
            [
              106.09420135956653,
              9.909890470835345
            ],
            [
              106.09441326731977,
              9.910339257187035
            ],
            [
              106.0945653420643,
              9.910628242147425
            ],
            [
              106.0945756099367,
              9.910658675585767
            ],
            [
              106.0945973211495,
              9.911004142714177
            ],
            [
              106.0945195481941,
              9.911023425858323
            ],
            [
              106.09452000968092,
              9.911279578509008
            ],
            [
              106.09450664178,
              9.911310774635162
            ],
            [
              106.09450584075087,
              9.911310887071156
            ],
            [
              106.09450357374583,
              9.911317934380728
            ],
            [
              106.09444518528431,
              9.911454193079807
            ],
            [
              106.094402823671,
              9.911527494853713
            ],
            [
              106.09436842966785,
              9.911569191666004
            ],
            [
              106.09422321322721,
              9.911848061261823
            ],
            [
              106.09405603968185,
              9.912188415405831
            ],
            [
              106.09396374410167,
              9.912387482611317
            ],
            [
              106.09389795167638,
              9.91270802739969
            ],
            [
              106.09382805914807,
              9.913094980742693
            ],
            [
              106.09381058356952,
              9.913533660424088
            ],
            [
              106.0938814165789,
              9.913608296365442
            ],
            [
              106.09396873645665,
              9.913789287390097
            ],
            [
              106.09401990834151,
              9.91394954702701
            ],
            [
              106.0940229924655,
              9.913996204519425
            ],
            [
              106.09406258452687,
              9.914303923654716
            ],
            [
              106.09345370588557,
              9.914298147608848
            ],
            [
              106.09325401257027,
              9.91430391654706
            ],
            [
              106.09265461381995,
              9.91436770287435
            ],
            [
              106.0926691507242,
              9.914368242923649
            ],
            [
              106.09234607444834,
              9.914422110101723
            ],
            [
              106.0921985550046,
              9.914435634298197
            ],
            [
              106.09169756782124,
              9.91448923882328
            ],
            [
              106.09125746315004,
              9.91452524915511
            ],
            [
              106.09095503495311,
              9.914550763460621
            ],
            [
              106.09079829731238,
              9.914564936184373
            ],
            [
              106.0907913498002,
              9.91456554515295
            ],
            [
              106.09020831372649,
              9.91461603700191
            ],
            [
              106.08990376260004,
              9.914627368049876
            ],
            [
              106.08977473632596,
              9.914630849781357
            ],
            [
              106.08960460521286,
              9.914646320339052
            ],
            [
              106.08960901535383,
              9.916093235768333
            ],
            [
              106.08957912900024,
              9.916106543070999
            ],
            [
              106.0891930961031,
              9.916141967561684
            ],
            [
              106.08896658452888,
              9.916143694369335
            ],
            [
              106.08839341726481,
              9.91617673396635
            ],
            [
              106.08841679216262,
              9.916393109427666
            ],
            [
              106.08843793112412,
              9.916588015330726
            ],
            [
              106.08843330331392,
              9.91721413568923
            ],
            [
              106.08844642923513,
              9.917562339820927
            ],
            [
              106.08840105894679,
              9.91758742381256
            ],
            [
              106.0883051840306,
              9.91762439976053
            ],
            [
              106.08820543052046,
              9.917675519962332
            ],
            [
              106.08805714179893,
              9.91767233852036
            ],
            [
              106.08772306790868,
              9.91774929723461
            ],
            [
              106.0875754025458,
              9.917797619273067
            ],
            [
              106.08757815237776,
              9.917894576174602
            ],
            [
              106.08753955678036,
              9.918235244742723
            ],
            [
              106.08748935264826,
              9.91841726499927
            ],
            [
              106.08748686160882,
              9.918503407382087
            ],
            [
              106.08747008437996,
              9.918639831355126
            ],
            [
              106.08778516586688,
              9.918759773307492
            ],
            [
              106.08775656218509,
              9.91894145488138
            ],
            [
              106.08778316501842,
              9.918944672427745
            ],
            [
              106.08770084825434,
              9.919403770152282
            ],
            [
              106.08737131567302,
              9.919369158043182
            ],
            [
              106.0872125280683,
              9.919406252923451
            ],
            [
              106.08694801506586,
              9.919423316056344
            ],
            [
              106.08685391246507,
              9.919426636195132
            ],
            [
              106.08638285514695,
              9.91944485586835
            ],
            [
              106.08633853909873,
              9.91944626244004
            ],
            [
              106.08624203231824,
              9.919430906945001
            ],
            [
              106.08598024060353,
              9.91936886603876
            ],
            [
              106.08582008066224,
              9.91937197054401
            ],
            [
              106.08581012941562,
              9.919362572179583
            ],
            [
              106.08568889517078,
              9.91939309447959
            ],
            [
              106.08564036707342,
              9.919405303823918
            ],
            [
              106.0855561539559,
              9.919426544598515
            ],
            [
              106.08543626482565,
              9.91945676251269
            ],
            [
              106.0854143295775,
              9.919456800800292
            ],
            [
              106.08539660021299,
              9.91958352138518
            ],
            [
              106.08482559942205,
              9.919703864273776
            ],
            [
              106.0848033053609,
              9.91951778436156
            ],
            [
              106.08480329245411,
              9.919517784578732
            ],
            [
              106.0843554693662,
              9.91952531909753
            ],
            [
              106.08435546024718,
              9.919525319113415
            ],
            [
              106.08436025337458,
              9.919446170797872
            ],
            [
              106.08430206841936,
              9.919446272168791
            ],
            [
              106.08428007448194,
              9.919737093120576
            ],
            [
              106.08425641698325,
              9.92002890248612
            ],
            [
              106.0842499792923,
              9.920306984026022
            ],
            [
              106.08422953638774,
              9.920601455016083
            ],
            [
              106.08422952726869,
              9.920601455031967
            ],
            [
              106.0842018121998,
              9.920600219425204
            ],
            [
              106.08370057870617,
              9.920577738101702
            ],
            [
              106.08341419696029,
              9.920548471921512
            ],
            [
              106.08300959420885,
              9.920456581869283
            ],
            [
              106.08255554908035,
              9.9202930331425
            ],
            [
              106.08246117215937,
              9.92024968047358
            ],
            [
              106.08234619112643,
              9.920246285954873
            ],
            [
              106.08227753951732,
              9.920264095004496
            ],
            [
              106.08170532246483,
              9.920111735627213
            ],
            [
              106.08143516002238,
              9.920028489130214
            ],
            [
              106.08109509426465,
              9.919916078204828
            ],
            [
              106.08058682430892,
              9.91977458808199
            ],
            [
              106.08057756191639,
              9.919746280538687
            ],
            [
              106.07964043970533,
              9.91942052981421
            ],
            [
              106.07959947231986,
              9.919395047341238
            ],
            [
              106.07917436914104,
              9.919358530815103
            ],
            [
              106.07868774911275,
              9.919342915285004
            ],
            [
              106.07821240149686,
              9.919307216576186
            ],
            [
              106.07821300113095,
              9.919077146121092
            ],
            [
              106.07820146049689,
              9.918788254657962
            ],
            [
              106.07764237514006,
              9.918841938819712
            ],
            [
              106.07763220723571,
              9.91876375658735
            ],
            [
              106.07754228239283,
              9.918757401573423
            ],
            [
              106.0769420265276,
              9.918734094932713
            ],
            [
              106.07681400509689,
              9.918729132256257
            ],
            [
              106.07690911714164,
              9.914767636107026
            ],
            [
              106.07690935548823,
              9.914757925146407
            ],
            [
              106.07691401166173,
              9.914542087941621
            ],
            [
              106.07691694622437,
              9.914405529403323
            ],
            [
              106.07691579392257,
              9.913667946991882
            ],
            [
              106.0769697695574,
              9.911365209026918
            ],
            [
              106.07702620490619,
              9.908537820360342
            ],
            [
              106.07694245277884,
              9.90832103219817
            ],
            [
              106.07705985801944,
              9.908287854396137
            ],
            [
              106.07726865094773,
              9.908263142430892
            ],
            [
              106.07749309544715,
              9.908219971375388
            ],
            [
              106.07767618764314,
              9.908133406008595
            ],
            [
              106.07789301193358,
              9.908018370289113
            ],
            [
              106.07786069554865,
              9.907922167797993
            ],
            [
              106.0778294255005,
              9.907809290605073
            ],
            [
              106.07771485843189,
              9.907531873096175
            ],
            [
              106.07755155385104,
              9.907198179016678
            ],
            [
              106.07740807766643,
              9.906908616587955
            ],
            [
              106.07711410953948,
              9.906406742083504
            ],
            [
              106.07706835556237,
              9.906321729044514
            ],
            [
              106.0769172904328,
              9.905843347842897
            ],
            [
              106.07684174095769,
              9.905518128561697
            ],
            [
              106.07680221119469,
              9.905076819166267
            ],
            [
              106.07648458871628,
              9.904309215304043
            ],
            [
              106.0761843435825,
              9.904376030401126
            ],
            [
              106.0759515630974,
              9.904324791602416
            ],
            [
              106.07568371356632,
              9.904079109670505
            ],
            [
              106.07550907904746,
              9.9038967961901
            ],
            [
              106.0754029556948,
              9.903761635776826
            ],
            [
              106.07533875167972,
              9.903669776430718
            ],
            [
              106.07517789469065,
              9.90322176835406
            ],
            [
              106.07512807839328,
              9.903147626816097
            ],
            [
              106.07490970869499,
              9.902937179405757
            ],
            [
              106.07478540966146,
              9.902803872037618
            ],
            [
              106.07463804848899,
              9.902658306379815
            ],
            [
              106.07456813584797,
              9.902562911016718
            ],
            [
              106.07443458305082,
              9.902517517373779
            ],
            [
              106.0743225795811,
              9.9025153166551
            ],
            [
              106.07421321393736,
              9.902483568414729
            ],
            [
              106.07376126264155,
              9.902106420462495
            ],
            [
              106.073678935359,
              9.901909508573537
            ],
            [
              106.07319084561165,
              9.901523136225112
            ],
            [
              106.07281202211841,
              9.901232097413759
            ],
            [
              106.07252764348657,
              9.900918619349685
            ],
            [
              106.07061510060453,
              9.899170031826737
            ],
            [
              106.0703680882332,
              9.89892120020022
            ],
            [
              106.06975745568393,
              9.898510173948479
            ],
            [
              106.0700061763707,
              9.898119141366658
            ],
            [
              106.07059471768318,
              9.897626009025164
            ],
            [
              106.07145929094159,
              9.896812290362897
            ],
            [
              106.07268233240485,
              9.896008496082727
            ],
            [
              106.0739923479706,
              9.89529631778808
            ],
            [
              106.0742553233073,
              9.895977298847075
            ],
            [
              106.07433801899386,
              9.896245739421152
            ],
            [
              106.07471205601502,
              9.896101953260782
            ],
            [
              106.07496559025316,
              9.89603315526451
            ],
            [
              106.07521729079761,
              9.895935066077298
            ],
            [
              106.07595775027642,
              9.895630218147408
            ],
            [
              106.07660543977453,
              9.895341287042864
            ],
            [
              106.07748459912162,
              9.894986997183635
            ],
            [
              106.07756099955046,
              9.894999919479728
            ],
            [
              106.07808070148984,
              9.894703494308677
            ],
            [
              106.07949833223888,
              9.893899173518662
            ],
            [
              106.08032640478896,
              9.893256425466712
            ],
            [
              106.08107394337124,
              9.892631249527906
            ],
            [
              106.08173392800244,
              9.892016347954604
            ],
            [
              106.08238815872798,
              9.891378644629837
            ],
            [
              106.08257850815372,
              9.891486157848728
            ],
            [
              106.08418672276046,
              9.892300470172918
            ],
            [
              106.08583138636331,
              9.893176286479227
            ],
            [
              106.08742280740782,
              9.893871024616072
            ],
            [
              106.0878830501001,
              9.894077817566957
            ],
            [
              106.08843087153485,
              9.89443832836009
            ],
            [
              106.08848924094424,
              9.894500766709358
            ],
            [
              106.08834681437239,
              9.894603482378288
            ],
            [
              106.08827928681019,
              9.894651950082201
            ],
            [
              106.08806107277132,
              9.894690762374339
            ],
            [
              106.08780862879036,
              9.894771528306093
            ],
            [
              106.08781658731701,
              9.894791025894786
            ],
            [
              106.08784234050627,
              9.894854207901805
            ],
            [
              106.0880334667093,
              9.89526725892577
            ],
            [
              106.08808850152062,
              9.895398435824983
            ],
            [
              106.08820445024709,
              9.89563382666473
            ],
            [
              106.08821524902133,
              9.895655787593286
            ],
            [
              106.08824619043895,
              9.895723933290586
            ],
            [
              106.08836107029123,
              9.89597342158714
            ],
            [
              106.08846433277638,
              9.896202026281996
            ],
            [
              106.08855842010202,
              9.896398676349866
            ],
            [
              106.08877170922923,
              9.896864761453347
            ],
            [
              106.0887785110879,
              9.896895201218776
            ],
            [
              106.08876977244805,
              9.896903643178192
            ],
            [
              106.08858021652273,
              9.896963802582022
            ],
            [
              106.08839674272048,
              9.89700871635342
            ],
            [
              106.08827980699513,
              9.89703883022677
            ],
            [
              106.08830143781424,
              9.897101377445896
            ],
            [
              106.08837113390041,
              9.89732383843613
            ],
            [
              106.08842036470321,
              9.897472574897419
            ],
            [
              106.08855484319331,
              9.897820626005949
            ],
            [
              106.08859044705463,
              9.897840602317778
            ],
            [
              106.08875432426254,
              9.898417664765555
            ],
            [
              106.08882659593651,
              9.898676740052554
            ],
            [
              106.08914888537147,
              9.89862527074046
            ],
            [
              106.08917226919465,
              9.898750291374498
            ],
            [
              106.0889323002673,
              9.89879846631195
            ],
            [
              106.08891576106343,
              9.89887172603122
            ],
            [
              106.08897111830672,
              9.8991097711973
            ],
            [
              106.08903197114861,
              9.899383792899934
            ],
            [
              106.08907074166856,
              9.899546733616916
            ],
            [
              106.08905683601611,
              9.899546757992823
            ],
            [
              106.0890973326796,
              9.899731675492674
            ],
            [
              106.08916759697661,
              9.899914171926936
            ],
            [
              106.08918289010832,
              9.900308660627742
            ],
            [
              106.08920857214468,
              9.900495132081787
            ],
            [
              106.08923748011392,
              9.900825806998537
            ],
            [
              106.0893269251471,
              9.901105513056574
            ],
            [
              106.08935155504257,
              9.901724340348856
            ],
            [
              106.08989370914513,
              9.901704862909035
            ],
            [
              106.08991806955521,
              9.902427423311135
            ],
            [
              106.08993964651671,
              9.90281677431568
            ],
            [
              106.089977376387,
              9.903417540694551
            ]
          ]
        ]
      }
    }
  ]
}