{
  "type": "FeatureCollection",
  "name": "Ấp Châu Hưng",
  "crs": {
    "type": "name",
    "properties": {
      "name": "urn:ogc:def:crs:OGC:1.3:CRS84"
    }
  },
  "features": [
    {
      "type": "Feature",
      "properties": {
        "Layer": "AP 11",
        "PaperSpace": null,
        "SubClasses": "AcDbEntity:AcDbHatch",
        "Linetype": null,
        "EntityHandle": "2BFA04",
        "Text": "ANSI31",
        "sap_nhap_tu": [
          "Ấp Châu Hưng"
        ],
        "so_ho_sau_sap_nhap": 530,
        "so_dan_sau_sap_nhap": 2283,
        "dien_tich_sau_sap_nhap_ha": 548.74,
        "ma": "3005011",
        "ten": "Ấp Châu Hưng",
        "loai": "Ấp",
        "dien_tich_km2": "0.5487",
        "dien_tich_ha": "548.74",
        "dan_so": "2283",
        "so_ho": "530",
        "mat_do_km2": "4160.42"
      },
      "geometry": {
        "type": "Polygon",
        "coordinates": [
          [
            [
              106.11102381232871,
              9.889770597308548
            ],
            [
              106.11110016101233,
              9.889950191873144
            ],
            [
              106.11120168421797,
              9.890627557062144
            ],
            [
              106.1112804043834,
              9.891080310636736
            ],
            [
              106.11140997814107,
              9.8914384110079
            ],
            [
              106.11052154468611,
              9.89141533179235
            ],
            [
              106.11014803830555,
              9.895598904583334
            ],
            [
              106.10852334491888,
              9.898294626629976
            ],
            [
              106.10831741558749,
              9.900344594684647
            ],
            [
              106.10811632173039,
              9.900292731337238
            ],
            [
              106.10761967602484,
              9.900164608419468
            ],
            [
              106.10749888743804,
              9.900132006383789
            ],
            [
              106.10736888475492,
              9.90009697976872
            ],
            [
              106.10736668438513,
              9.900109334355031
            ],
            [
              106.10725991327081,
              9.900083460851238
            ],
            [
              106.10726078032333,
              9.900069508339417
            ],
            [
              106.107249656818,
              9.90007007092809
            ],
            [
              106.10691331508261,
              9.899991927617489
            ],
            [
              106.10656099612865,
              9.899902872654835
            ],
            [
              106.10611533085157,
              9.899778633650445
            ],
            [
              106.10541417348827,
              9.899608471818604
            ],
            [
              106.10471071944941,
              9.899428638265341
            ],
            [
              106.10471444609138,
              9.899422121717807
            ],
            [
              106.1044837441675,
              9.899350813773745
            ],
            [
              106.10445785463398,
              9.899373397885713
            ],
            [
              106.10442331215849,
              9.899382411049023
            ],
            [
              106.10436991167461,
              9.899301134068919
            ],
            [
              106.10425016628633,
              9.899241561883173
            ],
            [
              106.10424015561127,
              9.899300915332079
            ],
            [
              106.10423743744462,
              9.899310413739169
            ],
            [
              106.10345161494375,
              9.899114179713354
            ],
            [
              106.10335720242821,
              9.899094186804998
            ],
            [
              106.10322856909116,
              9.89905960815088
            ],
            [
              106.10296265582832,
              9.89899914599543
            ],
            [
              106.10280947520195,
              9.89895430396558
            ],
            [
              106.10254874259832,
              9.89888451948646
            ],
            [
              106.10213128464848,
              9.898776046988067
            ],
            [
              106.1019943493303,
              9.898739041529058
            ],
            [
              106.10167872944129,
              9.898672247932739
            ],
            [
              106.1011810905342,
              9.898547100659115
            ],
            [
              106.10096041170146,
              9.89849008211928
            ],
            [
              106.10094371415525,
              9.898484144617996
            ],
            [
              106.10075435148947,
              9.898449040671018
            ],
            [
              106.10052910371591,
              9.89838660513462
            ],
            [
              106.10046796995267,
              9.898364472390922
            ],
            [
              106.09972321347503,
              9.898184249794276
            ],
            [
              106.09923396153206,
              9.89805727629203
            ],
            [
              106.09910525349467,
              9.898031375940478
            ],
            [
              106.09882081259666,
              9.897960636178892
            ],
            [
              106.09871957328404,
              9.8979469831142
            ],
            [
              106.09871690634101,
              9.897934510654899
            ],
            [
              106.09833877854425,
              9.897841243297007
            ],
            [
              106.09808162321701,
              9.897782208209245
            ],
            [
              106.09779726734541,
              9.897707850820954
            ],
            [
              106.09778157176557,
              9.89770127847257
            ],
            [
              106.09752304248772,
              9.897638719219774
            ],
            [
              106.09724771421082,
              9.897564435717035
            ],
            [
              106.09699357174618,
              9.897507293125143
            ],
            [
              106.09697550410151,
              9.897500001634057
            ],
            [
              106.0962571739735,
              9.897308422363942
            ],
            [
              106.09614608380234,
              9.897292977688812
            ],
            [
              106.09612837927868,
              9.897335323127413
            ],
            [
              106.09561398095381,
              9.897167792632414
            ],
            [
              106.09560777670464,
              9.897165724090245
            ],
            [
              106.09557939036068,
              9.89709829569838
            ],
            [
              106.09537143811995,
              9.897171658094624
            ],
            [
              106.09483464647657,
              9.897380019654573
            ],
            [
              106.09460721868489,
              9.897523548432716
            ],
            [
              106.09454340416794,
              9.897493065008186
            ],
            [
              106.09450181030509,
              9.897473202155608
            ],
            [
              106.09401163874774,
              9.897238981688334
            ],
            [
              106.09327460959027,
              9.896839656075052
            ],
            [
              106.09240915952822,
              9.8964204830283
            ],
            [
              106.09186943171282,
              9.896160406609434
            ],
            [
              106.09128755100697,
              9.895834400693378
            ],
            [
              106.09096498113952,
              9.895702962458055
            ],
            [
              106.09067333149316,
              9.895525358071257
            ],
            [
              106.09045559020618,
              9.895416157958085
            ],
            [
              106.08848924094424,
              9.894500766709358
            ],
            [
              106.08843087153485,
              9.89443832836009
            ],
            [
              106.0878830501001,
              9.894077817566957
            ],
            [
              106.08742280740782,
              9.893871024616072
            ],
            [
              106.0875251118788,
              9.893796376304302
            ],
            [
              106.08757519683003,
              9.893759824509424
            ],
            [
              106.08780099070906,
              9.89361946780441
            ],
            [
              106.08809756312034,
              9.893541915839071
            ],
            [
              106.08850561895613,
              9.893445543075286
            ],
            [
              106.08876334021647,
              9.893312995956665
            ],
            [
              106.08873534908331,
              9.893243516028274
            ],
            [
              106.08875326119859,
              9.893234352776101
            ],
            [
              106.08873970623813,
              9.893200742224353
            ],
            [
              106.0885329268952,
              9.892702014788068
            ],
            [
              106.08865603829305,
              9.892658852288559
            ],
            [
              106.0884809419984,
              9.892337463066164
            ],
            [
              106.0883721188373,
              9.89216016932029
            ],
            [
              106.08821199403965,
              9.89220710345864
            ],
            [
              106.08809769159085,
              9.891922496872885
            ],
            [
              106.08801304404737,
              9.891700586230023
            ],
            [
              106.08773316266804,
              9.891523320045943
            ],
            [
              106.08773303166036,
              9.891516304089244
            ],
            [
              106.08769015500789,
              9.891489218421107
            ],
            [
              106.08770996277374,
              9.891398497790853
            ],
            [
              106.08776562335402,
              9.890651032005858
            ],
            [
              106.08783656368227,
              9.889830484349226
            ],
            [
              106.08789274066615,
              9.88932243594165
            ],
            [
              106.08793569328854,
              9.888812783166683
            ],
            [
              106.08796981509306,
              9.888259656301878
            ],
            [
              106.0879872083661,
              9.888144437466698
            ],
            [
              106.08799579190531,
              9.888048854036802
            ],
            [
              106.08808202248962,
              9.887161553430682
            ],
            [
              106.08808411532213,
              9.887143132783255
            ],
            [
              106.09791012992359,
              9.881437435429499
            ],
            [
              106.0964568083843,
              9.881053769450423
            ],
            [
              106.09733394887827,
              9.879051317930797
            ],
            [
              106.09850109873258,
              9.879554553972042
            ],
            [
              106.09953560317673,
              9.879967558826053
            ],
            [
              106.10039607814389,
              9.880311082669987
            ],
            [
              106.1007540765998,
              9.880468036492207
            ],
            [
              106.10133563805579,
              9.877106167323072
            ],
            [
              106.10270715985465,
              9.874452792486286
            ],
            [
              106.10392383370909,
              9.874361885189506
            ],
            [
              106.10424918909607,
              9.873556100341178
            ],
            [
              106.10620469167121,
              9.87447484332891
            ],
            [
              106.10797239444813,
              9.875293858280667
            ],
            [
              106.10865944005768,
              9.87561852655664
            ],
            [
              106.10982066972443,
              9.876127647091472
            ],
            [
              106.11063744444881,
              9.876521754780368
            ],
            [
              106.1118432653606,
              9.877087399153266
            ],
            [
              106.11215242074896,
              9.877241639875372
            ],
            [
              106.11244564292785,
              9.87741689249104
            ],
            [
              106.11276290392388,
              9.877639415892189
            ],
            [
              106.1130598612536,
              9.8779108530424
            ],
            [
              106.1132155706808,
              9.87805318068114
            ],
            [
              106.11344234754878,
              9.878312208571687
            ],
            [
              106.11351553475623,
              9.878444057234605
            ],
            [
              106.11371711207455,
              9.878915365057996
            ],
            [
              106.11448276269255,
              9.880745561198072
            ],
            [
              106.11500569259783,
              9.882079849623924
            ],
            [
              106.11540899827067,
              9.883018115589788
            ],
            [
              106.11601569109811,
              9.884521535801818
            ],
            [
              106.11578071995723,
              9.884806005095642
            ],
            [
              106.1146024866552,
              9.884376829395634
            ],
            [
              106.11340340778546,
              9.887695574969722
            ],
            [
              106.11454598836134,
              9.887888192913662
            ],
            [
              106.11408381874062,
              9.88916935256235
            ],
            [
              106.11400012218243,
              9.889158069484438
            ],
            [
              106.11332855138023,
              9.889219482156705
            ],
            [
              106.11212935487136,
              9.889292624567407
            ],
            [
              106.11140276571935,
              9.88932439748411
            ],
            [
              106.11067584319844,
              9.889524655510805
            ],
            [
              106.11102381232871,
              9.889770597308548
            ]
          ]
        ]
      }
    }
  ]
}