{
  "type": "FeatureCollection",
  "name": "Ấp Rùm Sóc",
  "crs": {
    "type": "name",
    "properties": {
      "name": "urn:ogc:def:crs:OGC:1.3:CRS84"
    }
  },
  "features": [
    {
      "type": "Feature",
      "properties": {
        "Layer": "AP 8",
        "PaperSpace": null,
        "SubClasses": "AcDbEntity:AcDbHatch",
        "Linetype": null,
        "EntityHandle": "2BF9AF",
        "Text": "ANSI31",
        "sap_nhap_tu": [
          "Ấp Rùm Sóc"
        ],
        "so_ho_sau_sap_nhap": 441,
        "so_dan_sau_sap_nhap": 1876,
        "dien_tich_sau_sap_nhap_ha": 291.61,
        "ma": "3005008",
        "ten": "Ấp Rùm Sóc",
        "loai": "Ấp",
        "dien_tich_km2": "2.92",
        "dien_tich_ha": "291.61",
        "dan_so": "1876",
        "so_ho": "441",
        "mat_do_km2": "642.47",
        "audio": "audio/Rum Soc.mp3",
        "can_bo": [
          {
            "ho_ten": "Thạch Thị Cane",
            "chuc_vu": "Bí thư Chi bộ",
            "so_dien_thoai": "0339 998 662"
          },
          {
            "ho_ten": "Thạch Sa Rinh",
            "chuc_vu": "Trưởng Ban Nhân Dân",
            "so_dien_thoai": "0985 295 810"
          },
          {
            "ho_ten": "Thạch Ri",
            "chuc_vu": "Trưởng Ban công tác Mặt trận",
            "so_dien_thoai": "0385 970 781"
          }
        ]
      },
      "geometry": {
        "type": "Polygon",
        "coordinates": [
          [
            [
              106.07147980682893,
              9.834401541681824
            ],
            [
              106.07153313099266,
              9.834449552514407
            ],
            [
              106.07147604043793,
              9.834491059210531
            ],
            [
              106.07143173390953,
              9.834544569533179
            ],
            [
              106.07139434177172,
              9.834589749958509
            ],
            [
              106.07176429309976,
              9.83474563356865
            ],
            [
              106.0721433745303,
              9.834909096191797
            ],
            [
              106.07247536102851,
              9.835094789848178
            ],
            [
              106.07259213067606,
              9.83519151734214
            ],
            [
              106.07272133478392,
              9.835308928833843
            ],
            [
              106.0728323700736,
              9.835410910034827
            ],
            [
              106.0731753384687,
              9.83572614944932
            ],
            [
              106.07310788897182,
              9.83578747492576
            ],
            [
              106.07308822378242,
              9.835803150100688
            ],
            [
              106.07302413336076,
              9.835962118377834
            ],
            [
              106.07298145554253,
              9.836114269213038
            ],
            [
              106.07289927041383,
              9.836406811510441
            ],
            [
              106.07285179643499,
              9.836579765974035
            ],
            [
              106.0728293821873,
              9.836693184717625
            ],
            [
              106.07277410441371,
              9.836940383342238
            ],
            [
              106.07275338602253,
              9.837032732446911
            ],
            [
              106.07275239080892,
              9.837037164481824
            ],
            [
              106.07263517314215,
              9.837493414834864
            ],
            [
              106.07127989058627,
              9.837285700053004
            ],
            [
              106.07111535230776,
              9.83808488079507
            ],
            [
              106.06837626418248,
              9.837332728120936
            ],
            [
              106.06612163751184,
              9.83701914121005
            ],
            [
              106.06610281075996,
              9.837306287312623
            ],
            [
              106.06612632097682,
              9.837761248465405
            ],
            [
              106.06611965256461,
              9.838262974448615
            ],
            [
              106.06607551888439,
              9.838587301633373
            ],
            [
              106.0658916597862,
              9.83858622932898
            ],
            [
              106.06580335325519,
              9.8385993445096
            ],
            [
              106.06575686997043,
              9.838641629925455
            ],
            [
              106.06574124361691,
              9.838675849140724
            ],
            [
              106.06571308432449,
              9.838724408618301
            ],
            [
              106.06564848595201,
              9.838728613763651
            ],
            [
              106.06559394340022,
              9.838716443219177
            ],
            [
              106.06555937509633,
              9.838699579715053
            ],
            [
              106.0655237185446,
              9.83865135832375
            ],
            [
              106.06550226319958,
              9.838596825517522
            ],
            [
              106.06548936036292,
              9.838508389957022
            ],
            [
              106.06535280816485,
              9.838481737603354
            ],
            [
              106.06527559612665,
              9.838481866726243
            ],
            [
              106.06524371020997,
              9.838543561283718
            ],
            [
              106.0651977470132,
              9.838574292786419
            ],
            [
              106.06485499124584,
              9.838596965449073
            ],
            [
              106.06477631295613,
              9.838675257173893
            ],
            [
              106.06468333602287,
              9.838676157122586
            ],
            [
              106.06464572755237,
              9.838647218169774
            ],
            [
              106.06446687208384,
              9.838556953428267
            ],
            [
              106.06428432182484,
              9.83848620340978
            ],
            [
              106.06421603769085,
              9.838489217438934
            ],
            [
              106.0641543680713,
              9.838515389502518
            ],
            [
              106.06407825860353,
              9.838506332342277
            ],
            [
              106.06402310100164,
              9.838436005897512
            ],
            [
              106.06375458548068,
              9.838394296982703
            ],
            [
              106.06365544155322,
              9.838358898530613
            ],
            [
              106.06353022735892,
              9.83833497698808
            ],
            [
              106.06308737024976,
              9.838217319314268
            ],
            [
              106.06303115269553,
              9.83819112680804
            ],
            [
              106.06299658388292,
              9.838169296061483
            ],
            [
              106.06296973099337,
              9.838118918526034
            ],
            [
              106.05839795236052,
              9.836942086810284
            ],
            [
              106.05761578251939,
              9.839814572430319
            ],
            [
              106.05037185416506,
              9.83668343611005
            ],
            [
              106.05045591646136,
              9.836409104112908
            ],
            [
              106.05057032914621,
              9.836241920187899
            ],
            [
              106.05073625612664,
              9.836022392101597
            ],
            [
              106.05085363952317,
              9.83588757204185
            ],
            [
              106.05093821239929,
              9.835813835944336
            ],
            [
              106.0510198084629,
              9.835759272787667
            ],
            [
              106.05128822344076,
              9.83560431500141
            ],
            [
              106.0514382274985,
              9.83551419729525
            ],
            [
              106.0515148730656,
              9.835443186459546
            ],
            [
              106.05162535779934,
              9.835326822189568
            ],
            [
              106.05178388601584,
              9.835099439550465
            ],
            [
              106.052113993901,
              9.834653784742084
            ],
            [
              106.0522104413052,
              9.83448427884572
            ],
            [
              106.05238094353035,
              9.834166279976024
            ],
            [
              106.0525620379496,
              9.833858571104
            ],
            [
              106.05278804487266,
              9.83342149443901
            ],
            [
              106.05287337058446,
              9.833252820296378
            ],
            [
              106.05303563418909,
              9.832860512988065
            ],
            [
              106.05309921121584,
              9.832716196152504
            ],
            [
              106.05323573814435,
              9.832417239742506
            ],
            [
              106.05340227027072,
              9.832070404346533
            ],
            [
              106.05346528861621,
              9.831935335648792
            ],
            [
              106.05349888375021,
              9.831946738566554
            ],
            [
              106.05362522755443,
              9.831993457496587
            ],
            [
              106.05371599354233,
              9.832026491449529
            ],
            [
              106.05423132472629,
              9.832224380924247
            ],
            [
              106.05447936687465,
              9.832319995753325
            ],
            [
              106.05452781978006,
              9.832345956008366
            ],
            [
              106.05467350416423,
              9.832400418561276
            ],
            [
              106.05487547690326,
              9.832477844684812
            ],
            [
              106.05513374591887,
              9.832582935869954
            ],
            [
              106.05527059170015,
              9.832203056280635
            ],
            [
              106.05534286544793,
              9.83197165460843
            ],
            [
              106.05575590272159,
              9.830747201573965
            ],
            [
              106.05577913405193,
              9.83068296835565
            ],
            [
              106.05598707225823,
              9.830075305318738
            ],
            [
              106.05612165476074,
              9.829651487189922
            ],
            [
              106.05622282374401,
              9.829363528131044
            ],
            [
              106.05643388819813,
              9.828718156429023
            ],
            [
              106.056445859028,
              9.828680433450922
            ],
            [
              106.05671429698859,
              9.827890121503694
            ],
            [
              106.0567445268277,
              9.827813399366708
            ],
            [
              106.05677764641987,
              9.827720216839284
            ],
            [
              106.05706628475532,
              9.82685337984645
            ],
            [
              106.05728058770309,
              9.826238291580271
            ],
            [
              106.05727256079707,
              9.826235682745615
            ],
            [
              106.05746873228135,
              9.825627224568763
            ],
            [
              106.05747706247168,
              9.825572802975044
            ],
            [
              106.05754226624425,
              9.825551154369503
            ],
            [
              106.05784556610078,
              9.825275429643325
            ],
            [
              106.05790643605592,
              9.825204181310642
            ],
            [
              106.0579776784204,
              9.825120782099258
            ],
            [
              106.05801138579179,
              9.8250522819497
            ],
            [
              106.05807459630307,
              9.824528219536178
            ],
            [
              106.0581083102134,
              9.824300497554391
            ],
            [
              106.05814603016496,
              9.824069694834288
            ],
            [
              106.05814581980657,
              9.823944198371969
            ],
            [
              106.05817017485518,
              9.823789457176815
            ],
            [
              106.0582090872835,
              9.823454312914038
            ],
            [
              106.05827441086335,
              9.823164296711953
            ],
            [
              106.05826602930911,
              9.823161091739431
            ],
            [
              106.05827138395823,
              9.823092367075366
            ],
            [
              106.05835420147577,
              9.822627042383417
            ],
            [
              106.05835155665987,
              9.822626413836154
            ],
            [
              106.05839338950922,
              9.822423804919081
            ],
            [
              106.05945491569094,
              9.822663082321926
            ],
            [
              106.06012362777776,
              9.822814787978588
            ],
            [
              106.06091079831954,
              9.82300761593763
            ],
            [
              106.06148236530794,
              9.823286504539785
            ],
            [
              106.062162113392,
              9.823630691410983
            ],
            [
              106.06274444592906,
              9.8238570917644
            ],
            [
              106.06316521096483,
              9.82399989952244
            ],
            [
              106.06326846758868,
              9.824044121735817
            ],
            [
              106.06403303751016,
              9.824371599381667
            ],
            [
              106.06478115975992,
              9.824709138772773
            ],
            [
              106.06523791918576,
              9.824884596096727
            ],
            [
              106.06580102998899,
              9.824983835625714
            ],
            [
              106.06624865179396,
              9.825092761040693
            ],
            [
              106.0665134646635,
              9.825187706222787
            ],
            [
              106.06686153332431,
              9.825402764294498
            ],
            [
              106.06703026148244,
              9.825602763271373
            ],
            [
              106.06722332136654,
              9.825964813393849
            ],
            [
              106.06731532845004,
              9.826298472925844
            ],
            [
              106.06733984297793,
              9.826560726968257
            ],
            [
              106.06762556892971,
              9.826996863906702
            ],
            [
              106.06776256941482,
              9.8271219679338
            ],
            [
              106.06788095602897,
              9.827230068874002
            ],
            [
              106.06813527484938,
              9.827317887449873
            ],
            [
              106.06850108968922,
              9.827512841617718
            ],
            [
              106.06900395715004,
              9.827778993100953
            ],
            [
              106.06936149871181,
              9.828253162888563
            ],
            [
              106.06969249165128,
              9.8283425690946
            ],
            [
              106.07017829170263,
              9.828276832617993
            ],
            [
              106.0702647731272,
              9.828416197795185
            ],
            [
              106.07025997885283,
              9.82843808639374
            ],
            [
              106.07027323144764,
              9.828457684193518
            ],
            [
              106.07065993466104,
              9.829136413255194
            ],
            [
              106.0706685195711,
              9.829145349896198
            ],
            [
              106.07070006316275,
              9.82919864175304
            ],
            [
              106.07146246895294,
              9.828871950100348
            ],
            [
              106.07160164455686,
              9.829064209282906
            ],
            [
              106.07160911639282,
              9.829115100498452
            ],
            [
              106.07163025244284,
              9.829179085038966
            ],
            [
              106.07168456868772,
              9.829255116801091
            ],
            [
              106.07172157058898,
              9.829354601569099
            ],
            [
              106.07175123763442,
              9.82942986741536
            ],
            [
              106.07180469923398,
              9.829505273875839
            ],
            [
              106.07191482966641,
              9.829718648757257
            ],
            [
              106.0719285901389,
              9.829768444345964
            ],
            [
              106.0719551706914,
              9.829851310273556
            ],
            [
              106.07199170730308,
              9.829897064864301
            ],
            [
              106.07214875675733,
              9.830193114563833
            ],
            [
              106.07253966793006,
              9.830929699775446
            ],
            [
              106.0724221818367,
              9.830998523822348
            ],
            [
              106.07275658363461,
              9.831424446854504
            ],
            [
              106.07286173326129,
              9.831338735916823
            ],
            [
              106.07312479944078,
              9.831580151271382
            ],
            [
              106.07340307548218,
              9.831865572866464
            ],
            [
              106.07367125483398,
              9.832163940712968
            ],
            [
              106.0737876702894,
              9.832267178349957
            ],
            [
              106.07348387114831,
              9.832513080682642
            ],
            [
              106.07325297517443,
              9.832688787354135
            ],
            [
              106.07315460272454,
              9.832792570000514
            ],
            [
              106.07295973009424,
              9.832975719912351
            ],
            [
              106.07264070644818,
              9.833275534860155
            ],
            [
              106.07263424404391,
              9.833281603627276
            ],
            [
              106.07203475498856,
              9.833879087919321
            ],
            [
              106.07147980682893,
              9.834401541681824
            ]
          ]
        ]
      }
    }
  ]
}