{
  "type": "FeatureCollection",
  "name": "Ấp 3",
  "crs": {
    "type": "name",
    "properties": {
      "name": "urn:ogc:def:crs:OGC:1.3:CRS84"
    }
  },
  "features": [
    {
      "type": "Feature",
      "properties": {
        "Layer": "AP 3",
        "PaperSpace": null,
        "SubClasses": "AcDbEntity:AcDbHatch",
        "Linetype": null,
        "EntityHandle": "2BF8A7",
        "Text": "ANSI31",
        "sap_nhap_tu": [
          "Ấp 4",
          "Ấp 6"
        ],
        "so_ho_sau_sap_nhap": 838,
        "so_dan_sau_sap_nhap": 3372,
        "dien_tich_sau_sap_nhap_ha": 168.09,
        "ma": "3005002",
        "ten": "Ấp 3",
        "loai": "Ấp",
        "dien_tich_km2": "1.13",
        "dien_tich_ha": "113.30",
        "dan_so": "2327",
        "so_ho": "592",
        "mat_do_km2": "2059.29",
        "audio": "audio/3.mp3",
        "path": "D:\\5. work\\2026\\xa_cau_ke\\Ấp 2.geojson"
      },
      "geometry": {
        "type": "Polygon",
        "coordinates": [
          [
            [
              106.05350055234551,
              9.867683371896254
            ],
            [
              106.05349398721604,
              9.86779233324049
            ],
            [
              106.05338112105282,
              9.867907888610498
            ],
            [
              106.05313166978966,
              9.86829527599726
            ],
            [
              106.05296892515229,
              9.868572123766379
            ],
            [
              106.05282690354649,
              9.868809968435501
            ],
            [
              106.05295697194325,
              9.868949266044552
            ],
            [
              106.05304765301706,
              9.869024141802546
            ],
            [
              106.05306469282876,
              9.869028383608832
            ],
            [
              106.05308103157681,
              9.869039206645908
            ],
            [
              106.05315761222053,
              9.869034379367102
            ],
            [
              106.05319257958209,
              9.869007649431763
            ],
            [
              106.05325227155214,
              9.868935671206964
            ],
            [
              106.05329894966765,
              9.868932972535157
            ],
            [
              106.05336624369089,
              9.868990818328584
            ],
            [
              106.05337101704043,
              9.869064679874006
            ],
            [
              106.05335376847992,
              9.869164255549594
            ],
            [
              106.05338290446173,
              9.869249107772324
            ],
            [
              106.05344220623307,
              9.86932182631889
            ],
            [
              106.05353902330252,
              9.869427060146712
            ],
            [
              106.05357820961594,
              9.86946976226604
            ],
            [
              106.05366828857808,
              9.869544188523534
            ],
            [
              106.05362905233542,
              9.869613077566251
            ],
            [
              106.05346956401411,
              9.86969147397412
            ],
            [
              106.05335614942572,
              9.869601063388252
            ],
            [
              106.05325845786054,
              9.869658473873399
            ],
            [
              106.05337331203215,
              9.869801692092285
            ],
            [
              106.05349922926166,
              9.86991320232994
            ],
            [
              106.05347270136502,
              9.870100543857578
            ],
            [
              106.05339951325502,
              9.870199742407404
            ],
            [
              106.05325639517042,
              9.87036062578769
            ],
            [
              106.0532419727121,
              9.870485932109242
            ],
            [
              106.05319723100367,
              9.870620612749363
            ],
            [
              106.05305489604403,
              9.870564456904972
            ],
            [
              106.05302923278187,
              9.870583598653521
            ],
            [
              106.05294814314277,
              9.87076043423351
            ],
            [
              106.05305039577041,
              9.870833651204379
            ],
            [
              106.05307141992115,
              9.870928147245484
            ],
            [
              106.05306253776264,
              9.871145584617318
            ],
            [
              106.05285605932866,
              9.871307949765393
            ],
            [
              106.05266439756488,
              9.871405261499406
            ],
            [
              106.05256075935911,
              9.87150472263849
            ],
            [
              106.05253315938418,
              9.871581715371942
            ],
            [
              106.05243811550363,
              9.871740749689765
            ],
            [
              106.05225577145835,
              9.871821136737335
            ],
            [
              106.05222507504232,
              9.871837701310522
            ],
            [
              106.05221709344985,
              9.871917641607368
            ],
            [
              106.05222327226927,
              9.871959584227426
            ],
            [
              106.05225529956309,
              9.872028609102244
            ],
            [
              106.05229191408662,
              9.872114624549157
            ],
            [
              106.0523084904621,
              9.872157956979782
            ],
            [
              106.05228680317408,
              9.87222105185247
            ],
            [
              106.05222419902643,
              9.872448874310264
            ],
            [
              106.05254937076595,
              9.87233965799883
            ],
            [
              106.05287381943701,
              9.872305487596968
            ],
            [
              106.05296377662569,
              9.872296014209862
            ],
            [
              106.05336386719877,
              9.872338321279159
            ],
            [
              106.05383155868105,
              9.872456897200596
            ],
            [
              106.05502469386555,
              9.873157761540075
            ],
            [
              106.05544443988076,
              9.873424401008203
            ],
            [
              106.05569515098931,
              9.873481272808286
            ],
            [
              106.05591669668254,
              9.87339020565743
            ],
            [
              106.05620185467012,
              9.87311699654254
            ],
            [
              106.05649515535687,
              9.872705967907333
            ],
            [
              106.0567208700629,
              9.872228217928246
            ],
            [
              106.05685548352146,
              9.871758476726015
            ],
            [
              106.0569026851268,
              9.871665925289578
            ],
            [
              106.05659216965167,
              9.871567675756474
            ],
            [
              106.0563555941954,
              9.871495270019714
            ],
            [
              106.05621681154625,
              9.871451258208268
            ],
            [
              106.05616120252867,
              9.87142480543964
            ],
            [
              106.0560791673754,
              9.871360590387217
            ],
            [
              106.05602795429718,
              9.87129511788369
            ],
            [
              106.05599009635355,
              9.871212329153442
            ],
            [
              106.05583360893013,
              9.870768569230684
            ],
            [
              106.05566713719608,
              9.87017521086361
            ],
            [
              106.05552008773427,
              9.869613806982043
            ],
            [
              106.05552008840858,
              9.869613806594732
            ],
            [
              106.05554451166131,
              9.869607520271177
            ],
            [
              106.05574391566013,
              9.869523535924008
            ],
            [
              106.05609874281447,
              9.86924946121779
            ],
            [
              106.05947723121625,
              9.867820116791252
            ],
            [
              106.060416697961,
              9.867430040553794
            ],
            [
              106.06133263770374,
              9.867039196604535
            ],
            [
              106.06191463601097,
              9.866798521741847
            ],
            [
              106.06268783479487,
              9.866422391011302
            ],
            [
              106.06347571166614,
              9.866092888091698
            ],
            [
              106.06369456514773,
              9.866000822938796
            ],
            [
              106.06412416438093,
              9.865819118930519
            ],
            [
              106.06461616372312,
              9.865603525956645
            ],
            [
              106.06644238999226,
              9.86484997663008
            ],
            [
              106.07007977284043,
              9.86332115679333
            ],
            [
              106.07040886043306,
              9.863184258061429
            ],
            [
              106.0708210291003,
              9.863012227918203
            ],
            [
              106.07117930797222,
              9.862870050591019
            ],
            [
              106.07154243185153,
              9.862715396814421
            ],
            [
              106.07171956187365,
              9.862655170350909
            ],
            [
              106.07182983272848,
              9.862629645460974
            ],
            [
              106.07199810881929,
              9.862609250622642
            ],
            [
              106.07211084703638,
              9.862603428739916
            ],
            [
              106.07223738219501,
              9.862602007493285
            ],
            [
              106.07271920537823,
              9.862606015874755
            ],
            [
              106.07329066601599,
              9.862613893097596
            ],
            [
              106.07376682441112,
              9.862625551207111
            ],
            [
              106.07424377583114,
              9.862626750370703
            ],
            [
              106.07466841592182,
              9.862632059894164
            ],
            [
              106.07549743161502,
              9.862650755699633
            ],
            [
              106.0760555125763,
              9.862661064195638
            ],
            [
              106.07628344730644,
              9.862663892294336
            ],
            [
              106.07662575076445,
              9.862665720332105
            ],
            [
              106.07695909952929,
              9.862649062643165
            ],
            [
              106.07709047269996,
              9.862631141545915
            ],
            [
              106.07718818019829,
              9.862612524765343
            ],
            [
              106.07710331436007,
              9.862489291074981
            ],
            [
              106.07709382667554,
              9.862419923730624
            ],
            [
              106.0768758787414,
              9.862137895840181
            ],
            [
              106.07682234280176,
              9.862137250458666
            ],
            [
              106.07682105190656,
              9.861902500870935
            ],
            [
              106.07656449089062,
              9.861856831706163
            ],
            [
              106.0761023062545,
              9.861853931743052
            ],
            [
              106.07610117909203,
              9.861892179074452
            ],
            [
              106.07588734893281,
              9.86190086442021
            ],
            [
              106.07586913898955,
              9.861852468501834
            ],
            [
              106.07563224260083,
              9.861850981693348
            ],
            [
              106.07510149574111,
              9.86183286369151
            ],
            [
              106.07508565250804,
              9.861854040126667
            ],
            [
              106.07463345026552,
              9.861880960834904
            ],
            [
              106.07462998429506,
              9.861817925197778
            ],
            [
              106.07408031905908,
              9.861812293510223
            ],
            [
              106.07324524104737,
              9.861807294397815
            ],
            [
              106.07244105080494,
              9.861790486822676
            ],
            [
              106.07243840674509,
              9.86179049131029
            ],
            [
              106.0723137512366,
              9.86167343439372
            ],
            [
              106.0722016830127,
              9.861770730423132
            ],
            [
              106.07209911252735,
              9.861842913013598
            ],
            [
              106.07183237102691,
              9.861844034093917
            ],
            [
              106.07172349702084,
              9.861838448569165
            ],
            [
              106.0716770157814,
              9.86190172756139
            ],
            [
              106.07153519552844,
              9.861770685087146
            ],
            [
              106.07101542826406,
              9.862153027104455
            ],
            [
              106.07098869290068,
              9.86215724142089
            ],
            [
              106.07094196217285,
              9.862059210108931
            ],
            [
              106.07089201822409,
              9.861964810788784
            ],
            [
              106.07070414126596,
              9.86177281565569
            ],
            [
              106.07023890090223,
              9.862211302504049
            ],
            [
              106.0701899241846,
              9.86225514626178
            ],
            [
              106.06987378219434,
              9.862551067037773
            ],
            [
              106.06945873538729,
              9.862221843047147
            ],
            [
              106.06935330070453,
              9.862142573589177
            ],
            [
              106.06885501230789,
              9.861765089664935
            ],
            [
              106.06854006259196,
              9.86151986268825
            ],
            [
              106.06832137125973,
              9.861338722917196
            ],
            [
              106.06826581075336,
              9.861274430839021
            ],
            [
              106.06832015390644,
              9.86113184010285
            ],
            [
              106.06823481760522,
              9.861071627528553
            ],
            [
              106.06816305767947,
              9.860940771162323
            ],
            [
              106.06804923668301,
              9.861082086905254
            ],
            [
              106.06791828276995,
              9.860931629813255
            ],
            [
              106.0678383652198,
              9.860803965559048
            ],
            [
              106.06773893169851,
              9.860779279847753
            ],
            [
              106.06772518755518,
              9.860707507660416
            ],
            [
              106.06769491177641,
              9.86054426870033
            ],
            [
              106.06732812267364,
              9.860227799541976
            ],
            [
              106.06712203228388,
              9.8600465922733
            ],
            [
              106.06690361166746,
              9.859905911618496
            ],
            [
              106.06679865680897,
              9.859791441440324
            ],
            [
              106.06675122994636,
              9.859781937106305
            ],
            [
              106.06660869144746,
              9.859762556437403
            ],
            [
              106.06655096239292,
              9.859753340624104
            ],
            [
              106.06635278636186,
              9.859774920979074
            ],
            [
              106.06620796706565,
              9.859914946075103
            ],
            [
              106.06610049597046,
              9.859821817892424
            ],
            [
              106.0659227133813,
              9.85982609445914
            ],
            [
              106.06572754439533,
              9.85973980399054
            ],
            [
              106.06565419454164,
              9.859712983240271
            ],
            [
              106.06546845374702,
              9.859648466885716
            ],
            [
              106.06529256242895,
              9.859585470979868
            ],
            [
              106.06523399684262,
              9.859566853150326
            ],
            [
              106.06488671529235,
              9.859567525263113
            ],
            [
              106.06473034082165,
              9.85956127717352
            ],
            [
              106.06448868229849,
              9.859908876333767
            ],
            [
              106.06452710949144,
              9.86004118000743
            ],
            [
              106.06433397265454,
              9.860184630567366
            ],
            [
              106.0642582561358,
              9.860213690121181
            ],
            [
              106.06379504401566,
              9.860180090562496
            ],
            [
              106.06361082777808,
              9.860244376146298
            ],
            [
              106.06346311425577,
              9.860343063323056
            ],
            [
              106.06337268840014,
              9.860419749343736
            ],
            [
              106.06323682413279,
              9.86057638177451
            ],
            [
              106.06299990372241,
              9.860479224789342
            ],
            [
              106.06297135830377,
              9.860499653947397
            ],
            [
              106.06282169325027,
              9.860686520894538
            ],
            [
              106.06279064447355,
              9.86076487235576
            ],
            [
              106.06264501526607,
              9.86075110092918
            ],
            [
              106.06263125852115,
              9.860757362531984
            ],
            [
              106.06256002830501,
              9.861227731360566
            ],
            [
              106.06260201586385,
              9.86141681015101
            ],
            [
              106.0626326123282,
              9.861609253299951
            ],
            [
              106.06262997963124,
              9.861830956018476
            ],
            [
              106.06258133204794,
              9.861988811873216
            ],
            [
              106.06253214490143,
              9.862148952472056
            ],
            [
              106.06247112751791,
              9.862407347295008
            ],
            [
              106.06260216509278,
              9.86266372735002
            ],
            [
              106.06248698908747,
              9.862835708541477
            ],
            [
              106.06240723569003,
              9.863119203107184
            ],
            [
              106.06243666157317,
              9.863212733867233
            ],
            [
              106.06235867518703,
              9.863355448853833
            ],
            [
              106.062376073427,
              9.863399632921425
            ],
            [
              106.06253046144171,
              9.863469989765186
            ],
            [
              106.0627612956071,
              9.863457127312767
            ],
            [
              106.0628621483625,
              9.863334643007196
            ],
            [
              106.06298809731935,
              9.863378358688724
            ],
            [
              106.06306681594012,
              9.863398570700575
            ],
            [
              106.06310558223197,
              9.863408451651424
            ],
            [
              106.06320025753351,
              9.86359029951867
            ],
            [
              106.06322960905322,
              9.863639888488075
            ],
            [
              106.06317213887792,
              9.863783473531104
            ],
            [
              106.06291096248789,
              9.86407631266218
            ],
            [
              106.0623712618284,
              9.86411075726164
            ],
            [
              106.0622797192452,
              9.864109372860991
            ],
            [
              106.0622739804154,
              9.864112456550538
            ],
            [
              106.06225083075941,
              9.86427904012861
            ],
            [
              106.06237648173914,
              9.864446822206862
            ],
            [
              106.06246494378243,
              9.86456710782423
            ],
            [
              106.06253700391701,
              9.864746823624305
            ],
            [
              106.06240770738252,
              9.864902553614462
            ],
            [
              106.06229726965076,
              9.865049753072366
            ],
            [
              106.06223058556839,
              9.865244437984138
            ],
            [
              106.06152460176496,
              9.864754478569203
            ],
            [
              106.0611410901091,
              9.864469404653493
            ],
            [
              106.0605337896101,
              9.863780365020625
            ],
            [
              106.06046038571668,
              9.863721897898373
            ],
            [
              106.06005205894182,
              9.863479869428375
            ],
            [
              106.05990657632,
              9.863392169016926
            ],
            [
              106.05962877485666,
              9.863231903113403
            ],
            [
              106.05962109538605,
              9.863223656621402
            ],
            [
              106.05921662933841,
              9.862973063327738
            ],
            [
              106.0589625845494,
              9.862819733190435
            ],
            [
              106.05883919295802,
              9.862746927284705
            ],
            [
              106.0584557531499,
              9.862501813503917
            ],
            [
              106.05794878292518,
              9.862155005516538
            ],
            [
              106.05783843275115,
              9.862083940741433
            ],
            [
              106.05739574132396,
              9.861845162321295
            ],
            [
              106.05707340717889,
              9.861718390009655
            ],
            [
              106.05673122010342,
              9.861605302870528
            ],
            [
              106.05633169579647,
              9.86144475145077
            ],
            [
              106.05614030680393,
              9.861382680452476
            ],
            [
              106.05605918738469,
              9.861580679279312
            ],
            [
              106.05595229614599,
              9.86184158240704
            ],
            [
              106.05565478319235,
              9.862565610178011
            ],
            [
              106.05546856255604,
              9.862980704302819
            ],
            [
              106.05532677707703,
              9.863357156304218
            ],
            [
              106.05523868018768,
              9.863562182670606
            ],
            [
              106.05510815962118,
              9.863860045060491
            ],
            [
              106.05503372296451,
              9.864001125203483
            ],
            [
              106.0548975699068,
              9.86432444515366
            ],
            [
              106.05478116384143,
              9.864544485329423
            ],
            [
              106.05478124371498,
              9.864592224531338
            ],
            [
              106.05466548696603,
              9.86487735304476
            ],
            [
              106.05464608756688,
              9.864953656424202
            ],
            [
              106.05448571916492,
              9.865341259787156
            ],
            [
              106.0543765864215,
              9.8656168445709
            ],
            [
              106.05429441544453,
              9.865822222644004
            ],
            [
              106.0541940849063,
              9.866072928669414
            ],
            [
              106.05416778685444,
              9.866158504870862
            ],
            [
              106.05417123317063,
              9.866256599919474
            ],
            [
              106.05411346945317,
              9.866445391814908
            ],
            [
              106.05400092824586,
              9.86659132640766
            ],
            [
              106.05386503957139,
              9.866788112784672
            ],
            [
              106.05378789111671,
              9.866943934858076
            ],
            [
              106.05377638721366,
              9.86709829285352
            ],
            [
              106.05370445865542,
              9.867267849477477
            ],
            [
              106.05358181957999,
              9.867536855901824
            ],
            [
              106.05350055267903,
              9.867683371294973
            ],
            [
              106.05350055234551,
              9.867683371896254
            ]
          ]
        ]
      }
    }
  ]
}