{
  "type": "FeatureCollection",
  "name": "Ấp 2",
  "crs": {
    "type": "name",
    "properties": {
      "name": "urn:ogc:def:crs:OGC:1.3:CRS84"
    }
  },
  "features": [
    {
      "type": "Feature",
      "properties": {
        "Layer": "AP 2",
        "PaperSpace": null,
        "SubClasses": "AcDbEntity:AcDbHatch",
        "Linetype": null,
        "EntityHandle": "2BF8A7",
        "Text": "ANSI31",
        "sap_nhap_tu": [
          "Ấp 4",
          "Ấp 5",
          "Ấp 6"
        ],
        "so_ho_sau_sap_nhap": 838,
        "so_dan_sau_sap_nhap": 3372,
        "dien_tich_sau_sap_nhap_ha": 168.09,
        "ma": "3005002",
        "ten": "Ấp 2",
        "loai": "Ấp",
        "dien_tich_km2": "1.6809",
        "dien_tich_ha": "168.09",
        "dan_so": "3372",
        "so_ho": "838",
        "mat_do_km2": "2006.07"
      },
      "geometry": {
        "type": "Polygon",
        "coordinates": [
          [
            [
              106.0738423866995,
              9.864434728167508
            ],
            [
              106.0738197790533,
              9.864489648621758
            ],
            [
              106.0737453832531,
              9.864544295539446
            ],
            [
              106.0736136585415,
              9.864610793940598
            ],
            [
              106.07352420351191,
              9.864581431361957
            ],
            [
              106.07325374660581,
              9.864744587516558
            ],
            [
              106.0730455539156,
              9.86482758084295
            ],
            [
              106.07283513343522,
              9.86494050524112
            ],
            [
              106.07273559670482,
              9.865008937762093
            ],
            [
              106.07256812993491,
              9.865074972077148
            ],
            [
              106.07251519291601,
              9.865095839369307
            ],
            [
              106.07218101711668,
              9.865297309090783
            ],
            [
              106.07214924691185,
              9.865379188710943
            ],
            [
              106.07202996912257,
              9.865473332437903
            ],
            [
              106.07194900120592,
              9.865576814313908
            ],
            [
              106.07191285396217,
              9.86560553723419
            ],
            [
              106.07182869362863,
              9.865622347346216
            ],
            [
              106.07179869842972,
              9.865762149064219
            ],
            [
              106.07169456643634,
              9.865809703193982
            ],
            [
              106.0716307777958,
              9.865776809824508
            ],
            [
              106.07154662973696,
              9.865728128305603
            ],
            [
              106.07134121267846,
              9.865517718748913
            ],
            [
              106.07125944352315,
              9.865480133667388
            ],
            [
              106.07117749327308,
              9.865483547973108
            ],
            [
              106.0710603304836,
              9.865535373495796
            ],
            [
              106.07102557804595,
              9.865579916615506
            ],
            [
              106.07100105470127,
              9.865634568906003
            ],
            [
              106.07097651390949,
              9.865679094726598
            ],
            [
              106.07080139307573,
              9.865748287610407
            ],
            [
              106.07044142587385,
              9.865904410944674
            ],
            [
              106.07037770887803,
              9.865913108188568
            ],
            [
              106.07029662169138,
              9.865894619838011
            ],
            [
              106.07018219874986,
              9.865896260015251
            ],
            [
              106.07007073042651,
              9.865919413968822
            ],
            [
              106.06948400881518,
              9.866235231203751
            ],
            [
              106.06910786682616,
              9.866423839546039
            ],
            [
              106.06904701143758,
              9.866399982248097
            ],
            [
              106.06898483607856,
              9.866297646784641
            ],
            [
              106.06894759664112,
              9.866274563345174
            ],
            [
              106.06889388697773,
              9.866270494884098
            ],
            [
              106.06882361636889,
              9.86628571279267
            ],
            [
              106.06880989800314,
              9.866314397553825
            ],
            [
              106.0687962334637,
              9.866374456294302
            ],
            [
              106.0687867515655,
              9.866480981384452
            ],
            [
              106.06877578025367,
              9.866516533064043
            ],
            [
              106.06873169333933,
              9.866541200374133
            ],
            [
              106.06866833310745,
              9.866545375942335
            ],
            [
              106.06856777080156,
              9.866548258015875
            ],
            [
              106.0684506658196,
              9.866527931249465
            ],
            [
              106.0683700158394,
              9.866498591877905
            ],
            [
              106.0683372908785,
              9.866449642013125
            ],
            [
              106.0682576554837,
              9.86642708204228
            ],
            [
              106.06814120583282,
              9.866416699732074
            ],
            [
              106.06805038456659,
              9.866464139926553
            ],
            [
              106.06801516551295,
              9.866502716143913
            ],
            [
              106.0679817784597,
              9.866577915074398
            ],
            [
              106.06799663409001,
              9.866649129575459
            ],
            [
              106.06803485831294,
              9.866768051571835
            ],
            [
              106.06803932012122,
              9.866817862827777
            ],
            [
              106.06803226618565,
              9.866851599582558
            ],
            [
              106.06796089516165,
              9.866916457117897
            ],
            [
              106.06790446504311,
              9.86697432749922
            ],
            [
              106.06781928178988,
              9.867013168697882
            ],
            [
              106.06757398727026,
              9.867101917436777
            ],
            [
              106.06754570923815,
              9.867094098924232
            ],
            [
              106.06752097205714,
              9.86707750417333
            ],
            [
              106.0673235359139,
              9.866841310320954
            ],
            [
              106.06722983066305,
              9.866748701999217
            ],
            [
              106.06714275447607,
              9.866693695224004
            ],
            [
              106.06707122855529,
              9.866665787297343
            ],
            [
              106.06704906438799,
              9.866663202072402
            ],
            [
              106.06701208284866,
              9.866684240605109
            ],
            [
              106.06696686908718,
              9.866743176954012
            ],
            [
              106.06694073118346,
              9.866813835194892
            ],
            [
              106.06692757654089,
              9.866852374198887
            ],
            [
              106.06686760016306,
              9.866969291515062
            ],
            [
              106.06680862297063,
              9.867084037176856
            ],
            [
              106.06676725304558,
              9.867151466069611
            ],
            [
              106.06673373473255,
              9.86717168501541
            ],
            [
              106.06669327411667,
              9.867196092810637
            ],
            [
              106.06667469330256,
              9.867195563472915
            ],
            [
              106.06664988182392,
              9.867188824039742
            ],
            [
              106.06655952480848,
              9.867188071762014
            ],
            [
              106.06648451053869,
              9.867255376337154
            ],
            [
              106.06639277270055,
              9.867300286022157
            ],
            [
              106.0660232114305,
              9.867393311122257
            ],
            [
              106.06578244525791,
              9.867464691269186
            ],
            [
              106.06557536463505,
              9.867506991443475
            ],
            [
              106.06554598524147,
              9.867494925094691
            ],
            [
              106.06543138779152,
              9.867448101418276
            ],
            [
              106.06508160303876,
              9.867444275696847
            ],
            [
              106.06490793264294,
              9.867442374873022
            ],
            [
              106.0649537286041,
              9.86755081489411
            ],
            [
              106.0648854437781,
              9.86757880781583
            ],
            [
              106.06470970718985,
              9.867650846761482
            ],
            [
              106.06466202973506,
              9.867708973217395
            ],
            [
              106.06462625814247,
              9.867741515789447
            ],
            [
              106.06457506617075,
              9.867831360293051
            ],
            [
              106.06465376620463,
              9.86798985296982
            ],
            [
              106.06467035019683,
              9.868130286953647
            ],
            [
              106.06445519417129,
              9.868059244987077
            ],
            [
              106.06381950790566,
              9.868341961121585
            ],
            [
              106.06327844265678,
              9.868419815240475
            ],
            [
              106.06247355562273,
              9.86839729054977
            ],
            [
              106.06205439387033,
              9.868474370080438
            ],
            [
              106.06170775810749,
              9.868689767480477
            ],
            [
              106.06146255671987,
              9.869038661106144
            ],
            [
              106.06126538761666,
              9.869291999277515
            ],
            [
              106.06090685018187,
              9.869500144845041
            ],
            [
              106.06010743333486,
              9.869864280832427
            ],
            [
              106.05957278712502,
              9.870051346033748
            ],
            [
              106.05916796807857,
              9.87006156546456
            ],
            [
              106.05876297981641,
              9.869971535568224
            ],
            [
              106.05842935326389,
              9.869929299032599
            ],
            [
              106.05809702718255,
              9.87005874134417
            ],
            [
              106.0577216469092,
              9.870379205479065
            ],
            [
              106.05740901555171,
              9.870756850624609
            ],
            [
              106.0571917402761,
              9.871099140440693
            ],
            [
              106.05685548352146,
              9.871758476726015
            ],
            [
              106.0567208700629,
              9.872228217928246
            ],
            [
              106.05649515535687,
              9.872705967907333
            ],
            [
              106.05620185467012,
              9.87311699654254
            ],
            [
              106.05591669668254,
              9.87339020565743
            ],
            [
              106.05569515098931,
              9.873481272808286
            ],
            [
              106.05544443988076,
              9.873424401008203
            ],
            [
              106.05502469386555,
              9.873157761540075
            ],
            [
              106.05383155868105,
              9.872456897200596
            ],
            [
              106.05336386719877,
              9.872338321279159
            ],
            [
              106.05296377662569,
              9.872296014209862
            ],
            [
              106.05254937076595,
              9.87233965799883
            ],
            [
              106.05222419902643,
              9.872448874310264
            ],
            [
              106.05228680317408,
              9.87222105185247
            ],
            [
              106.0523084904621,
              9.872157956979782
            ],
            [
              106.05229191408662,
              9.872114624549157
            ],
            [
              106.05225529956309,
              9.872028609102244
            ],
            [
              106.05222327226927,
              9.871959584227426
            ],
            [
              106.05221709344985,
              9.871917641607368
            ],
            [
              106.05222507504232,
              9.871837701310522
            ],
            [
              106.05225577145835,
              9.871821136737335
            ],
            [
              106.05243811550363,
              9.871740749689765
            ],
            [
              106.05253315938418,
              9.871581715371942
            ],
            [
              106.05256075935911,
              9.87150472263849
            ],
            [
              106.05266439756488,
              9.871405261499406
            ],
            [
              106.05285605932866,
              9.871307949765393
            ],
            [
              106.05306253776264,
              9.871145584617318
            ],
            [
              106.05307141992115,
              9.870928147245484
            ],
            [
              106.05305039577041,
              9.870833651204379
            ],
            [
              106.05294814314277,
              9.87076043423351
            ],
            [
              106.05302923278187,
              9.870583598653521
            ],
            [
              106.05305489604403,
              9.870564456904972
            ],
            [
              106.05319723100367,
              9.870620612749363
            ],
            [
              106.0532419727121,
              9.870485932109242
            ],
            [
              106.05325639517042,
              9.87036062578769
            ],
            [
              106.05339951325502,
              9.870199742407404
            ],
            [
              106.05347270136502,
              9.870100543857578
            ],
            [
              106.05349922926166,
              9.86991320232994
            ],
            [
              106.05337331203215,
              9.869801692092285
            ],
            [
              106.05325845786054,
              9.869658473873399
            ],
            [
              106.05335614942572,
              9.869601063388252
            ],
            [
              106.05346956401411,
              9.86969147397412
            ],
            [
              106.05362905233542,
              9.869613077566251
            ],
            [
              106.05366828857808,
              9.869544188523534
            ],
            [
              106.05357820961594,
              9.86946976226604
            ],
            [
              106.05353902330252,
              9.869427060146712
            ],
            [
              106.05344220623307,
              9.86932182631889
            ],
            [
              106.05338290446173,
              9.869249107772324
            ],
            [
              106.05335376847992,
              9.869164255549594
            ],
            [
              106.05337101704043,
              9.869064679874006
            ],
            [
              106.05336624369089,
              9.868990818328584
            ],
            [
              106.05329894966765,
              9.868932972535157
            ],
            [
              106.05325227155214,
              9.868935671206964
            ],
            [
              106.05319257958209,
              9.869007649431763
            ],
            [
              106.05315761222053,
              9.869034379367102
            ],
            [
              106.05308103157681,
              9.869039206645908
            ],
            [
              106.05306469282876,
              9.869028383608832
            ],
            [
              106.05304765301706,
              9.869024141802546
            ],
            [
              106.05295697194325,
              9.868949266044552
            ],
            [
              106.05282690354649,
              9.868809968435501
            ],
            [
              106.05296892515229,
              9.868572123766379
            ],
            [
              106.05313166978966,
              9.86829527599726
            ],
            [
              106.05338112105282,
              9.867907888610498
            ],
            [
              106.05349398721604,
              9.86779233324049
            ],
            [
              106.05350055234551,
              9.867683371896254
            ],
            [
              106.05358181957999,
              9.867536855901824
            ],
            [
              106.05370445865542,
              9.867267849477477
            ],
            [
              106.05377638721366,
              9.86709829285352
            ],
            [
              106.05378789111671,
              9.866943934858076
            ],
            [
              106.05386503957139,
              9.866788112784672
            ],
            [
              106.05400092824586,
              9.86659132640766
            ],
            [
              106.05411346945317,
              9.866445391814908
            ],
            [
              106.05417123317063,
              9.866256599919474
            ],
            [
              106.05416778685444,
              9.866158504870862
            ],
            [
              106.0541940849063,
              9.866072928669414
            ],
            [
              106.05429441544453,
              9.865822222644004
            ],
            [
              106.0543765864215,
              9.8656168445709
            ],
            [
              106.05448571916492,
              9.865341259787156
            ],
            [
              106.05464608756688,
              9.864953656424202
            ],
            [
              106.05466548696603,
              9.86487735304476
            ],
            [
              106.05478124371498,
              9.864592224531338
            ],
            [
              106.05478116384143,
              9.864544485329423
            ],
            [
              106.0548975699068,
              9.86432444515366
            ],
            [
              106.05503372296451,
              9.864001125203483
            ],
            [
              106.05510815962118,
              9.863860045060491
            ],
            [
              106.05523868018768,
              9.863562182670606
            ],
            [
              106.05532677707703,
              9.863357156304218
            ],
            [
              106.05546856255604,
              9.862980704302819
            ],
            [
              106.05565478319235,
              9.862565610178011
            ],
            [
              106.05595229614599,
              9.86184158240704
            ],
            [
              106.05605918738469,
              9.861580679279312
            ],
            [
              106.05614030680393,
              9.861382680452476
            ],
            [
              106.05633169579647,
              9.86144475145077
            ],
            [
              106.05673122010342,
              9.861605302870528
            ],
            [
              106.05707340717889,
              9.861718390009655
            ],
            [
              106.05739574132396,
              9.861845162321295
            ],
            [
              106.05783843275115,
              9.862083940741433
            ],
            [
              106.05794878292518,
              9.862155005516538
            ],
            [
              106.0584557531499,
              9.862501813503917
            ],
            [
              106.05883919295802,
              9.862746927284705
            ],
            [
              106.0589625845494,
              9.862819733190435
            ],
            [
              106.05921662933841,
              9.862973063327738
            ],
            [
              106.05962109538605,
              9.863223656621402
            ],
            [
              106.05962877485666,
              9.863231903113403
            ],
            [
              106.05990657632,
              9.863392169016926
            ],
            [
              106.06005205894182,
              9.863479869428375
            ],
            [
              106.06046038571668,
              9.863721897898373
            ],
            [
              106.0605337896101,
              9.863780365020625
            ],
            [
              106.0611410901091,
              9.864469404653493
            ],
            [
              106.06152460176496,
              9.864754478569203
            ],
            [
              106.06223058556839,
              9.865244437984138
            ],
            [
              106.06229726965076,
              9.865049753072366
            ],
            [
              106.06240770738252,
              9.864902553614462
            ],
            [
              106.06253700391701,
              9.864746823624305
            ],
            [
              106.06246494378243,
              9.86456710782423
            ],
            [
              106.06237648173914,
              9.864446822206862
            ],
            [
              106.06225083075941,
              9.86427904012861
            ],
            [
              106.0622739804154,
              9.864112456550538
            ],
            [
              106.0622797192452,
              9.864109372860991
            ],
            [
              106.0623712618284,
              9.86411075726164
            ],
            [
              106.06291096248789,
              9.86407631266218
            ],
            [
              106.06317213887792,
              9.863783473531104
            ],
            [
              106.06322960905322,
              9.863639888488075
            ],
            [
              106.06320025753351,
              9.86359029951867
            ],
            [
              106.06310558223197,
              9.863408451651424
            ],
            [
              106.06306681594012,
              9.863398570700575
            ],
            [
              106.06298809731935,
              9.863378358688724
            ],
            [
              106.0628621483625,
              9.863334643007196
            ],
            [
              106.0627612956071,
              9.863457127312767
            ],
            [
              106.06253046144171,
              9.863469989765186
            ],
            [
              106.062376073427,
              9.863399632921425
            ],
            [
              106.06235867518703,
              9.863355448853833
            ],
            [
              106.06243666157317,
              9.863212733867233
            ],
            [
              106.06240723569003,
              9.863119203107184
            ],
            [
              106.06248698908747,
              9.862835708541477
            ],
            [
              106.06260216509278,
              9.86266372735002
            ],
            [
              106.06247112751791,
              9.862407347295008
            ],
            [
              106.06253214490143,
              9.862148952472056
            ],
            [
              106.06258133204794,
              9.861988811873216
            ],
            [
              106.06262997963124,
              9.861830956018476
            ],
            [
              106.0626326123282,
              9.861609253299951
            ],
            [
              106.06260201586385,
              9.86141681015101
            ],
            [
              106.06256002830501,
              9.861227731360566
            ],
            [
              106.06263125852115,
              9.860757362531984
            ],
            [
              106.06264501526607,
              9.86075110092918
            ],
            [
              106.06279064447355,
              9.86076487235576
            ],
            [
              106.06282169325027,
              9.860686520894538
            ],
            [
              106.06297135830377,
              9.860499653947397
            ],
            [
              106.06299990372241,
              9.860479224789342
            ],
            [
              106.06323682413279,
              9.86057638177451
            ],
            [
              106.06337268840014,
              9.860419749343736
            ],
            [
              106.06346311425577,
              9.860343063323056
            ],
            [
              106.06361082777808,
              9.860244376146298
            ],
            [
              106.06379504401566,
              9.860180090562496
            ],
            [
              106.0642582561358,
              9.860213690121181
            ],
            [
              106.06433397265454,
              9.860184630567366
            ],
            [
              106.06452710949144,
              9.86004118000743
            ],
            [
              106.06448868229849,
              9.859908876333767
            ],
            [
              106.06473034082165,
              9.85956127717352
            ],
            [
              106.06488671529235,
              9.859567525263113
            ],
            [
              106.06523399684262,
              9.859566853150326
            ],
            [
              106.06529256242895,
              9.859585470979868
            ],
            [
              106.06546845374702,
              9.859648466885716
            ],
            [
              106.06565419454164,
              9.859712983240271
            ],
            [
              106.06572754439533,
              9.85973980399054
            ],
            [
              106.0659227133813,
              9.85982609445914
            ],
            [
              106.06610049597046,
              9.859821817892424
            ],
            [
              106.06620796706565,
              9.859914946075103
            ],
            [
              106.06635278636186,
              9.859774920979074
            ],
            [
              106.06655096239292,
              9.859753340624104
            ],
            [
              106.06660869144746,
              9.859762556437403
            ],
            [
              106.06675122994636,
              9.859781937106305
            ],
            [
              106.06679865680897,
              9.859791441440324
            ],
            [
              106.06690361166746,
              9.859905911618496
            ],
            [
              106.06712203228388,
              9.8600465922733
            ],
            [
              106.06732812267364,
              9.860227799541976
            ],
            [
              106.06769491177641,
              9.86054426870033
            ],
            [
              106.06772518755518,
              9.860707507660416
            ],
            [
              106.06773893169851,
              9.860779279847753
            ],
            [
              106.0678383652198,
              9.860803965559048
            ],
            [
              106.06791828276995,
              9.860931629813255
            ],
            [
              106.06804923668301,
              9.861082086905254
            ],
            [
              106.06816305767947,
              9.860940771162323
            ],
            [
              106.06823481760522,
              9.861071627528553
            ],
            [
              106.06832015390644,
              9.86113184010285
            ],
            [
              106.06826581075336,
              9.861274430839021
            ],
            [
              106.06832137125973,
              9.861338722917196
            ],
            [
              106.06854006259196,
              9.86151986268825
            ],
            [
              106.06885501230789,
              9.861765089664935
            ],
            [
              106.06935330070453,
              9.862142573589177
            ],
            [
              106.06945873538729,
              9.862221843047147
            ],
            [
              106.06987378219434,
              9.862551067037773
            ],
            [
              106.0701899241846,
              9.86225514626178
            ],
            [
              106.07023890090223,
              9.862211302504049
            ],
            [
              106.07070414126596,
              9.86177281565569
            ],
            [
              106.07089201822409,
              9.861964810788784
            ],
            [
              106.07094196217285,
              9.862059210108931
            ],
            [
              106.07098869290068,
              9.86215724142089
            ],
            [
              106.07101542826406,
              9.862153027104455
            ],
            [
              106.07153519552844,
              9.861770685087146
            ],
            [
              106.0716770157814,
              9.86190172756139
            ],
            [
              106.07172349702084,
              9.861838448569165
            ],
            [
              106.07183237102691,
              9.861844034093917
            ],
            [
              106.07209911252735,
              9.861842913013598
            ],
            [
              106.0722016830127,
              9.861770730423132
            ],
            [
              106.0723137512366,
              9.86167343439372
            ],
            [
              106.07243840674509,
              9.86179049131029
            ],
            [
              106.07244105080494,
              9.861790486822676
            ],
            [
              106.07324524104737,
              9.861807294397815
            ],
            [
              106.07408031905908,
              9.861812293510223
            ],
            [
              106.07462998429506,
              9.861817925197778
            ],
            [
              106.07463345026552,
              9.861880960834904
            ],
            [
              106.07508565250804,
              9.861854040126667
            ],
            [
              106.07510149574111,
              9.86183286369151
            ],
            [
              106.07563224260083,
              9.861850981693348
            ],
            [
              106.07586913898955,
              9.861852468501834
            ],
            [
              106.07588734893281,
              9.86190086442021
            ],
            [
              106.07610117909203,
              9.861892179074452
            ],
            [
              106.0761023062545,
              9.861853931743052
            ],
            [
              106.07656449089062,
              9.861856831706163
            ],
            [
              106.07682105190656,
              9.861902500870935
            ],
            [
              106.07682234280176,
              9.862137250458666
            ],
            [
              106.0768758787414,
              9.862137895840181
            ],
            [
              106.07709382667554,
              9.862419923730624
            ],
            [
              106.07710331436007,
              9.862489291074981
            ],
            [
              106.07731160763547,
              9.862791760010966
            ],
            [
              106.07729629405463,
              9.862804814957
            ],
            [
              106.07695960022268,
              9.863072486349422
            ],
            [
              106.07687764772743,
              9.86314439804454
            ],
            [
              106.07682688395357,
              9.863207685023639
            ],
            [
              106.07672893496994,
              9.863293891546123
            ],
            [
              106.0765962015058,
              9.863419307253116
            ],
            [
              106.07647549717365,
              9.863516158304929
            ],
            [
              106.07638778804407,
              9.863569712484331
            ],
            [
              106.07638776671918,
              9.863569725505066
            ],
            [
              106.0763781373745,
              9.86357372927017
            ],
            [
              106.07637576425913,
              9.863582223302508
            ],
            [
              106.07637321363987,
              9.863586160719858
            ],
            [
              106.07639050914453,
              9.863579096862717
            ],
            [
              106.07639464410974,
              9.863593357297306
            ],
            [
              106.0763891419904,
              9.86361294156751
            ],
            [
              106.07637094608876,
              9.863640702976962
            ],
            [
              106.0762591386602,
              9.863740802736858
            ],
            [
              106.07621291173672,
              9.86378425385046
            ],
            [
              106.07621292549922,
              9.863792174188433
            ],
            [
              106.07619517481604,
              9.863808569651363
            ],
            [
              106.07595217105919,
              9.864058530450047
            ],
            [
              106.07581206288998,
              9.86417983554438
            ],
            [
              106.07590745161399,
              9.864295946452184
            ],
            [
              106.07588860443242,
              9.864310987547162
            ],
            [
              106.07551240524705,
              9.863990294576896
            ],
            [
              106.07540487975943,
              9.863973118375919
            ],
            [
              106.07527393233765,
              9.86396176866555
            ],
            [
              106.07514390037207,
              9.864005118482059
            ],
            [
              106.075096389707,
              9.864000317098515
            ],
            [
              106.07505879180148,
              9.864033473148705
            ],
            [
              106.07502860862053,
              9.864136236183956
            ],
            [
              106.07496278088153,
              9.86429448445871
            ],
            [
              106.074983640772,
              9.864335949423356
            ],
            [
              106.07498825988976,
              9.864370751363058
            ],
            [
              106.07497183526368,
              9.864415806093827
            ],
            [
              106.07493990912982,
              9.864459892689718
            ],
            [
              106.07482580033803,
              9.864537211325247
            ],
            [
              106.07479926638781,
              9.864515456427883
            ],
            [
              106.07479579013305,
              9.864512606283995
            ],
            [
              106.07478568061907,
              9.864514721149543
            ],
            [
              106.07478107439589,
              9.864518906178475
            ],
            [
              106.07461773344131,
              9.864549880505383
            ],
            [
              106.07449891015189,
              9.864574748222376
            ],
            [
              106.07445213164154,
              9.86451895138027
            ],
            [
              106.07441735633711,
              9.864392067802068
            ],
            [
              106.07434702451606,
              9.864213617751458
            ],
            [
              106.07422944869624,
              9.864079009054509
            ],
            [
              106.07409507322903,
              9.864131329928853
            ],
            [
              106.07409487342463,
              9.864131407725308
            ],
            [
              106.07409216118226,
              9.864144703365891
            ],
            [
              106.07406439113068,
              9.864272235966036
            ],
            [
              106.07406039429489,
              9.864280832207049
            ],
            [
              106.07387960881037,
              9.864395062995223
            ],
            [
              106.0738423866995,
              9.864434728167508
            ]
          ]
        ]
      }
    }
  ]
}
