{
  "type": "FeatureCollection",
  "name": "Ấp Ô Mịch",
  "crs": {
    "type": "name",
    "properties": {
      "name": "urn:ogc:def:crs:OGC:1.3:CRS84"
    }
  },
  "features": [
    {
      "type": "Feature",
      "properties": {
        "Layer": "AP 9",
        "PaperSpace": null,
        "SubClasses": "AcDbEntity:AcDbHatch",
        "Linetype": null,
        "EntityHandle": "2BF9AD",
        "Text": "ANSI31",
        "sap_nhap_tu": [
          "Ấp Ô Mịch"
        ],
        "so_ho_sau_sap_nhap": 471,
        "so_dan_sau_sap_nhap": 2044,
        "dien_tich_sau_sap_nhap_ha": 470.98,
        "ma": "3005009",
        "ten": "Ấp Ô Mịch",
        "loai": "Ấp",
        "dien_tich_km2": "4.71",
        "dien_tich_ha": "470.98",
        "dan_so": "2044",
        "so_ho": "471",
        "mat_do_km2": "433.97",
        "audio": "audio/O Mich.mp3"
      },
      "geometry": {
        "type": "Polygon",
        "coordinates": [
          [
            [
              106.08442168002401,
              9.84776130877487
            ],
            [
              106.08401056423598,
              9.84805704425347
            ],
            [
              106.08371772053285,
              9.84826279271008
            ],
            [
              106.08357615600242,
              9.848380124866235
            ],
            [
              106.08359280068537,
              9.84840948099858
            ],
            [
              106.08371103066035,
              9.848554483253933
            ],
            [
              106.08377789249312,
              9.84862543391604
            ],
            [
              106.08379469698099,
              9.848641950822024
            ],
            [
              106.0840455555238,
              9.848928042370796
            ],
            [
              106.08415428205092,
              9.848853171480815
            ],
            [
              106.08448369063096,
              9.849236156658598
            ],
            [
              106.08096282273179,
              9.85247819229822
            ],
            [
              106.08086201607938,
              9.852365882294635
            ],
            [
              106.08048176283677,
              9.85201141720534
            ],
            [
              106.07983483546052,
              9.851339761958396
            ],
            [
              106.07937422919434,
              9.85170058253422
            ],
            [
              106.08073991300601,
              9.852683445606482
            ],
            [
              106.08052135818575,
              9.852884688578797
            ],
            [
              106.08167270200786,
              9.854006599281325
            ],
            [
              106.0812988348418,
              9.854390956120167
            ],
            [
              106.08017241364293,
              9.853270733769497
            ],
            [
              106.07851378226712,
              9.854987185096814
            ],
            [
              106.07810291963854,
              9.854631433003199
            ],
            [
              106.07534840512963,
              9.857651200698468
            ],
            [
              106.07510736916721,
              9.857446490092508
            ],
            [
              106.07480725747448,
              9.857254145971217
            ],
            [
              106.07472657730659,
              9.857311606605277
            ],
            [
              106.07456129935134,
              9.857480873995703
            ],
            [
              106.07453419453041,
              9.857518352021422
            ],
            [
              106.07402757114373,
              9.857112888569075
            ],
            [
              106.07355220298777,
              9.856749504623924
            ],
            [
              106.07375601763233,
              9.856562993309513
            ],
            [
              106.07384878050922,
              9.856480467357889
            ],
            [
              106.07409711519954,
              9.85625735241703
            ],
            [
              106.07414716708426,
              9.856203379826015
            ],
            [
              106.07397963617221,
              9.856018765804452
            ],
            [
              106.07369551224484,
              9.85573860024679
            ],
            [
              106.07333902803015,
              9.855370583387772
            ],
            [
              106.0731929875128,
              9.855486924549547
            ],
            [
              106.07291667828144,
              9.855719127847342
            ],
            [
              106.07285841367825,
              9.855769045522171
            ],
            [
              106.07265613974492,
              9.855527528191768
            ],
            [
              106.07241891281902,
              9.855266269079067
            ],
            [
              106.07221564364805,
              9.855081714705753
            ],
            [
              106.07170325183986,
              9.854605281188118
            ],
            [
              106.0718542797154,
              9.854469743873528
            ],
            [
              106.07185741177373,
              9.854438836876744
            ],
            [
              106.07184551714076,
              9.854414354508696
            ],
            [
              106.0716186596286,
              9.854138158659786
            ],
            [
              106.07157829339762,
              9.854098715571808
            ],
            [
              106.07155155430398,
              9.854030949441688
            ],
            [
              106.07122408557773,
              9.853938556951745
            ],
            [
              106.07084811722987,
              9.853848506541066
            ],
            [
              106.07082905646206,
              9.853845193413113
            ],
            [
              106.07056616744269,
              9.853769779521226
            ],
            [
              106.0704706531709,
              9.8537368489877
            ],
            [
              106.0703305506964,
              9.85370110048045
            ],
            [
              106.06996688211407,
              9.853655251960545
            ],
            [
              106.06985292252114,
              9.853821797779592
            ],
            [
              106.06983926498634,
              9.853832489835124
            ],
            [
              106.06982522149819,
              9.85383079565385
            ],
            [
              106.06964753363819,
              9.85372892635265
            ],
            [
              106.0694432745793,
              9.853603684229638
            ],
            [
              106.06928759512627,
              9.853735229768349
            ],
            [
              106.06899596802688,
              9.853967817445412
            ],
            [
              106.06876178992653,
              9.854153382570834
            ],
            [
              106.06856680535631,
              9.854332823703125
            ],
            [
              106.06832786916253,
              9.85413594001858
            ],
            [
              106.06802685325049,
              9.853890788457885
            ],
            [
              106.06776868620362,
              9.853697372479697
            ],
            [
              106.06768416182514,
              9.853639739285903
            ],
            [
              106.06737457370141,
              9.853499573640352
            ],
            [
              106.06741548376739,
              9.853377444248595
            ],
            [
              106.06746757321307,
              9.85323495262162
            ],
            [
              106.06750400434315,
              9.853106140019744
            ],
            [
              106.06691874613837,
              9.852826112728316
            ],
            [
              106.06686565263468,
              9.852807847586169
            ],
            [
              106.0665140821901,
              9.85269523782845
            ],
            [
              106.06607547648227,
              9.85254913915663
            ],
            [
              106.06607091510536,
              9.852547519329974
            ],
            [
              106.06617469306639,
              9.852240747006453
            ],
            [
              106.06619617345787,
              9.852166027941223
            ],
            [
              106.06624976589804,
              9.851942341011611
            ],
            [
              106.06615992614424,
              9.851921696166373
            ],
            [
              106.06603821331632,
              9.851869368965591
            ],
            [
              106.06562914423863,
              9.851667162619036
            ],
            [
              106.06553279535538,
              9.851625371322035
            ],
            [
              106.06545873752678,
              9.851610034349655
            ],
            [
              106.06536248783185,
              9.85189419005337
            ],
            [
              106.06529104545383,
              9.851862121833607
            ],
            [
              106.06530983243701,
              9.851811819459243
            ],
            [
              106.06531853213136,
              9.851780792437873
            ],
            [
              106.06533379004344,
              9.851711490743451
            ],
            [
              106.06497949539794,
              9.851639046265971
            ],
            [
              106.0642790886411,
              9.851464631071163
            ],
            [
              106.06362518227559,
              9.851291402571764
            ],
            [
              106.06359173161086,
              9.851296973748797
            ],
            [
              106.06333074354446,
              9.851211514734496
            ],
            [
              106.06322145618134,
              9.851174174693867
            ],
            [
              106.06315114408636,
              9.851163261307311
            ],
            [
              106.0630929796045,
              9.851165166626418
            ],
            [
              106.0630078540511,
              9.85118230667523
            ],
            [
              106.06296409975326,
              9.85118717164897
            ],
            [
              106.06292187912503,
              9.851182450032304
            ],
            [
              106.0627809788277,
              9.851159086517786
            ],
            [
              106.06257037434357,
              9.851106906179751
            ],
            [
              106.06222606874425,
              9.851029270410692
            ],
            [
              106.06213476655059,
              9.851006185686584
            ],
            [
              106.06217562003604,
              9.850741923959038
            ],
            [
              106.06217749405128,
              9.85055638850048
            ],
            [
              106.06215313985932,
              9.850334278482759
            ],
            [
              106.06205263311053,
              9.850151716330345
            ],
            [
              106.06197391519629,
              9.849914506990476
            ],
            [
              106.06190553813497,
              9.849430536845329
            ],
            [
              106.06191587273725,
              9.849072384325257
            ],
            [
              106.06204383342944,
              9.848669280439914
            ],
            [
              106.06216971094119,
              9.84843607048333
            ],
            [
              106.06226075752663,
              9.848254726489943
            ],
            [
              106.06230418108234,
              9.848000858218336
            ],
            [
              106.06233877093165,
              9.847860566369327
            ],
            [
              106.06245139520593,
              9.847554051516319
            ],
            [
              106.06261218750858,
              9.847157583510253
            ],
            [
              106.06264157053145,
              9.847119108027755
            ],
            [
              106.06279030482048,
              9.846924286334744
            ],
            [
              106.06270313096331,
              9.846861864130299
            ],
            [
              106.0626007353371,
              9.846801637224878
            ],
            [
              106.06248957635587,
              9.84673491497218
            ],
            [
              106.06219911993456,
              9.846635218291983
            ],
            [
              106.06213383468136,
              9.846631077424574
            ],
            [
              106.06197507045458,
              9.846717597892665
            ],
            [
              106.06186640999323,
              9.846834324105046
            ],
            [
              106.0618120868445,
              9.846896891503443
            ],
            [
              106.06170985555168,
              9.846933770182098
            ],
            [
              106.06156624731214,
              9.846979307089763
            ],
            [
              106.06141297250197,
              9.847023413359473
            ],
            [
              106.06130632475018,
              9.847036520010512
            ],
            [
              106.06118441499085,
              9.847028042704945
            ],
            [
              106.0610098709738,
              9.846840630278443
            ],
            [
              106.06098153527138,
              9.846797549191788
            ],
            [
              106.06085298499792,
              9.8467438750854
            ],
            [
              106.06076270032692,
              9.8467827227828
            ],
            [
              106.05969639381706,
              9.847015321957539
            ],
            [
              106.05948278174884,
              9.847124355205482
            ],
            [
              106.05919520225369,
              9.847271123614995
            ],
            [
              106.05912572574734,
              9.847376934275069
            ],
            [
              106.05903220235717,
              9.847441826534595
            ],
            [
              106.05903654257376,
              9.84758295784011
            ],
            [
              106.05901491617875,
              9.84768009980935
            ],
            [
              106.0589627623318,
              9.847731903755676
            ],
            [
              106.05880175428206,
              9.847786148202808
            ],
            [
              106.05871897830065,
              9.84779053467517
            ],
            [
              106.05840889277165,
              9.847620343158265
            ],
            [
              106.05836314005239,
              9.847575120664787
            ],
            [
              106.05833255845923,
              9.84749750435663
            ],
            [
              106.0583389191216,
              9.847430586414259
            ],
            [
              106.05846491137719,
              9.847264284944558
            ],
            [
              106.05852564750853,
              9.847113318483899
            ],
            [
              106.05852770091477,
              9.84703118052579
            ],
            [
              106.05835555309409,
              9.846966727690218
            ],
            [
              106.0583076994549,
              9.846973316705633
            ],
            [
              106.05821640755096,
              9.84706406387233
            ],
            [
              106.0581206523588,
              9.847103010340513
            ],
            [
              106.05800749877282,
              9.847096777802365
            ],
            [
              106.05794311861185,
              9.847088746767401
            ],
            [
              106.0578876751527,
              9.847081876359955
            ],
            [
              106.05783685482847,
              9.847059175603768
            ],
            [
              106.05781713729158,
              9.846990221178068
            ],
            [
              106.05779946287002,
              9.84683491661844
            ],
            [
              106.05780145526916,
              9.846718367808062
            ],
            [
              106.05786642547542,
              9.846534897968754
            ],
            [
              106.05788807401929,
              9.846450775841431
            ],
            [
              106.0578727869023,
              9.846414092415158
            ],
            [
              106.05757226363441,
              9.846399489237776
            ],
            [
              106.0574962013711,
              9.84643840301665
            ],
            [
              106.05738084475144,
              9.846477472037908
            ],
            [
              106.0573002759692,
              9.846438726328481
            ],
            [
              106.05727184246862,
              9.846391395536509
            ],
            [
              106.05727982136862,
              9.846256392085309
            ],
            [
              106.05724491099537,
              9.846206811588372
            ],
            [
              106.05717080462865,
              9.846161635684
            ],
            [
              106.05699440507489,
              9.846116628452055
            ],
            [
              106.05669602027871,
              9.846017844146077
            ],
            [
              106.0566198090999,
              9.846022309678721
            ],
            [
              106.05651595768697,
              9.846017507938614
            ],
            [
              106.05646525043761,
              9.846062166305192
            ],
            [
              106.05641653499211,
              9.846098503159896
            ],
            [
              106.05632471832985,
              9.846148292487271
            ],
            [
              106.05621085947276,
              9.846156255719627
            ],
            [
              106.05612878568557,
              9.846253135418712
            ],
            [
              106.05604954689586,
              9.84624630387526
            ],
            [
              106.05586956862126,
              9.846187468372243
            ],
            [
              106.05575868217115,
              9.846119296722083
            ],
            [
              106.05558449295035,
              9.84603296522679
            ],
            [
              106.05551670798108,
              9.845951431520312
            ],
            [
              106.05548645075946,
              9.84590374189809
            ],
            [
              106.05540514756257,
              9.84575270088047
            ],
            [
              106.05533850657753,
              9.845537350316777
            ],
            [
              106.05508702495219,
              9.8454082886466
            ],
            [
              106.05500251143185,
              9.845354630282557
            ],
            [
              106.05492600657159,
              9.84529236926737
            ],
            [
              106.05482343171666,
              9.845178342965886
            ],
            [
              106.05478614701514,
              9.845126144035897
            ],
            [
              106.05448196838275,
              9.84494183412676
            ],
            [
              106.05422765114038,
              9.844806718585083
            ],
            [
              106.05420406432526,
              9.844822489579009
            ],
            [
              106.0541627601085,
              9.844874727087758
            ],
            [
              106.05399062560818,
              9.84481714347226
            ],
            [
              106.05353794655032,
              9.84464202728698
            ],
            [
              106.05286503937619,
              9.84438065284528
            ],
            [
              106.05262705186934,
              9.844305906896048
            ],
            [
              106.05242736171117,
              9.844234624361215
            ],
            [
              106.05213058747624,
              9.84411576096391
            ],
            [
              106.0518525490721,
              9.844024443435925
            ],
            [
              106.05156076256617,
              9.84392614564891
            ],
            [
              106.0514505519174,
              9.843878341957506
            ],
            [
              106.05116182224337,
              9.843717150056493
            ],
            [
              106.05073222049903,
              9.84354714598386
            ],
            [
              106.050532783689,
              9.843463203686714
            ],
            [
              106.05001744049353,
              9.843267660334458
            ],
            [
              106.04953852331796,
              9.843101532404708
            ],
            [
              106.04952410609528,
              9.843094051358074
            ],
            [
              106.0494507675152,
              9.843015961134366
            ],
            [
              106.0493492706964,
              9.842945873245707
            ],
            [
              106.04933735271692,
              9.842894772366824
            ],
            [
              106.04934020693854,
              9.842867768905997
            ],
            [
              106.04932773418692,
              9.842823214294082
            ],
            [
              106.04929993809739,
              9.842609064929455
            ],
            [
              106.04927994313385,
              9.842536493706474
            ],
            [
              106.04927262164168,
              9.84246444437475
            ],
            [
              106.0492655091091,
              9.842353335163379
            ],
            [
              106.04926913857375,
              9.842287687537766
            ],
            [
              106.04925621065095,
              9.842133188288463
            ],
            [
              106.04924189438347,
              9.842076430559537
            ],
            [
              106.04920618949718,
              9.84198643464958
            ],
            [
              106.04917485176034,
              9.841946160219521
            ],
            [
              106.0491419139145,
              9.84193066226194
            ],
            [
              106.04906554299824,
              9.841893173465662
            ],
            [
              106.04897862631985,
              9.841873784904612
            ],
            [
              106.04899367949074,
              9.841824755190936
            ],
            [
              106.04899712406342,
              9.84181272431924
            ],
            [
              106.04904136080313,
              9.841658945918628
            ],
            [
              106.04903349171529,
              9.841641689322255
            ],
            [
              106.04914633066903,
              9.841237890709328
            ],
            [
              106.04919291650428,
              9.841016115936828
            ],
            [
              106.04922027240252,
              9.840908838569996
            ],
            [
              106.04923864766394,
              9.840828881309921
            ],
            [
              106.04926331253715,
              9.840748280917907
            ],
            [
              106.04933564632567,
              9.840494547571634
            ],
            [
              106.0493833159541,
              9.840321866689955
            ],
            [
              106.04941547141972,
              9.84019505173599
            ],
            [
              106.04945666738477,
              9.840022019706034
            ],
            [
              106.04949670068432,
              9.839862642318922
            ],
            [
              106.04955303865705,
              9.83963931458187
            ],
            [
              106.04962444045889,
              9.8393735574208
            ],
            [
              106.04968425539428,
              9.839157909337805
            ],
            [
              106.04977041013174,
              9.838827209749555
            ],
            [
              106.04981228507674,
              9.838679040870215
            ],
            [
              106.04984784603879,
              9.838516777421068
            ],
            [
              106.04990061162819,
              9.83833866324998
            ],
            [
              106.04992824138822,
              9.838249697605443
            ],
            [
              106.04991122024919,
              9.83824013818148
            ],
            [
              106.04995369273969,
              9.838098342616851
            ],
            [
              106.05006624866667,
              9.837722573036556
            ],
            [
              106.05017949946955,
              9.837348701021087
            ],
            [
              106.05023579454918,
              9.837155029575479
            ],
            [
              106.05030370939815,
              9.836931321224972
            ],
            [
              106.05036433132679,
              9.836707986396751
            ],
            [
              106.05037185416506,
              9.83668343611005
            ],
            [
              106.05761578251939,
              9.839814572430319
            ],
            [
              106.05839795236052,
              9.836942086810284
            ],
            [
              106.06296973099337,
              9.838118918526034
            ],
            [
              106.06299658388292,
              9.838169296061483
            ],
            [
              106.06303115269553,
              9.83819112680804
            ],
            [
              106.06308737024976,
              9.838217319314268
            ],
            [
              106.06353022735892,
              9.83833497698808
            ],
            [
              106.06365544155322,
              9.838358898530613
            ],
            [
              106.06375458548068,
              9.838394296982703
            ],
            [
              106.06402310100164,
              9.838436005897512
            ],
            [
              106.06407825860353,
              9.838506332342277
            ],
            [
              106.0641543680713,
              9.838515389502518
            ],
            [
              106.06421603769085,
              9.838489217438934
            ],
            [
              106.06428432182484,
              9.83848620340978
            ],
            [
              106.06446687208384,
              9.838556953428267
            ],
            [
              106.06464572755237,
              9.838647218169774
            ],
            [
              106.06468333602287,
              9.838676157122586
            ],
            [
              106.06477631295613,
              9.838675257173893
            ],
            [
              106.06485499124584,
              9.838596965449073
            ],
            [
              106.0651977470132,
              9.838574292786419
            ],
            [
              106.06524371020997,
              9.838543561283718
            ],
            [
              106.06527559612665,
              9.838481866726243
            ],
            [
              106.06535280816485,
              9.838481737603354
            ],
            [
              106.06548936036292,
              9.838508389957022
            ],
            [
              106.06550226319958,
              9.838596825517522
            ],
            [
              106.0655237185446,
              9.83865135832375
            ],
            [
              106.06555937509633,
              9.838699579715053
            ],
            [
              106.06559394340022,
              9.838716443219177
            ],
            [
              106.06564848595201,
              9.838728613763651
            ],
            [
              106.06571308432449,
              9.838724408618301
            ],
            [
              106.06574124361691,
              9.838675849140724
            ],
            [
              106.06575686997043,
              9.838641629925455
            ],
            [
              106.06580335325519,
              9.8385993445096
            ],
            [
              106.0658916597862,
              9.83858622932898
            ],
            [
              106.06607551888439,
              9.838587301633373
            ],
            [
              106.06611965256461,
              9.838262974448615
            ],
            [
              106.06612632097682,
              9.837761248465405
            ],
            [
              106.06610281075996,
              9.837306287312623
            ],
            [
              106.06612163751184,
              9.83701914121005
            ],
            [
              106.06837626418248,
              9.837332728120936
            ],
            [
              106.07111535230776,
              9.83808488079507
            ],
            [
              106.07127989058627,
              9.837285700053004
            ],
            [
              106.07263517314215,
              9.837493414834864
            ],
            [
              106.07262062465136,
              9.837550042345024
            ],
            [
              106.07253449083076,
              9.837826406918914
            ],
            [
              106.07248382680984,
              9.837947106706869
            ],
            [
              106.0724749928607,
              9.837952546583516
            ],
            [
              106.07237694492883,
              9.83824583895709
            ],
            [
              106.07225640261991,
              9.8386062575279
            ],
            [
              106.07263987129436,
              9.838720525964574
            ],
            [
              106.07284757642827,
              9.838787081345634
            ],
            [
              106.07305945901103,
              9.838844135908882
            ],
            [
              106.07343769199016,
              9.83893544680752
            ],
            [
              106.0734028447045,
              9.839081888234421
            ],
            [
              106.07339966042305,
              9.839138584006486
            ],
            [
              106.07398677199826,
              9.839341926029048
            ],
            [
              106.07435555970102,
              9.83945377615307
            ],
            [
              106.07436169734517,
              9.839470763790342
            ],
            [
              106.07451764829396,
              9.839501239938992
            ],
            [
              106.07463360090641,
              9.839545979209113
            ],
            [
              106.07492757029101,
              9.839622874759547
            ],
            [
              106.07509459416876,
              9.839677291837665
            ],
            [
              106.07518315635035,
              9.839698931213652
            ],
            [
              106.0752714356495,
              9.83971514613329
            ],
            [
              106.07533026897917,
              9.83973222488926
            ],
            [
              106.07546603590473,
              9.839741939441168
            ],
            [
              106.07547210944286,
              9.839827190661751
            ],
            [
              106.07537894721553,
              9.840308267869739
            ],
            [
              106.07536812975353,
              9.840431883901454
            ],
            [
              106.07540313081414,
              9.840427393968369
            ],
            [
              106.07549362738744,
              9.840407710198553
            ],
            [
              106.07568895368887,
              9.840379710492371
            ],
            [
              106.07621480011635,
              9.840265704963373
            ],
            [
              106.07648863023357,
              9.84018956047867
            ],
            [
              106.0765966867346,
              9.84014941263119
            ],
            [
              106.07681600953187,
              9.840080051598921
            ],
            [
              106.07686958739492,
              9.840063142929884
            ],
            [
              106.07704217645372,
              9.840014476183024
            ],
            [
              106.07711818753175,
              9.840000874538143
            ],
            [
              106.07721833279967,
              9.83997258439872
            ],
            [
              106.07731018580691,
              9.839946659189405
            ],
            [
              106.07760882949975,
              9.839879874621193
            ],
            [
              106.0776967648763,
              9.839855493062968
            ],
            [
              106.07782414139024,
              9.839863503112813
            ],
            [
              106.07807198746485,
              9.839839661781737
            ],
            [
              106.07824625937633,
              9.839815222827605
            ],
            [
              106.07829319975255,
              9.839808632625587
            ],
            [
              106.07849490102267,
              9.839777094229907
            ],
            [
              106.07857109228863,
              9.840024249340827
            ],
            [
              106.07861966622387,
              9.840118107561308
            ],
            [
              106.07873521078345,
              9.840341062692865
            ],
            [
              106.07889778641844,
              9.840287797399457
            ],
            [
              106.07912701439702,
              9.840795171575502
            ],
            [
              106.07915457933849,
              9.840865829001674
            ],
            [
              106.07933477490681,
              9.841362893977545
            ],
            [
              106.07932326770661,
              9.841368736440876
            ],
            [
              106.07933447389875,
              9.841399422219258
            ],
            [
              106.07916484731092,
              9.841474124644632
            ],
            [
              106.079060563917,
              9.841482169467762
            ],
            [
              106.07912082813412,
              9.841744631838859
            ],
            [
              106.07920675618423,
              9.84192838901255
            ],
            [
              106.07933115818568,
              9.842142730938855
            ],
            [
              106.0793355090869,
              9.842150227937836
            ],
            [
              106.07918646489043,
              9.842212598642789
            ],
            [
              106.07919626390219,
              9.842230465967177
            ],
            [
              106.0791883262436,
              9.842234385506126
            ],
            [
              106.0794356368137,
              9.842686851042398
            ],
            [
              106.0794968592636,
              9.842661972300988
            ],
            [
              106.07954868513697,
              9.84263358347438
            ],
            [
              106.07963312061275,
              9.842745372604178
            ],
            [
              106.07956215859335,
              9.842811170176983
            ],
            [
              106.07957566003176,
              9.84283624797863
            ],
            [
              106.07971639758262,
              9.84302922372446
            ],
            [
              106.0798082660425,
              9.843168576665914
            ],
            [
              106.07988463958992,
              9.843310126133554
            ],
            [
              106.07991443932293,
              9.843302841777653
            ],
            [
              106.0799903438054,
              9.84338453719713
            ],
            [
              106.08030550648273,
              9.843848368196584
            ],
            [
              106.08032946850724,
              9.843891635888893
            ],
            [
              106.08053310190436,
              9.843764524044074
            ],
            [
              106.0805405005259,
              9.843772467863126
            ],
            [
              106.08082391551608,
              9.844171706041976
            ],
            [
              106.08145397150905,
              9.843900733170422
            ],
            [
              106.08147062861649,
              9.843885333933729
            ],
            [
              106.08168782294162,
              9.84374670130135
            ],
            [
              106.08189853472793,
              9.844068230317829
            ],
            [
              106.08190518649006,
              9.844079403009124
            ],
            [
              106.08170319893748,
              9.844195780753916
            ],
            [
              106.08165903823394,
              9.844228134980204
            ],
            [
              106.08183683471707,
              9.844497265858225
            ],
            [
              106.08213271240642,
              9.844359144378515
            ],
            [
              106.08227533416989,
              9.844273456331155
            ],
            [
              106.08276156146916,
              9.8450060217163
            ],
            [
              106.08229897970554,
              9.84528045896001
            ],
            [
              106.08231560773557,
              9.8453124372421
            ],
            [
              106.08232145834077,
              9.845309443458833
            ],
            [
              106.08268185136585,
              9.845983951503175
            ],
            [
              106.08269596606033,
              9.845974433571477
            ],
            [
              106.08291129204954,
              9.846275867615121
            ],
            [
              106.08300817062491,
              9.846411503870891
            ],
            [
              106.08301363588237,
              9.846407238858946
            ],
            [
              106.08312750458673,
              9.846562743136321
            ],
            [
              106.08334944979451,
              9.846843098707463
            ],
            [
              106.08370417673079,
              9.846625670547528
            ],
            [
              106.08371218324484,
              9.84663496946352
            ],
            [
              106.08371804475833,
              9.84663143314643
            ],
            [
              106.08393538477745,
              9.846884942985556
            ],
            [
              106.0841076713537,
              9.84707777165924
            ],
            [
              106.08417853327619,
              9.847038680215507
            ],
            [
              106.0842439911721,
              9.846985402941222
            ],
            [
              106.08441346600476,
              9.846875436286641
            ],
            [
              106.08445659632375,
              9.846931057332824
            ],
            [
              106.08487264033701,
              9.847312340746257
            ],
            [
              106.08492626827277,
              9.84737526716368
            ],
            [
              106.08488941402479,
              9.847414932777518
            ],
            [
              106.08473591412569,
              9.847536354728257
            ],
            [
              106.08450052733666,
              9.847700775073958
            ],
            [
              106.08442168002401,
              9.84776130877487
            ]
          ]
        ]
      }
    }
  ]
}