{
  "type": "FeatureCollection",
  "name": "Ấp Xóm Lớn",
  "crs": {
    "type": "name",
    "properties": {
      "name": "urn:ogc:def:crs:OGC:1.3:CRS84"
    }
  },
  "features": [
    {
      "type": "Feature",
      "properties": {
        "Layer": "AP 13",
        "PaperSpace": null,
        "SubClasses": "AcDbEntity:AcDbHatch",
        "Linetype": null,
        "EntityHandle": "2BFA06",
        "Text": "ANSI31",
        "sap_nhap_tu": [
          "Ấp Xóm Lớn",
          "Ấp Trà Bôn"
        ],
        "so_ho_sau_sap_nhap": 887,
        "so_dan_sau_sap_nhap": 3989,
        "dien_tich_sau_sap_nhap_ha": 677.54,
        "ma": "3005013",
        "ten": "Ấp Xóm Lớn",
        "loai": "Ấp",
        "dien_tich_km2": "6.78",
        "dien_tich_ha": "677.54",
        "dan_so": "3989",
        "so_ho": "887",
        "mat_do_km2": "588.35",
        "audio": "audio/Xom Lon.mp3"
      },
      "geometry": {
        "type": "Polygon",
        "coordinates": [
          [
            [
              106.11408381874062,
              9.88916935256235
            ],
            [
              106.11454598836134,
              9.887888192913662
            ],
            [
              106.11340340778546,
              9.887695574969722
            ],
            [
              106.1146024866552,
              9.884376829395634
            ],
            [
              106.11578071995723,
              9.884806005095642
            ],
            [
              106.11601569109811,
              9.884521535801818
            ],
            [
              106.11540899827067,
              9.883018115589788
            ],
            [
              106.11500569259783,
              9.882079849623924
            ],
            [
              106.11448276269255,
              9.880745561198072
            ],
            [
              106.11371711207455,
              9.878915365057996
            ],
            [
              106.11351553475623,
              9.878444057234605
            ],
            [
              106.11344234754878,
              9.878312208571687
            ],
            [
              106.1132155706808,
              9.87805318068114
            ],
            [
              106.1130598612536,
              9.8779108530424
            ],
            [
              106.11319270482147,
              9.87771784478575
            ],
            [
              106.11439781080392,
              9.878012205619623
            ],
            [
              106.11580108983016,
              9.878365060450447
            ],
            [
              106.11664892979388,
              9.878551617042005
            ],
            [
              106.11713686282862,
              9.878695680355195
            ],
            [
              106.11785992761885,
              9.878849086996643
            ],
            [
              106.11862606117279,
              9.879027269820186
            ],
            [
              106.11913543420128,
              9.877955902051129
            ],
            [
              106.11975862561975,
              9.878114371534945
            ],
            [
              106.12031235199898,
              9.876897918266936
            ],
            [
              106.12130185156633,
              9.877227745366483
            ],
            [
              106.12192312191402,
              9.875548618194689
            ],
            [
              106.12252519705417,
              9.875801941328497
            ],
            [
              106.12326772987825,
              9.876140770778777
            ],
            [
              106.12377997774414,
              9.876347663386325
            ],
            [
              106.12402344928412,
              9.875754902169287
            ],
            [
              106.12498133254535,
              9.876098021292393
            ],
            [
              106.12493234976522,
              9.874275592417
            ],
            [
              106.12487207246947,
              9.873690740341896
            ],
            [
              106.12480700481774,
              9.87325254240795
            ],
            [
              106.12434641830698,
              9.869383329678245
            ],
            [
              106.12440247556583,
              9.869345069077168
            ],
            [
              106.12507192936603,
              9.869692933487517
            ],
            [
              106.12511841843467,
              9.869687241573708
            ],
            [
              106.12518969732153,
              9.869724540870989
            ],
            [
              106.12517574031172,
              9.869750768857175
            ],
            [
              106.12531818806245,
              9.869833703777326
            ],
            [
              106.12556253300836,
              9.870119773181738
            ],
            [
              106.12567142596453,
              9.870279785139195
            ],
            [
              106.12569070624912,
              9.870302081670246
            ],
            [
              106.12600157841099,
              9.870571119710084
            ],
            [
              106.12605696447062,
              9.870641630366045
            ],
            [
              106.12613523505478,
              9.870711736834007
            ],
            [
              106.12625080597253,
              9.870834937554513
            ],
            [
              106.12638576603716,
              9.87094146596331
            ],
            [
              106.12681572701783,
              9.871312811546044
            ],
            [
              106.12697553820487,
              9.871494337295005
            ],
            [
              106.12698879522559,
              9.87160995245789
            ],
            [
              106.12729668685073,
              9.871748255690237
            ],
            [
              106.12791586510782,
              9.871987694683266
            ],
            [
              106.12815453585159,
              9.87206817055488
            ],
            [
              106.12810978727009,
              9.872156199900862
            ],
            [
              106.12811422254732,
              9.872157394141666
            ],
            [
              106.12803519592072,
              9.872314138905121
            ],
            [
              106.12819609274919,
              9.872442498405073
            ],
            [
              106.12819426112482,
              9.87244476384284
            ],
            [
              106.12820680734758,
              9.872454738596515
            ],
            [
              106.12846601390986,
              9.872750850020195
            ],
            [
              106.12888080606473,
              9.873150158935434
            ],
            [
              106.12930910832034,
              9.873557308069795
            ],
            [
              106.12973404254255,
              9.87387088418946
            ],
            [
              106.13000527729477,
              9.874053556208715
            ],
            [
              106.13019839742547,
              9.874344690328039
            ],
            [
              106.13024861390458,
              9.874428862400952
            ],
            [
              106.13029883041008,
              9.874513034464377
            ],
            [
              106.13044477272133,
              9.87468753197043
            ],
            [
              106.13067048441047,
              9.87480835486911
            ],
            [
              106.1307482698949,
              9.874862096073072
            ],
            [
              106.13081588937081,
              9.874939906465643
            ],
            [
              106.13095474415884,
              9.875079065051287
            ],
            [
              106.13124486144692,
              9.8753133270758
            ],
            [
              106.13177474200168,
              9.875625257017541
            ],
            [
              106.1325147874956,
              9.876255071818319
            ],
            [
              106.13306875717514,
              9.876734197833718
            ],
            [
              106.13401925656939,
              9.87757570219241
            ],
            [
              106.13485889747027,
              9.87818441545435
            ],
            [
              106.13510672129588,
              9.87832770653073
            ],
            [
              106.13525622703442,
              9.878361329798144
            ],
            [
              106.13547817036086,
              9.878369319531055
            ],
            [
              106.13565315083652,
              9.878326675476545
            ],
            [
              106.13574339157653,
              9.87836454231769
            ],
            [
              106.13569875981128,
              9.879286786821856
            ],
            [
              106.13575635483555,
              9.879588394243662
            ],
            [
              106.13599047395512,
              9.88040050495866
            ],
            [
              106.13597799693825,
              9.880688400762292
            ],
            [
              106.13592427733569,
              9.880965259670235
            ],
            [
              106.1357800947546,
              9.881425106656565
            ],
            [
              106.13548658457717,
              9.88218260737469
            ],
            [
              106.13528820205072,
              9.882717509766431
            ],
            [
              106.13508732909169,
              9.884045528867652
            ],
            [
              106.13497405319144,
              9.884647357729305
            ],
            [
              106.13487450114519,
              9.885178728118296
            ],
            [
              106.13484038138103,
              9.885691892229806
            ],
            [
              106.13485525991966,
              9.886175488904243
            ],
            [
              106.13478809031359,
              9.886523980955833
            ],
            [
              106.13468383211,
              9.88693149291924
            ],
            [
              106.13462768234578,
              9.887083223191633
            ],
            [
              106.13434594167403,
              9.887562768145012
            ],
            [
              106.13408234381323,
              9.887946439809694
            ],
            [
              106.1338356352293,
              9.888388848609127
            ],
            [
              106.133674920985,
              9.888741856605057
            ],
            [
              106.13350504545141,
              9.889215313310892
            ],
            [
              106.13334035580391,
              9.889873476093536
            ],
            [
              106.13329827194664,
              9.88999064153134
            ],
            [
              106.13302359040712,
              9.89044467550682
            ],
            [
              106.13285356907082,
              9.890890465519307
            ],
            [
              106.13256260103599,
              9.891649496437875
            ],
            [
              106.13235102270212,
              9.892202776307448
            ],
            [
              106.13219823890141,
              9.892611999633258
            ],
            [
              106.13195231826228,
              9.89327068296344
            ],
            [
              106.13171705973446,
              9.893743809742649
            ],
            [
              106.13138147330655,
              9.894489632787987
            ],
            [
              106.1309716717933,
              9.895526936092264
            ],
            [
              106.13081578709499,
              9.895929272857638
            ],
            [
              106.13056698844795,
              9.896523940881648
            ],
            [
              106.13044949883688,
              9.896834733572673
            ],
            [
              106.13019116552275,
              9.897403018344995
            ],
            [
              106.12983381810123,
              9.898169133670581
            ],
            [
              106.12965754483437,
              9.898544139865933
            ],
            [
              106.12904575734271,
              9.899771390800767
            ],
            [
              106.12883543899355,
              9.900273492138547
            ],
            [
              106.12865075503507,
              9.900734045348536
            ],
            [
              106.12847629771746,
              9.901249632474554
            ],
            [
              106.12847751227532,
              9.901249621163196
            ],
            [
              106.12834844536899,
              9.901627630647042
            ],
            [
              106.12826221720965,
              9.90198040678914
            ],
            [
              106.12826012745269,
              9.90208022783284
            ],
            [
              106.12800984861224,
              9.90257236751304
            ],
            [
              106.1277852028753,
              9.902974225887975
            ],
            [
              106.1276709305019,
              9.903109065980885
            ],
            [
              106.1273041537016,
              9.903765524423502
            ],
            [
              106.1271027620093,
              9.904217157142146
            ],
            [
              106.12698303358073,
              9.904187408383617
            ],
            [
              106.12621091162995,
              9.90399558863749
            ],
            [
              106.12570900230499,
              9.903886580421155
            ],
            [
              106.12526923629557,
              9.903849877466529
            ],
            [
              106.1248747165048,
              9.903678191897338
            ],
            [
              106.1245222599874,
              9.903472251098385
            ],
            [
              106.12382588051713,
              9.903087928770471
            ],
            [
              106.12319894430269,
              9.902826620150483
            ],
            [
              106.12273738823686,
              9.90264574361714
            ],
            [
              106.12234234697569,
              9.90253806005176
            ],
            [
              106.12208740566521,
              9.902492882125056
            ],
            [
              106.1219875944316,
              9.902463863158355
            ],
            [
              106.121941862737,
              9.902440503902227
            ],
            [
              106.12183966812664,
              9.902409297229509
            ],
            [
              106.12170769173954,
              9.902385992176248
            ],
            [
              106.12162446261392,
              9.90239817127579
            ],
            [
              106.12149487262289,
              9.902438193278053
            ],
            [
              106.12114812214223,
              9.902597873132747
            ],
            [
              106.12108684957154,
              9.90264843753446
            ],
            [
              106.12100213837337,
              9.902696875313968
            ],
            [
              106.12070609485588,
              9.902778125503241
            ],
            [
              106.12063667532408,
              9.902834772315456
            ],
            [
              106.12055689742117,
              9.902899864210092
            ],
            [
              106.12042488194308,
              9.902959510178553
            ],
            [
              106.12023763952438,
              9.903035894282382
            ],
            [
              106.11991310626472,
              9.903082532236471
            ],
            [
              106.11961595164459,
              9.903091922980575
            ],
            [
              106.1191018271569,
              9.902983288861552
            ],
            [
              106.11898821314817,
              9.902936211591502
            ],
            [
              106.11878795103469,
              9.90287735922084
            ],
            [
              106.1180140238213,
              9.902810701984533
            ],
            [
              106.11773508673998,
              9.902808140940694
            ],
            [
              106.11765609107337,
              9.902779868997305
            ],
            [
              106.11752717728154,
              9.902733741570314
            ],
            [
              106.117166986932,
              9.902604848909982
            ],
            [
              106.11689296018088,
              9.90245038218805
            ],
            [
              106.11675537596685,
              9.90240922507368
            ],
            [
              106.11664783584861,
              9.902391701290952
            ],
            [
              106.11656369137938,
              9.902388962474841
            ],
            [
              106.11656095754115,
              9.902403072116826
            ],
            [
              106.11620068346919,
              9.902318824481714
            ],
            [
              106.11603997743802,
              9.902284500196814
            ],
            [
              106.11569687222624,
              9.902199958931432
            ],
            [
              106.11550793059384,
              9.902147864865958
            ],
            [
              106.11550167469822,
              9.902169078474316
            ],
            [
              106.11546062763004,
              9.90215926235384
            ],
            [
              106.11546397729182,
              9.902146770004562
            ],
            [
              106.11509368476777,
              9.902054502281757
            ],
            [
              106.1140234046933,
              9.90178792962478
            ],
            [
              106.11393223612319,
              9.901747771453833
            ],
            [
              106.11365971713299,
              9.901667529350261
            ],
            [
              106.1136289606528,
              9.90165293840774
            ],
            [
              106.11345428824181,
              9.901624415222258
            ],
            [
              106.11330139306658,
              9.901587262831717
            ],
            [
              106.11314539612962,
              9.90154930230125
            ],
            [
              106.11308903203644,
              9.901542985742424
            ],
            [
              106.11301952660169,
              9.90153090663526
            ],
            [
              106.11287048804112,
              9.901473028350443
            ],
            [
              106.11274355385163,
              9.901456546996874
            ],
            [
              106.11249477152707,
              9.901391450233158
            ],
            [
              106.111692892101,
              9.901195446177686
            ],
            [
              106.11136720018361,
              9.901113283774478
            ],
            [
              106.11136738484066,
              9.90110942168535
            ],
            [
              106.11134787249397,
              9.901110090089864
            ],
            [
              106.11096918116137,
              9.901011413542324
            ],
            [
              106.11091436698439,
              9.901004912963577
            ],
            [
              106.11031271775694,
              9.900850945721215
            ],
            [
              106.10957196847573,
              9.900680155286752
            ],
            [
              106.10929673589774,
              9.900604059654631
            ],
            [
              106.10905370204226,
              9.900540396468813
            ],
            [
              106.10900754016036,
              9.900528274196446
            ],
            [
              106.10881176231824,
              9.900476640704689
            ],
            [
              106.10857492584624,
              9.900411157644317
            ],
            [
              106.10856853959885,
              9.900409360922833
            ],
            [
              106.10831741558749,
              9.900344594684647
            ],
            [
              106.10852334491888,
              9.898294626629976
            ],
            [
              106.11014803830555,
              9.895598904583334
            ],
            [
              106.11052154468611,
              9.89141533179235
            ],
            [
              106.11140997814107,
              9.8914384110079
            ],
            [
              106.1112804043834,
              9.891080310636736
            ],
            [
              106.11120168421797,
              9.890627557062144
            ],
            [
              106.11110016101233,
              9.889950191873144
            ],
            [
              106.11102381232871,
              9.889770597308548
            ],
            [
              106.11067584319844,
              9.889524655510805
            ],
            [
              106.11140276571935,
              9.88932439748411
            ],
            [
              106.11212935487136,
              9.889292624567407
            ],
            [
              106.11332855138023,
              9.889219482156705
            ],
            [
              106.11400012218243,
              9.889158069484438
            ],
            [
              106.11408381874062,
              9.88916935256235
            ]
          ]
        ]
      }
    }
  ]
}