{
  "type": "FeatureCollection",
  "name": "Ấp Bà My",
  "crs": {
    "type": "name",
    "properties": {
      "name": "urn:ogc:def:crs:OGC:1.3:CRS84"
    }
  },
  "features": [
    {
      "type": "Feature",
      "properties": {
        "Layer": "AP 4",
        "PaperSpace": null,
        "SubClasses": "AcDbEntity:AcDbHatch",
        "Linetype": null,
        "EntityHandle": "2BF94D",
        "Text": "ANSI31",
        "sap_nhap_tu": [
          "Ấp Bà My"
        ],
        "so_ho_sau_sap_nhap": 705,
        "so_dan_sau_sap_nhap": 2910,
        "dien_tich_sau_sap_nhap_ha": 543.04,
        "ma": "3005004",
        "ten": "Ấp Bà My",
        "loai": "Ấp",
        "dien_tich_km2": "0.5430",
        "dien_tich_ha": "543.04",
        "dan_so": "2910",
        "so_ho": "705",
        "mat_do_km2": "5358.75"
      },
      "geometry": {
        "type": "Polygon",
        "coordinates": [
          [
            [
              106.06555007972722,
              9.897836448505396
            ],
            [
              106.0666454827671,
              9.899660728281045
            ],
            [
              106.06667256488822,
              9.899716267828037
            ],
            [
              106.06701804409683,
              9.90042476866789
            ],
            [
              106.06740168365978,
              9.901459901887172
            ],
            [
              106.06797319865554,
              9.902837813851384
            ],
            [
              106.06815567391259,
              9.903308083630568
            ],
            [
              106.06841890924649,
              9.90390940930043
            ],
            [
              106.06868242339802,
              9.904236531851332
            ],
            [
              106.06909901844882,
              9.90473428849097
            ],
            [
              106.06910636350267,
              9.904946972805199
            ],
            [
              106.06891643005697,
              9.905606091594864
            ],
            [
              106.06782101194533,
              9.90560930819097
            ],
            [
              106.0674160305428,
              9.905717032269266
            ],
            [
              106.06670447207993,
              9.905957802410654
            ],
            [
              106.06572667231498,
              9.906485356673077
            ],
            [
              106.0640393895517,
              9.907399760805196
            ],
            [
              106.06249545800219,
              9.90825121183096
            ],
            [
              106.0624998485766,
              9.908749634629002
            ],
            [
              106.06243569880515,
              9.909477942008165
            ],
            [
              106.06151878368739,
              9.909352034930112
            ],
            [
              106.06143212800683,
              9.910581817593336
            ],
            [
              106.06237524642331,
              9.910585904542156
            ],
            [
              106.0623687749868,
              9.91161536211937
            ],
            [
              106.06194455130452,
              9.91171413678787
            ],
            [
              106.06155011961614,
              9.911797382033134
            ],
            [
              106.06134808863881,
              9.911822755911379
            ],
            [
              106.0611720383674,
              9.911843402732329
            ],
            [
              106.06066398175723,
              9.91187100560558
            ],
            [
              106.06037064652703,
              9.911882137326966
            ],
            [
              106.06004174951964,
              9.911894367905889
            ],
            [
              106.05996121595796,
              9.911886175044028
            ],
            [
              106.0598833518715,
              9.911892715367703
            ],
            [
              106.059565570774,
              9.911899601490292
            ],
            [
              106.05941720141016,
              9.911896494413314
            ],
            [
              106.05885154505931,
              9.911889109495997
            ],
            [
              106.05848698293043,
              9.911895331083102
            ],
            [
              106.05849025378532,
              9.911457255433511
            ],
            [
              106.05812497469297,
              9.91141671510173
            ],
            [
              106.05810514782658,
              9.911771102957559
            ],
            [
              106.05799235150005,
              9.911773550872756
            ],
            [
              106.05771570945366,
              9.91173414664019
            ],
            [
              106.0577130544697,
              9.911566069357242
            ],
            [
              106.05737676413861,
              9.91157451915651
            ],
            [
              106.05737080879122,
              9.911287526381948
            ],
            [
              106.05736813376309,
              9.910945499464383
            ],
            [
              106.05721038655633,
              9.910950788441122
            ],
            [
              106.05698534630372,
              9.910958503638783
            ],
            [
              106.05659520287112,
              9.910989503145544
            ],
            [
              106.05635501965841,
              9.910993897671881
            ],
            [
              106.05634591819116,
              9.911004211040968
            ],
            [
              106.05597858895476,
              9.911045425100252
            ],
            [
              106.05586050481203,
              9.911048423535972
            ],
            [
              106.05580461916726,
              9.911056110949177
            ],
            [
              106.05555513355942,
              9.911059869320146
            ],
            [
              106.05532884055104,
              9.911081880121753
            ],
            [
              106.05516684041002,
              9.911106831433415
            ],
            [
              106.05489138504082,
              9.911121925117556
            ],
            [
              106.05475679418245,
              9.911124019177809
            ],
            [
              106.05471613454291,
              9.911130252687736
            ],
            [
              106.05453824625393,
              9.911142562791788
            ],
            [
              106.05442736427538,
              9.911144572343556
            ],
            [
              106.05423449253354,
              9.911139918026253
            ],
            [
              106.05386794960012,
              9.91112675281009
            ],
            [
              106.05368860332425,
              9.911119580406089
            ],
            [
              106.05354696512973,
              9.911106305984813
            ],
            [
              106.05322669307347,
              9.911095794299754
            ],
            [
              106.05312938559737,
              9.911090294672197
            ],
            [
              106.05253372739014,
              9.911081863480932
            ],
            [
              106.0522674671358,
              9.91108816056548
            ],
            [
              106.0522959419989,
              9.911265960400833
            ],
            [
              106.05197869414877,
              9.91126451119934
            ],
            [
              106.05174990014238,
              9.911263558259359
            ],
            [
              106.05136289227967,
              9.911261725854294
            ],
            [
              106.05139217233291,
              9.910939356585418
            ],
            [
              106.05137542530278,
              9.910849158758161
            ],
            [
              106.05137035979124,
              9.910819149229376
            ],
            [
              106.0513703715426,
              9.910819149210074
            ],
            [
              106.05134201060304,
              9.910710787957512
            ],
            [
              106.05181427869066,
              9.910346985853485
            ],
            [
              106.05194971733076,
              9.910246727808628
            ],
            [
              106.05203030367848,
              9.910172292084864
            ],
            [
              106.05246953018299,
              9.909963874405477
            ],
            [
              106.05250006904093,
              9.909834162074922
            ],
            [
              106.05262164473861,
              9.909623846090623
            ],
            [
              106.05274141010179,
              9.90945975329686
            ],
            [
              106.05271177381178,
              9.909413251126145
            ],
            [
              106.052559758457,
              9.909091944922842
            ],
            [
              106.05245227914983,
              9.90889280148447
            ],
            [
              106.0523550463029,
              9.908713541532395
            ],
            [
              106.05194361490967,
              9.907955290933636
            ],
            [
              106.05183672409551,
              9.907725884304964
            ],
            [
              106.05178295629773,
              9.907636488723602
            ],
            [
              106.05165591477915,
              9.907408001203184
            ],
            [
              106.051514338712,
              9.907048851326337
            ],
            [
              106.05136400031168,
              9.906706367241531
            ],
            [
              106.05115829454188,
              9.906200735226943
            ],
            [
              106.0509466473373,
              9.90625449079877
            ],
            [
              106.05086872117053,
              9.90594993735492
            ],
            [
              106.05088025236397,
              9.905830453684347
            ],
            [
              106.051177958857,
              9.905749955870814
            ],
            [
              106.05125685024173,
              9.905709474065093
            ],
            [
              106.05191584554996,
              9.905531828871267
            ],
            [
              106.0518857428865,
              9.905361626461433
            ],
            [
              106.05181134887901,
              9.90498842420575
            ],
            [
              106.05178683200283,
              9.904892172260862
            ],
            [
              106.05172192238406,
              9.904563058935134
            ],
            [
              106.0517272263711,
              9.904555753713026
            ],
            [
              106.05172622354912,
              9.904550481524055
            ],
            [
              106.05138137118128,
              9.902288083368587
            ],
            [
              106.05136021694325,
              9.902288660578806
            ],
            [
              106.05131394317496,
              9.902044759994075
            ],
            [
              106.05141094210173,
              9.902030902892882
            ],
            [
              106.05130721344442,
              9.901345327642712
            ],
            [
              106.05120640316572,
              9.900550408342575
            ],
            [
              106.05119938140005,
              9.900440827517494
            ],
            [
              106.05107076493715,
              9.899648747547317
            ],
            [
              106.05105620792058,
              9.899558989053293
            ],
            [
              106.05087637500097,
              9.899604572915058
            ],
            [
              106.05084969607994,
              9.89953464426726
            ],
            [
              106.05087128149593,
              9.899513858577338
            ],
            [
              106.05087758502972,
              9.899509960387098
            ],
            [
              106.05088286974642,
              9.899507537635929
            ],
            [
              106.05089167314148,
              9.899504467167892
            ],
            [
              106.05080577190688,
              9.899217322475849
            ],
            [
              106.05071206752488,
              9.898904114769326
            ],
            [
              106.05069080724743,
              9.898786229997484
            ],
            [
              106.05055308342821,
              9.898163783657354
            ],
            [
              106.0505424642615,
              9.898084027644183
            ],
            [
              106.05045697459528,
              9.897780761083236
            ],
            [
              106.05040574508621,
              9.897577130287061
            ],
            [
              106.05039429154097,
              9.897478153338591
            ],
            [
              106.05034867173207,
              9.897357695411
            ],
            [
              106.05023108916814,
              9.89716158517175
            ],
            [
              106.05016060934452,
              9.897115066425675
            ],
            [
              106.04988814547504,
              9.896950817298471
            ],
            [
              106.04965893637805,
              9.896966132314622
            ],
            [
              106.04960105331122,
              9.896964197008414
            ],
            [
              106.04960056080535,
              9.896961200678733
            ],
            [
              106.04955330088087,
              9.896934469811335
            ],
            [
              106.04953239645882,
              9.896876701481567
            ],
            [
              106.04943828995228,
              9.896555213345467
            ],
            [
              106.04933978316546,
              9.895755314890812
            ],
            [
              106.04921987145318,
              9.895143679385361
            ],
            [
              106.04917603372252,
              9.894937332815065
            ],
            [
              106.04911018705614,
              9.894826021564649
            ],
            [
              106.04931249446675,
              9.894593793851728
            ],
            [
              106.049701240595,
              9.8943804745104
            ],
            [
              106.04978311671223,
              9.894326823806306
            ],
            [
              106.05008356690074,
              9.894156224993523
            ],
            [
              106.05021424528908,
              9.894059185406176
            ],
            [
              106.05033808339189,
              9.894010592450956
            ],
            [
              106.05042523490653,
              9.893998379343447
            ],
            [
              106.05049163056596,
              9.894012113225495
            ],
            [
              106.05058765422896,
              9.894065572271758
            ],
            [
              106.05063157768379,
              9.89398901803139
            ],
            [
              106.05061037971076,
              9.893864478533626
            ],
            [
              106.05047663959007,
              9.89348885963213
            ],
            [
              106.05034632770592,
              9.893266442834992
            ],
            [
              106.0504177586642,
              9.892931024142332
            ],
            [
              106.0501092957555,
              9.89280622793991
            ],
            [
              106.04983385094924,
              9.892698171009767
            ],
            [
              106.04974106067417,
              9.89261479703998
            ],
            [
              106.04969029205023,
              9.89251751176591
            ],
            [
              106.04970977923966,
              9.892386648927937
            ],
            [
              106.04991680093532,
              9.892140306449795
            ],
            [
              106.04989798485273,
              9.891900413071731
            ],
            [
              106.04982744214814,
              9.89176137017804
            ],
            [
              106.04974453161483,
              9.891516055216295
            ],
            [
              106.04974917650969,
              9.891298879030613
            ],
            [
              106.04991627238091,
              9.890738017175284
            ],
            [
              106.04988818248084,
              9.890502083628434
            ],
            [
              106.0498267834981,
              9.890312320835708
            ],
            [
              106.04978497934407,
              9.890133258298482
            ],
            [
              106.04976805087628,
              9.889877980167615
            ],
            [
              106.0496972604145,
              9.889682816805244
            ],
            [
              106.04970424384307,
              9.88941249112605
            ],
            [
              106.04953658484956,
              9.889242340692565
            ],
            [
              106.04949105886772,
              9.889111529803644
            ],
            [
              106.04956150346895,
              9.888873703725128
            ],
            [
              106.04956104897265,
              9.888600161862703
            ],
            [
              106.04947793670567,
              9.888402893787042
            ],
            [
              106.04928357961714,
              9.88799549217274
            ],
            [
              106.04915481113967,
              9.887605026653931
            ],
            [
              106.04902663839368,
              9.887392009287948
            ],
            [
              106.04900789781763,
              9.88731349604056
            ],
            [
              106.04899839861889,
              9.887248756055184
            ],
            [
              106.04912363770315,
              9.886996356088302
            ],
            [
              106.0489968713634,
              9.88654822930618
            ],
            [
              106.04881840895607,
              9.885827448785129
            ],
            [
              106.04871063147176,
              9.885541125339884
            ],
            [
              106.04859258212625,
              9.885284773208111
            ],
            [
              106.048237562901,
              9.885040344170934
            ],
            [
              106.04729940529307,
              9.884764594354964
            ],
            [
              106.04702870098939,
              9.884667901227099
            ],
            [
              106.04683082550233,
              9.884550402493897
            ],
            [
              106.04655506713813,
              9.884264251671762
            ],
            [
              106.0462215337478,
              9.883639277104054
            ],
            [
              106.04568598095368,
              9.883401290442428
            ],
            [
              106.04555997488119,
              9.883355265302358
            ],
            [
              106.04546042842406,
              9.883258745417747
            ],
            [
              106.04517288485697,
              9.882735931910723
            ],
            [
              106.04488363016905,
              9.882435958788486
            ],
            [
              106.04482776024945,
              9.882284323053767
            ],
            [
              106.04484613577442,
              9.881759684760722
            ],
            [
              106.04481905503249,
              9.88142725287276
            ],
            [
              106.04483806341588,
              9.88123168963834
            ],
            [
              106.04485711792219,
              9.88111955267143
            ],
            [
              106.04504878693797,
              9.881119242400244
            ],
            [
              106.04509322928844,
              9.88104175672861
            ],
            [
              106.04526611560328,
              9.880819778054418
            ],
            [
              106.04536462711415,
              9.880731363959566
            ],
            [
              106.04566996400361,
              9.880549577172271
            ],
            [
              106.04590219823694,
              9.880432257340914
            ],
            [
              106.0461283267484,
              9.880388925178718
            ],
            [
              106.04630650100003,
              9.880443527318889
            ],
            [
              106.04636909376798,
              9.880469646221648
            ],
            [
              106.04666273013441,
              9.880485869285076
            ],
            [
              106.04697470950755,
              9.880468253015767
            ],
            [
              106.04695606927987,
              9.880338748052676
            ],
            [
              106.04667862252572,
              9.87990038543478
            ],
            [
              106.04656266068272,
              9.879635900581233
            ],
            [
              106.0463861237193,
              9.879462634665582
            ],
            [
              106.04629851258356,
              9.879310164593798
            ],
            [
              106.04620877738242,
              9.879185536856422
            ],
            [
              106.04606825013437,
              9.879008170760233
            ],
            [
              106.04592040296234,
              9.878477888768824
            ],
            [
              106.04582502419568,
              9.878425213634662
            ],
            [
              106.04567205121249,
              9.878297840517492
            ],
            [
              106.04517146659465,
              9.878159628125182
            ],
            [
              106.04479018625742,
              9.878179666434962
            ],
            [
              106.04465566022171,
              9.878157759382454
            ],
            [
              106.04456533704797,
              9.878063140998803
            ],
            [
              106.04448355747718,
              9.877796637984918
            ],
            [
              106.04433460712363,
              9.877536292316762
            ],
            [
              106.04432588073225,
              9.877336289283546
            ],
            [
              106.04435925201358,
              9.877175196319772
            ],
            [
              106.04449054013021,
              9.876886169893027
            ],
            [
              106.04457100856277,
              9.876533859980308
            ],
            [
              106.04522478655937,
              9.876314351838271
            ],
            [
              106.04575012375538,
              9.876181241240092
            ],
            [
              106.04616427799827,
              9.876137351306388
            ],
            [
              106.04649112730851,
              9.876065320581445
            ],
            [
              106.04671238450068,
              9.875989265683216
            ],
            [
              106.04684253714181,
              9.875847924905006
            ],
            [
              106.04691877180902,
              9.875687747680502
            ],
            [
              106.04707431870683,
              9.875133076527602
            ],
            [
              106.04719866516271,
              9.874899349503396
            ],
            [
              106.04743705823667,
              9.874710075226917
            ],
            [
              106.04767141719284,
              9.87456265162461
            ],
            [
              106.047908869094,
              9.874466171944762
            ],
            [
              106.04830977511989,
              9.87435223811498
            ],
            [
              106.0488642073809,
              9.874172357856526
            ],
            [
              106.04950777916653,
              9.873963597147808
            ],
            [
              106.04956502959887,
              9.874106110832978
            ],
            [
              106.04956505593881,
              9.874106176401087
            ],
            [
              106.04964933515328,
              9.87424016196905
            ],
            [
              106.04966441253859,
              9.87426431714054
            ],
            [
              106.04980929025312,
              9.874376886205427
            ],
            [
              106.0499535974349,
              9.874469588656494
            ],
            [
              106.05008324907035,
              9.874571329390875
            ],
            [
              106.05016273218136,
              9.874627871970436
            ],
            [
              106.05026217064288,
              9.874698667568131
            ],
            [
              106.05047133300953,
              9.874845965155293
            ],
            [
              106.05064800227636,
              9.875005919628528
            ],
            [
              106.05078501028102,
              9.875095387712348
            ],
            [
              106.05083269323357,
              9.875142615080106
            ],
            [
              106.05084230698438,
              9.87519036176537
            ],
            [
              106.05079368614649,
              9.875462988170115
            ],
            [
              106.05086394849879,
              9.875525889112616
            ],
            [
              106.05111379746181,
              9.875750976406904
            ],
            [
              106.05147009103845,
              9.875999144065856
            ],
            [
              106.05175191700283,
              9.876213138761734
            ],
            [
              106.05192923928568,
              9.876359257855698
            ],
            [
              106.05199898177032,
              9.876402796104244
            ],
            [
              106.0521976643491,
              9.876579820176548
            ],
            [
              106.05227716217703,
              9.876639219307831
            ],
            [
              106.05241334063561,
              9.876788262712084
            ],
            [
              106.05242306587898,
              9.876798906703531
            ],
            [
              106.0526630727545,
              9.876991314700843
            ],
            [
              106.05276949796949,
              9.877051899163831
            ],
            [
              106.05285634958068,
              9.877119468665583
            ],
            [
              106.05317227267882,
              9.877406434569647
            ],
            [
              106.05339038443364,
              9.877560216325497
            ],
            [
              106.05351769070644,
              9.877692112974247
            ],
            [
              106.05374229755739,
              9.877874816716716
            ],
            [
              106.0538094154313,
              9.877929742165113
            ],
            [
              106.05402352498542,
              9.878099840982287
            ],
            [
              106.05407248352007,
              9.878156875801803
            ],
            [
              106.05439835141664,
              9.8784136705515
            ],
            [
              106.05476696206765,
              9.878679698274615
            ],
            [
              106.05497678519458,
              9.878815997198219
            ],
            [
              106.05526145558103,
              9.878999830477175
            ],
            [
              106.05535572831684,
              9.879060822882314
            ],
            [
              106.05541080555112,
              9.87911252193005
            ],
            [
              106.0556101309798,
              9.879246776274044
            ],
            [
              106.05587876467843,
              9.879420427562572
            ],
            [
              106.0560940181847,
              9.8795701253591
            ],
            [
              106.05636797169906,
              9.879762148870668
            ],
            [
              106.05663764116571,
              9.879943980377758
            ],
            [
              106.05679372067814,
              9.880051000039867
            ],
            [
              106.05693513815383,
              9.880146949922057
            ],
            [
              106.05706674577223,
              9.880238096836903
            ],
            [
              106.05716168256582,
              9.88030318340919
            ],
            [
              106.05725696861887,
              9.880369896849507
            ],
            [
              106.05741376312197,
              9.880478931277478
            ],
            [
              106.05742785531004,
              9.880488730935536
            ],
            [
              106.05766247133894,
              9.880644485683755
            ],
            [
              106.05790468415515,
              9.880813305605596
            ],
            [
              106.05799995173324,
              9.880874295561757
            ],
            [
              106.05810924892077,
              9.880944285674225
            ],
            [
              106.05824535792945,
              9.881057376022019
            ],
            [
              106.0584179012406,
              9.881164784908721
            ],
            [
              106.05848538956859,
              9.881216860642414
            ],
            [
              106.05859282149584,
              9.881299864435402
            ],
            [
              106.05888195638755,
              9.88147756789284
            ],
            [
              106.05909604697005,
              9.881619135199612
            ],
            [
              106.05933845842215,
              9.881806628776728
            ],
            [
              106.05947689942066,
              9.881900263462425
            ],
            [
              106.05965062237173,
              9.882017008168882
            ],
            [
              106.05973058353167,
              9.882079261732159
            ],
            [
              106.0599366210492,
              9.882225321330637
            ],
            [
              106.0602172902945,
              9.882395269155866
            ],
            [
              106.06026442535203,
              9.882440304610972
            ],
            [
              106.06026437301881,
              9.882440468619976
            ],
            [
              106.06026509411346,
              9.882440943582697
            ],
            [
              106.06032437734257,
              9.882497586048208
            ],
            [
              106.06023150706747,
              9.882994253521932
            ],
            [
              106.05995853730202,
              9.884498815927799
            ],
            [
              106.05962082843276,
              9.886368135592399
            ],
            [
              106.05942516837361,
              9.887451164212733
            ],
            [
              106.05962077678598,
              9.887905791198284
            ],
            [
              106.06007819400203,
              9.888746559827663
            ],
            [
              106.06067266435551,
              9.889715031961462
            ],
            [
              106.06159786835984,
              9.891295699982159
            ],
            [
              106.06246287856632,
              9.892688471198406
            ],
            [
              106.06246317736529,
              9.892688952298359
            ],
            [
              106.06246626244712,
              9.892686404821244
            ],
            [
              106.06300677121381,
              9.893605930262883
            ],
            [
              106.06337583427826,
              9.89413859977499
            ],
            [
              106.06407262232463,
              9.895386833089084
            ],
            [
              106.06555007972722,
              9.897836448505396
            ]
          ]
        ]
      }
    }
  ]
}