{
  "type": "FeatureCollection",
  "name": "Ấp 1",
  "crs": {
    "type": "name",
    "properties": {
      "name": "urn:ogc:def:crs:OGC:1.3:CRS84"
    }
  },
  "features": [
    {
      "type": "Feature",
      "properties": {
        "Layer": "AP 1",
        "PaperSpace": null,
        "SubClasses": "AcDbEntity:AcDbHatch",
        "Linetype": null,
        "EntityHandle": "2BF8A7",
        "Text": "ANSI31",
        "sap_nhap_tu": [
          "Ấp 1",
          "Ấp 5"
        ],
        "so_ho_sau_sap_nhap": 838,
        "so_dan_sau_sap_nhap": 3372,
        "dien_tich_sau_sap_nhap_ha": 168.09,
        "ma": "3005002",
        "ten": "Ấp 1",
        "loai": "Ấp",
        "dien_tich_km2": "1.1",
        "dien_tich_ha": "109.97",
        "dan_so": "2796",
        "so_ho": "676",
        "mat_do_km2": "2541.82",
        "audio": "audio/1.mp3",
        "path": "D:\\5. work\\2026\\xa_cau_ke\\Ấp 2.geojson",
        "can_bo": [
          {
            "ho_ten": "Thạch Danh",
            "chuc_vu": "Bí thư Chi bộ",
            "so_dien_thoai": "0986 516 275"
          },
          {
            "ho_ten": "Huỳnh Thành Trung",
            "chuc_vu": "Trưởng Ban Nhân Dân",
            "so_dien_thoai": "0977 727 403"
          },
          {
            "ho_ten": "Nguyễn Minh Phú",
            "chuc_vu": "Trưởng Ban công tác Mặt trận",
            "so_dien_thoai": "0939 093 033"
          }
        ]
      },
      "geometry": {
        "type": "Polygon",
        "coordinates": [
          [
            [
              106.05566713719608,
              9.87017521086361
            ],
            [
              106.05583360893013,
              9.870768569230684
            ],
            [
              106.05599009635355,
              9.871212329153442
            ],
            [
              106.05602795429718,
              9.87129511788369
            ],
            [
              106.0560791673754,
              9.871360590387217
            ],
            [
              106.05616120252867,
              9.87142480543964
            ],
            [
              106.05621681154625,
              9.871451258208268
            ],
            [
              106.0563555941954,
              9.871495270019714
            ],
            [
              106.05659216965167,
              9.871567675756474
            ],
            [
              106.0569026851268,
              9.871665925289578
            ],
            [
              106.05690302541555,
              9.871665258044914
            ],
            [
              106.05720572872966,
              9.871758104236342
            ],
            [
              106.0576516984091,
              9.871898133006857
            ],
            [
              106.05790126583473,
              9.871978157902516
            ],
            [
              106.0582291626095,
              9.872089021481356
            ],
            [
              106.05834725639106,
              9.872130251387704
            ],
            [
              106.05842519431647,
              9.872169536855745
            ],
            [
              106.0585376812073,
              9.872253005944737
            ],
            [
              106.05865468040584,
              9.87236663176725
            ],
            [
              106.05880415941174,
              9.87249991099004
            ],
            [
              106.05893008157607,
              9.87261352190633
            ],
            [
              106.05908687212758,
              9.872753223901007
            ],
            [
              106.05919492853057,
              9.872854798651911
            ],
            [
              106.0593090761933,
              9.872960787342144
            ],
            [
              106.05945491092484,
              9.873097289813265
            ],
            [
              106.0595601196476,
              9.873193640691689
            ],
            [
              106.05971447656461,
              9.873332944212732
            ],
            [
              106.06001912204388,
              9.873603916171982
            ],
            [
              106.06036151306253,
              9.873890108259033
            ],
            [
              106.06066820859388,
              9.874173544043723
            ],
            [
              106.06079010138771,
              9.874302041917904
            ],
            [
              106.060862567587,
              9.874462797230233
            ],
            [
              106.06097581563077,
              9.874755402888544
            ],
            [
              106.06106456670022,
              9.874952328110055
            ],
            [
              106.06116801022011,
              9.875203122263445
            ],
            [
              106.06119816519693,
              9.875286727512732
            ],
            [
              106.0612455114864,
              9.875462807777186
            ],
            [
              106.06132807078322,
              9.875596197611141
            ],
            [
              106.0616362649106,
              9.875804822170467
            ],
            [
              106.06279976159162,
              9.876758388723138
            ],
            [
              106.06280881124846,
              9.876724183814106
            ],
            [
              106.06293818525756,
              9.876582445660885
            ],
            [
              106.06305195583148,
              9.876446885809036
            ],
            [
              106.06309658977332,
              9.876378267408978
            ],
            [
              106.06348453413874,
              9.875947432020984
            ],
            [
              106.06369005453155,
              9.87572444969949
            ],
            [
              106.0637731499438,
              9.875630531963267
            ],
            [
              106.06378272783213,
              9.87564026833796
            ],
            [
              106.06388399971476,
              9.875509614970648
            ],
            [
              106.06417370572396,
              9.875217613126715
            ],
            [
              106.06447731424397,
              9.874892513875915
            ],
            [
              106.06484492198022,
              9.874488211848231
            ],
            [
              106.06543567447214,
              9.87358480474746
            ],
            [
              106.06562513440535,
              9.873585676107478
            ],
            [
              106.0656337662121,
              9.873552635428798
            ],
            [
              106.06578774694769,
              9.873558820342788
            ],
            [
              106.06607094263144,
              9.872535364695922
            ],
            [
              106.06613011915898,
              9.872264480794602
            ],
            [
              106.06614839420386,
              9.872180879320554
            ],
            [
              106.06617206999792,
              9.872072377466594
            ],
            [
              106.06622216979547,
              9.871446764767118
            ],
            [
              106.06620041814386,
              9.871160555831274
            ],
            [
              106.06613202724132,
              9.870878457763743
            ],
            [
              106.0659233364454,
              9.870513015495133
            ],
            [
              106.06548829152796,
              9.869811988091564
            ],
            [
              106.06514352289382,
              9.869362370923254
            ],
            [
              106.06502855395416,
              9.869135440632116
            ],
            [
              106.06499976864954,
              9.869006629101355
            ],
            [
              106.06499005694837,
              9.868963038115346
            ],
            [
              106.06498793422972,
              9.86880357632879
            ],
            [
              106.06500238148476,
              9.868715496715641
            ],
            [
              106.06502782408867,
              9.86865917962394
            ],
            [
              106.06499530316272,
              9.86833774867704
            ],
            [
              106.06500787530753,
              9.86830935664978
            ],
            [
              106.0646728308959,
              9.868151293610875
            ],
            [
              106.06467035019683,
              9.868130286953647
            ],
            [
              106.06465376620463,
              9.86798985296982
            ],
            [
              106.06457506617075,
              9.867831360293051
            ],
            [
              106.06462625814247,
              9.867741515789447
            ],
            [
              106.06466202973506,
              9.867708973217395
            ],
            [
              106.06470970718985,
              9.867650846761482
            ],
            [
              106.0648854437781,
              9.86757880781583
            ],
            [
              106.0649537286041,
              9.86755081489411
            ],
            [
              106.06490793264294,
              9.867442374873022
            ],
            [
              106.06508160303876,
              9.867444275696847
            ],
            [
              106.06543138779152,
              9.867448101418276
            ],
            [
              106.06554598524147,
              9.867494925094691
            ],
            [
              106.06557536463505,
              9.867506991443475
            ],
            [
              106.06578244525791,
              9.867464691269186
            ],
            [
              106.0660232114305,
              9.867393311122257
            ],
            [
              106.06639277270055,
              9.867300286022157
            ],
            [
              106.06648451053869,
              9.867255376337154
            ],
            [
              106.06655952480848,
              9.867188071762014
            ],
            [
              106.06664988182392,
              9.867188824039742
            ],
            [
              106.06667469330256,
              9.867195563472915
            ],
            [
              106.06669327411667,
              9.867196092810637
            ],
            [
              106.06673373473255,
              9.86717168501541
            ],
            [
              106.06676725304558,
              9.867151466069611
            ],
            [
              106.06680862297063,
              9.867084037176856
            ],
            [
              106.06686760016306,
              9.866969291515062
            ],
            [
              106.06692757654089,
              9.866852374198887
            ],
            [
              106.06694073118346,
              9.866813835194892
            ],
            [
              106.06696686908718,
              9.866743176954012
            ],
            [
              106.06701208284866,
              9.866684240605109
            ],
            [
              106.06704906438799,
              9.866663202072402
            ],
            [
              106.06707122855529,
              9.866665787297343
            ],
            [
              106.06714275447607,
              9.866693695224004
            ],
            [
              106.06722983066305,
              9.866748701999217
            ],
            [
              106.0673235359139,
              9.866841310320954
            ],
            [
              106.06752097205714,
              9.86707750417333
            ],
            [
              106.06754570923815,
              9.867094098924232
            ],
            [
              106.06757398727026,
              9.867101917436777
            ],
            [
              106.06781928178988,
              9.867013168697882
            ],
            [
              106.06790446504311,
              9.86697432749922
            ],
            [
              106.06796089516165,
              9.866916457117897
            ],
            [
              106.06803226618565,
              9.866851599582558
            ],
            [
              106.06803932012122,
              9.866817862827777
            ],
            [
              106.06803485831294,
              9.866768051571835
            ],
            [
              106.06799663409001,
              9.866649129575459
            ],
            [
              106.0679817784597,
              9.866577915074398
            ],
            [
              106.06801516551295,
              9.866502716143913
            ],
            [
              106.06805038456659,
              9.866464139926553
            ],
            [
              106.06814120583282,
              9.866416699732074
            ],
            [
              106.0682576554837,
              9.86642708204228
            ],
            [
              106.0683372908785,
              9.866449642013125
            ],
            [
              106.0683700158394,
              9.866498591877905
            ],
            [
              106.0684506658196,
              9.866527931249465
            ],
            [
              106.06856777080156,
              9.866548258015875
            ],
            [
              106.06866833310745,
              9.866545375942335
            ],
            [
              106.06873169333933,
              9.866541200374133
            ],
            [
              106.06877578025367,
              9.866516533064043
            ],
            [
              106.0687867515655,
              9.866480981384452
            ],
            [
              106.0687962334637,
              9.866374456294302
            ],
            [
              106.06880989800314,
              9.866314397553825
            ],
            [
              106.06882361636889,
              9.86628571279267
            ],
            [
              106.06889388697773,
              9.866270494884098
            ],
            [
              106.06894759664112,
              9.866274563345174
            ],
            [
              106.06898483607856,
              9.866297646784641
            ],
            [
              106.06904701143758,
              9.866399982248097
            ],
            [
              106.06910786682616,
              9.866423839546039
            ],
            [
              106.06948400881518,
              9.866235231203751
            ],
            [
              106.07007073042651,
              9.865919413968822
            ],
            [
              106.07018219874986,
              9.865896260015251
            ],
            [
              106.07029662169138,
              9.865894619838011
            ],
            [
              106.07037770887803,
              9.865913108188568
            ],
            [
              106.07044142587385,
              9.865904410944674
            ],
            [
              106.07080139307573,
              9.865748287610407
            ],
            [
              106.07097651390949,
              9.865679094726598
            ],
            [
              106.07100105470127,
              9.865634568906003
            ],
            [
              106.07102557804595,
              9.865579916615506
            ],
            [
              106.0710603304836,
              9.865535373495796
            ],
            [
              106.07117749327308,
              9.865483547973108
            ],
            [
              106.07125944352315,
              9.865480133667388
            ],
            [
              106.07134121267846,
              9.865517718748913
            ],
            [
              106.07154662973696,
              9.865728128305603
            ],
            [
              106.0716307777958,
              9.865776809824508
            ],
            [
              106.07169456643634,
              9.865809703193982
            ],
            [
              106.07179869842972,
              9.865762149064219
            ],
            [
              106.07182869362863,
              9.865622347346216
            ],
            [
              106.07191285396217,
              9.86560553723419
            ],
            [
              106.07194900120592,
              9.865576814313908
            ],
            [
              106.07202996912257,
              9.865473332437903
            ],
            [
              106.07214924691185,
              9.865379188710943
            ],
            [
              106.07218101711668,
              9.865297309090783
            ],
            [
              106.07251519291601,
              9.865095839369307
            ],
            [
              106.07256812993491,
              9.865074972077148
            ],
            [
              106.07273559670482,
              9.865008937762093
            ],
            [
              106.07283513343522,
              9.86494050524112
            ],
            [
              106.0730455539156,
              9.86482758084295
            ],
            [
              106.07325374660581,
              9.864744587516558
            ],
            [
              106.07352420351191,
              9.864581431361957
            ],
            [
              106.0736136585415,
              9.864610793940598
            ],
            [
              106.0737453832531,
              9.864544295539446
            ],
            [
              106.0738197790533,
              9.864489648621758
            ],
            [
              106.0738423866995,
              9.864434728167508
            ],
            [
              106.07387960881037,
              9.864395062995223
            ],
            [
              106.07406039429489,
              9.864280832207049
            ],
            [
              106.07406439113068,
              9.864272235966036
            ],
            [
              106.07409216118226,
              9.864144703365891
            ],
            [
              106.07409487342463,
              9.864131407725308
            ],
            [
              106.07409507322903,
              9.864131329928853
            ],
            [
              106.07422944869624,
              9.864079009054509
            ],
            [
              106.07434702451606,
              9.864213617751458
            ],
            [
              106.07441735633711,
              9.864392067802068
            ],
            [
              106.07445213164154,
              9.86451895138027
            ],
            [
              106.07449891015189,
              9.864574748222376
            ],
            [
              106.07461773344131,
              9.864549880505383
            ],
            [
              106.07478107439589,
              9.864518906178475
            ],
            [
              106.07478568061907,
              9.864514721149543
            ],
            [
              106.07479579013305,
              9.864512606283995
            ],
            [
              106.07479926638781,
              9.864515456427883
            ],
            [
              106.07482580033803,
              9.864537211325247
            ],
            [
              106.07493990912982,
              9.864459892689718
            ],
            [
              106.07497183526368,
              9.864415806093827
            ],
            [
              106.07498825988976,
              9.864370751363058
            ],
            [
              106.074983640772,
              9.864335949423356
            ],
            [
              106.07496278088153,
              9.86429448445871
            ],
            [
              106.07502860862053,
              9.864136236183956
            ],
            [
              106.07505879180148,
              9.864033473148705
            ],
            [
              106.075096389707,
              9.864000317098515
            ],
            [
              106.07514390037207,
              9.864005118482059
            ],
            [
              106.07527393233765,
              9.86396176866555
            ],
            [
              106.07540487975943,
              9.863973118375919
            ],
            [
              106.07551240524705,
              9.863990294576896
            ],
            [
              106.07588860443242,
              9.864310987547162
            ],
            [
              106.07590745161399,
              9.864295946452184
            ],
            [
              106.07581206288998,
              9.86417983554438
            ],
            [
              106.07595217105919,
              9.864058530450047
            ],
            [
              106.07619517481604,
              9.863808569651363
            ],
            [
              106.07621292549922,
              9.863792174188433
            ],
            [
              106.07621291173672,
              9.86378425385046
            ],
            [
              106.0762591386602,
              9.863740802736858
            ],
            [
              106.07637094608876,
              9.863640702976962
            ],
            [
              106.0763891419904,
              9.86361294156751
            ],
            [
              106.07639464410974,
              9.863593357297306
            ],
            [
              106.07639050914453,
              9.863579096862717
            ],
            [
              106.07637321363987,
              9.863586160719858
            ],
            [
              106.07637576425913,
              9.863582223302508
            ],
            [
              106.0763781373745,
              9.86357372927017
            ],
            [
              106.07638776671918,
              9.863569725505066
            ],
            [
              106.07638778804407,
              9.863569712484331
            ],
            [
              106.07647549717365,
              9.863516158304929
            ],
            [
              106.0765962015058,
              9.863419307253116
            ],
            [
              106.07672893496994,
              9.863293891546123
            ],
            [
              106.07682688395357,
              9.863207685023639
            ],
            [
              106.07687764772743,
              9.86314439804454
            ],
            [
              106.07695960022268,
              9.863072486349422
            ],
            [
              106.07729629405463,
              9.862804814957
            ],
            [
              106.07731160763547,
              9.862791760010966
            ],
            [
              106.07718818019829,
              9.862612524765343
            ],
            [
              106.07709047269996,
              9.862631141545915
            ],
            [
              106.07695909952929,
              9.862649062643165
            ],
            [
              106.07662575076445,
              9.862665720332105
            ],
            [
              106.07628344730644,
              9.862663892294336
            ],
            [
              106.0760555125763,
              9.862661064195638
            ],
            [
              106.07549743161502,
              9.862650755699633
            ],
            [
              106.07466841592182,
              9.862632059894164
            ],
            [
              106.07424377583114,
              9.862626750370703
            ],
            [
              106.07376682441112,
              9.862625551207111
            ],
            [
              106.07329066601599,
              9.862613893097596
            ],
            [
              106.07271920537823,
              9.862606015874755
            ],
            [
              106.07223738219501,
              9.862602007493285
            ],
            [
              106.07211084703638,
              9.862603428739916
            ],
            [
              106.07199810881929,
              9.862609250622642
            ],
            [
              106.07182983272848,
              9.862629645460974
            ],
            [
              106.07171956187365,
              9.862655170350909
            ],
            [
              106.07154243185153,
              9.862715396814421
            ],
            [
              106.07117930797222,
              9.862870050591019
            ],
            [
              106.0708210291003,
              9.863012227918203
            ],
            [
              106.07040886043306,
              9.863184258061429
            ],
            [
              106.07007977284043,
              9.86332115679333
            ],
            [
              106.06644238999226,
              9.86484997663008
            ],
            [
              106.06461616372312,
              9.865603525956645
            ],
            [
              106.06412416438093,
              9.865819118930519
            ],
            [
              106.06369456514773,
              9.866000822938796
            ],
            [
              106.06347571166614,
              9.866092888091698
            ],
            [
              106.06268783479487,
              9.866422391011302
            ],
            [
              106.06191463601097,
              9.866798521741847
            ],
            [
              106.06133263770374,
              9.867039196604535
            ],
            [
              106.060416697961,
              9.867430040553794
            ],
            [
              106.05947723121625,
              9.867820116791252
            ],
            [
              106.05609874281447,
              9.86924946121779
            ],
            [
              106.05574391566013,
              9.869523535924008
            ],
            [
              106.05554451166131,
              9.869607520271177
            ],
            [
              106.05552008773427,
              9.869613806982043
            ],
            [
              106.05566713719608,
              9.87017521086361
            ]
          ]
        ]
      }
    }
  ]
}