{
  "type": "FeatureCollection",
  "name": "Ấp Giồng Lớn",
  "crs": {
    "type": "name",
    "properties": {
      "name": "urn:ogc:def:crs:OGC:1.3:CRS84"
    }
  },
  "features": [
    {
      "type": "Feature",
      "properties": {
        "Layer": "AP 5",
        "PaperSpace": null,
        "SubClasses": "AcDbEntity:AcDbHatch",
        "Linetype": null,
        "EntityHandle": "2BF952",
        "Text": "ANSI31",
        "sap_nhap_tu": [
          "Ấp Giồng Lớn"
        ],
        "so_ho_sau_sap_nhap": 601,
        "so_dan_sau_sap_nhap": 2494,
        "dien_tich_sau_sap_nhap_ha": 393.81,
        "ma": "3005005",
        "ten": "Ấp Giồng Lớn",
        "loai": "Ấp",
        "dien_tich_km2": "3.9381",
        "dien_tich_ha": "393.81",
        "dan_so": "2494",
        "so_ho": "601",
        "mat_do_km2": "633.30"
      },
      "geometry": {
        "type": "Polygon",
        "coordinates": [
          [
            [
              106.08333053595366,
              9.875215242432509
            ],
            [
              106.08299144863811,
              9.875513078421653
            ],
            [
              106.08281782496347,
              9.875809155566547
            ],
            [
              106.08273862998115,
              9.876081315880901
            ],
            [
              106.08272055954859,
              9.87636908837022
            ],
            [
              106.08256795423686,
              9.87673371710239
            ],
            [
              106.08220625531763,
              9.877218351261481
            ],
            [
              106.08190945978427,
              9.877592425522758
            ],
            [
              106.08179348698458,
              9.877758768899795
            ],
            [
              106.08167364825304,
              9.878302610515425
            ],
            [
              106.08156992708417,
              9.87879607660629
            ],
            [
              106.0815752077247,
              9.879173929525992
            ],
            [
              106.08152985611721,
              9.879823654605985
            ],
            [
              106.08150954368548,
              9.880137496211345
            ],
            [
              106.08153575435533,
              9.880517269582914
            ],
            [
              106.08151263790387,
              9.88067129416178
            ],
            [
              106.08144159087024,
              9.88082869502294
            ],
            [
              106.08128615990572,
              9.881089138845736
            ],
            [
              106.08123848043392,
              9.881291229880508
            ],
            [
              106.08122883952592,
              9.881603365319608
            ],
            [
              106.08119591911019,
              9.881953278337706
            ],
            [
              106.0809261030892,
              9.882557303999196
            ],
            [
              106.08075805647307,
              9.882933575930869
            ],
            [
              106.08049020360002,
              9.883236500159315
            ],
            [
              106.08028150086808,
              9.883611332863818
            ],
            [
              106.08008649100334,
              9.883689360959604
            ],
            [
              106.079813596339,
              9.883891884984735
            ],
            [
              106.07931754866573,
              9.884254823348071
            ],
            [
              106.07875511835968,
              9.884720555624396
            ],
            [
              106.07815886867525,
              9.885306411624653
            ],
            [
              106.07758633197433,
              9.885896634101787
            ],
            [
              106.07695175046918,
              9.886547135634661
            ],
            [
              106.07662252199356,
              9.886889518344004
            ],
            [
              106.07650599712267,
              9.886981960069413
            ],
            [
              106.07630797517952,
              9.887093891290723
            ],
            [
              106.07549797458769,
              9.888068969463736
            ],
            [
              106.07492523489418,
              9.887830665619818
            ],
            [
              106.07415253804538,
              9.887383856408583
            ],
            [
              106.0737091173662,
              9.887163820090459
            ],
            [
              106.0723514143893,
              9.888208090461227
            ],
            [
              106.07170206176946,
              9.888596300529457
            ],
            [
              106.07133964313277,
              9.888815907441678
            ],
            [
              106.07091302496019,
              9.889021316793416
            ],
            [
              106.07063871303212,
              9.888420080823701
            ],
            [
              106.07028793138348,
              9.888547673603227
            ],
            [
              106.0697885333511,
              9.888833169195173
            ],
            [
              106.06956022365988,
              9.889061102626693
            ],
            [
              106.06941965891899,
              9.889131952855497
            ],
            [
              106.06928257338694,
              9.889155133896105
            ],
            [
              106.06897636196648,
              9.888950018676171
            ],
            [
              106.06886847230466,
              9.888737833079654
            ],
            [
              106.0686396842715,
              9.888496940200907
            ],
            [
              106.06861393464443,
              9.888226740390227
            ],
            [
              106.06858118076146,
              9.888167048379767
            ],
            [
              106.06837469854285,
              9.887912288799521
            ],
            [
              106.06811383878956,
              9.887635894136286
            ],
            [
              106.06599557430016,
              9.888982893489628
            ],
            [
              106.06572746396371,
              9.888668984083433
            ],
            [
              106.063788899957,
              9.89126286506571
            ],
            [
              106.06318489797111,
              9.892092996552766
            ],
            [
              106.06246287856632,
              9.892688471198406
            ],
            [
              106.06159786835984,
              9.891295699982159
            ],
            [
              106.06067266435551,
              9.889715031961462
            ],
            [
              106.06007819400203,
              9.888746559827663
            ],
            [
              106.05962077678598,
              9.887905791198284
            ],
            [
              106.05944444810173,
              9.887495973622308
            ],
            [
              106.05945011956344,
              9.887313053317747
            ],
            [
              106.05962082843276,
              9.886368135592399
            ],
            [
              106.05995853730202,
              9.884498815927799
            ],
            [
              106.06023150706747,
              9.882994253521932
            ],
            [
              106.06032436537902,
              9.88249765002895
            ],
            [
              106.06044892790743,
              9.882615928581856
            ],
            [
              106.06055095716474,
              9.882727864518536
            ],
            [
              106.06079079533423,
              9.882483642283765
            ],
            [
              106.06080446291632,
              9.882359642159937
            ],
            [
              106.0609223503115,
              9.881708636958773
            ],
            [
              106.06097011069777,
              9.881477347560255
            ],
            [
              106.06100080650596,
              9.881297089822208
            ],
            [
              106.0611054341953,
              9.88084425162204
            ],
            [
              106.06116549718966,
              9.88061989462378
            ],
            [
              106.06127533740425,
              9.880176148885113
            ],
            [
              106.06126055812277,
              9.880063935676517
            ],
            [
              106.06124713056391,
              9.87993677095889
            ],
            [
              106.06124181988164,
              9.879869863500735
            ],
            [
              106.06123059345126,
              9.879707216174708
            ],
            [
              106.06122337031807,
              9.879577129739506
            ],
            [
              106.06122884628897,
              9.879537157079609
            ],
            [
              106.06126663482019,
              9.879442483591037
            ],
            [
              106.06129584297457,
              9.879250799817981
            ],
            [
              106.06131584020895,
              9.879101111189703
            ],
            [
              106.06135484901215,
              9.878779701379463
            ],
            [
              106.0613929990844,
              9.878468112088859
            ],
            [
              106.0614986023022,
              9.877623412508047
            ],
            [
              106.06151408045898,
              9.877502709482519
            ],
            [
              106.06153820468356,
              9.877485517486484
            ],
            [
              106.06167764925279,
              9.877326714698121
            ],
            [
              106.06170093191443,
              9.877326675865257
            ],
            [
              106.06176601320229,
              9.877220519279042
            ],
            [
              106.06225337943471,
              9.876696925093245
            ],
            [
              106.06241697992593,
              9.876520093167809
            ],
            [
              106.06242272824423,
              9.876515594874725
            ],
            [
              106.06252562590271,
              9.876597420596902
            ],
            [
              106.06278723595061,
              9.876805721508306
            ],
            [
              106.06280881124846,
              9.876724183814106
            ],
            [
              106.06293818525756,
              9.876582445660885
            ],
            [
              106.06305195583148,
              9.876446885809036
            ],
            [
              106.06309658977332,
              9.876378267408978
            ],
            [
              106.06348453413874,
              9.875947432020984
            ],
            [
              106.06369005453155,
              9.87572444969949
            ],
            [
              106.0637731499438,
              9.875630531963267
            ],
            [
              106.06378272783213,
              9.87564026833796
            ],
            [
              106.06388399971476,
              9.875509614970648
            ],
            [
              106.06417370572396,
              9.875217613126715
            ],
            [
              106.06447731424397,
              9.874892513875915
            ],
            [
              106.06484492198022,
              9.874488211848231
            ],
            [
              106.06543567447214,
              9.87358480474746
            ],
            [
              106.06562513440535,
              9.873585676107478
            ],
            [
              106.0656337662121,
              9.873552635428798
            ],
            [
              106.06578774694769,
              9.873558820342788
            ],
            [
              106.06607094263144,
              9.872535364695922
            ],
            [
              106.06613011915898,
              9.872264480794602
            ],
            [
              106.06614839420386,
              9.872180879320554
            ],
            [
              106.06617206999792,
              9.872072377466594
            ],
            [
              106.06622216979547,
              9.871446764767118
            ],
            [
              106.06620041814386,
              9.871160555831274
            ],
            [
              106.06613202724132,
              9.870878457763743
            ],
            [
              106.0659233364454,
              9.870513015495133
            ],
            [
              106.06548829152796,
              9.869811988091564
            ],
            [
              106.06514352289382,
              9.869362370923254
            ],
            [
              106.06502855395416,
              9.869135440632116
            ],
            [
              106.06499976864954,
              9.869006629101355
            ],
            [
              106.06499005694837,
              9.868963038115346
            ],
            [
              106.06498793422972,
              9.86880357632879
            ],
            [
              106.06500238148476,
              9.868715496715641
            ],
            [
              106.06502782408867,
              9.86865917962394
            ],
            [
              106.06499530316272,
              9.86833774867704
            ],
            [
              106.06507708545125,
              9.868153057351437
            ],
            [
              106.06526879164842,
              9.868050790772001
            ],
            [
              106.06565751179838,
              9.867879364346448
            ],
            [
              106.06606126419581,
              9.867785920538354
            ],
            [
              106.0667357089706,
              9.867579815973496
            ],
            [
              106.06686865149229,
              9.867530768219684
            ],
            [
              106.06710564057683,
              9.867467720903154
            ],
            [
              106.06725788871593,
              9.867427220923787
            ],
            [
              106.06753320712485,
              9.867353973266768
            ],
            [
              106.0678926299437,
              9.867250837114065
            ],
            [
              106.06811298860121,
              9.867295582995258
            ],
            [
              106.06841517177811,
              9.867363246637971
            ],
            [
              106.06856823671978,
              9.867404669902394
            ],
            [
              106.06904036641063,
              9.867468610505663
            ],
            [
              106.06954785984995,
              9.867578150349873
            ],
            [
              106.07036627537069,
              9.867905606475462
            ],
            [
              106.07097326327064,
              9.868185498707136
            ],
            [
              106.07172707129585,
              9.868479788027752
            ],
            [
              106.07214619301081,
              9.868628352214026
            ],
            [
              106.07250209503518,
              9.868809663105774
            ],
            [
              106.07277765074721,
              9.868926644173703
            ],
            [
              106.07318702146168,
              9.869077483953873
            ],
            [
              106.07352380945495,
              9.869224649301751
            ],
            [
              106.07438306506731,
              9.869596238680717
            ],
            [
              106.0753588695338,
              9.869981008226775
            ],
            [
              106.07593476091618,
              9.87020108936736
            ],
            [
              106.07622429057227,
              9.870330502791193
            ],
            [
              106.07646673647456,
              9.870438875540232
            ],
            [
              106.07688892768776,
              9.870619796893529
            ],
            [
              106.07728566192928,
              9.870789821082417
            ],
            [
              106.07867672634016,
              9.871349726149658
            ],
            [
              106.0795070731922,
              9.871712038695039
            ],
            [
              106.08000678484836,
              9.871902406600293
            ],
            [
              106.08070708069855,
              9.872192969544374
            ],
            [
              106.08151452630956,
              9.872544014484095
            ],
            [
              106.08299414434507,
              9.873107545430617
            ],
            [
              106.08353371021776,
              9.873352901584184
            ],
            [
              106.08450379001766,
              9.873788828114678
            ],
            [
              106.08464133731346,
              9.873834802146504
            ],
            [
              106.08448603228344,
              9.874065257738462
            ],
            [
              106.08419800529006,
              9.874367530161368
            ],
            [
              106.08376217061064,
              9.874787006095152
            ],
            [
              106.08333053595366,
              9.875215242432509
            ]
          ]
        ]
      }
    }
  ]
}
