{
  "type": "FeatureCollection",
  "name": "Ấp Ô Tưng",
  "crs": {
    "type": "name",
    "properties": {
      "name": "urn:ogc:def:crs:OGC:1.3:CRS84"
    }
  },
  "features": [
    {
      "type": "Feature",
      "properties": {
        "Layer": "AP 10",
        "PaperSpace": null,
        "SubClasses": "AcDbEntity:AcDbHatch",
        "Linetype": null,
        "EntityHandle": "2BF9AB",
        "Text": "ANSI31",
        "sap_nhap_tu": [
          "Ấp Ô Tưng A",
          "Ấp Ô Tưng B"
        ],
        "so_ho_sau_sap_nhap": 834,
        "so_dan_sau_sap_nhap": 3567,
        "dien_tich_sau_sap_nhap_ha": 760.73,
        "ma": "3005010",
        "ten": "Ấp Ô Tưng",
        "loai": "Ấp",
        "dien_tich_km2": "7.6073",
        "dien_tich_ha": "760.73",
        "dan_so": "3567",
        "so_ho": "834",
        "mat_do_km2": "468.89"
      },
      "geometry": {
        "type": "Polygon",
        "coordinates": [
          [
            [
              106.0786486904383,
              9.861650807740997
            ],
            [
              106.07852143149955,
              9.861538734627864
            ],
            [
              106.07849482250896,
              9.861502764311625
            ],
            [
              106.07848513430275,
              9.861484837090323
            ],
            [
              106.0784736939465,
              9.861411933404236
            ],
            [
              106.07834426389392,
              9.861224453670317
            ],
            [
              106.07850908140733,
              9.861105003960938
            ],
            [
              106.0783990700305,
              9.860864326870162
            ],
            [
              106.07836304385191,
              9.860804985940208
            ],
            [
              106.07825286769769,
              9.860584069600877
            ],
            [
              106.0783028156792,
              9.860513048506535
            ],
            [
              106.07858139362554,
              9.860274869563671
            ],
            [
              106.07833041534519,
              9.859922771554285
            ],
            [
              106.07851252484294,
              9.859785842114176
            ],
            [
              106.07885260142547,
              9.859522964611044
            ],
            [
              106.07867963558702,
              9.859308887206174
            ],
            [
              106.07856974284064,
              9.859149017227985
            ],
            [
              106.0784620746133,
              9.859036025946697
            ],
            [
              106.07837438732167,
              9.85894404331641
            ],
            [
              106.07823335480683,
              9.858794828928975
            ],
            [
              106.07815790380323,
              9.858713675072687
            ],
            [
              106.07779900118105,
              9.858322792563774
            ],
            [
              106.07808590187568,
              9.858079825098098
            ],
            [
              106.07786713798441,
              9.85786888249753
            ],
            [
              106.07770524055609,
              9.857727208029253
            ],
            [
              106.07743901054468,
              9.857463380403038
            ],
            [
              106.07755317761155,
              9.857368882049615
            ],
            [
              106.07748823090509,
              9.857298559842581
            ],
            [
              106.07739956630836,
              9.857220864169
            ],
            [
              106.07735631154031,
              9.857198696066446
            ],
            [
              106.0772047423826,
              9.857071470068103
            ],
            [
              106.07698066071637,
              9.85687465793653
            ],
            [
              106.07680524494893,
              9.857033003460424
            ],
            [
              106.07664945904958,
              9.857207318831026
            ],
            [
              106.07656094190018,
              9.857319313596621
            ],
            [
              106.07643518730627,
              9.8574615706095
            ],
            [
              106.07632359329142,
              9.857567908589653
            ],
            [
              106.07625480338653,
              9.857646958482809
            ],
            [
              106.07614451519193,
              9.857770292222442
            ],
            [
              106.07602330714654,
              9.857905760199285
            ],
            [
              106.07592485280325,
              9.858018404686328
            ],
            [
              106.07578295433052,
              9.858157434092186
            ],
            [
              106.07565209669465,
              9.858038851901284
            ],
            [
              106.07550141344564,
              9.857896614705412
            ],
            [
              106.0753194835217,
              9.857716637187185
            ],
            [
              106.0753612678389,
              9.857662124919017
            ],
            [
              106.07536129663225,
              9.857662149373034
            ],
            [
              106.0753730074623,
              9.857624229550828
            ],
            [
              106.07810291963854,
              9.854631433003199
            ],
            [
              106.07851378226712,
              9.854987185096814
            ],
            [
              106.08017241364293,
              9.853270733769497
            ],
            [
              106.0812988348418,
              9.854390956120167
            ],
            [
              106.08167270200786,
              9.854006599281325
            ],
            [
              106.08052135818575,
              9.852884688578797
            ],
            [
              106.08073991300601,
              9.852683445606482
            ],
            [
              106.07937422919434,
              9.85170058253422
            ],
            [
              106.07983483546052,
              9.851339761958396
            ],
            [
              106.08048176283677,
              9.85201141720534
            ],
            [
              106.08086201607938,
              9.852365882294635
            ],
            [
              106.08096282273179,
              9.85247819229822
            ],
            [
              106.08448369063096,
              9.849236156658598
            ],
            [
              106.08449586939336,
              9.849250316209298
            ],
            [
              106.0845784563058,
              9.84919049932397
            ],
            [
              106.08473524376028,
              9.849071693753977
            ],
            [
              106.08483041246797,
              9.849012035855202
            ],
            [
              106.08504721563818,
              9.848855875212982
            ],
            [
              106.08524017785369,
              9.849036280513157
            ],
            [
              106.08551706398778,
              9.84934637616354
            ],
            [
              106.08551979576569,
              9.84934447271129
            ],
            [
              106.08561178942938,
              9.849449013787746
            ],
            [
              106.08574793511086,
              9.849619481216529
            ],
            [
              106.08595627477989,
              9.84988548239941
            ],
            [
              106.0860253006984,
              9.849839070122805
            ],
            [
              106.08637526445212,
              9.850279597410951
            ],
            [
              106.08611402237455,
              9.850465763422052
            ],
            [
              106.08591890727314,
              9.850616100569539
            ],
            [
              106.08555639483325,
              9.850917992292581
            ],
            [
              106.0858801276264,
              9.85125119022174
            ],
            [
              106.08622108675988,
              9.851566741927584
            ],
            [
              106.08656193944856,
              9.85185466416657
            ],
            [
              106.0868521546127,
              9.852121245699493
            ],
            [
              106.08660660663001,
              9.852418324053662
            ],
            [
              106.08700268036291,
              9.852740597912385
            ],
            [
              106.0873250894329,
              9.852393838157749
            ],
            [
              106.08736480572331,
              9.852374239421321
            ],
            [
              106.0875650498113,
              9.852546041077046
            ],
            [
              106.08778820702479,
              9.85273407740009
            ],
            [
              106.08830669295872,
              9.85319184932309
            ],
            [
              106.08831843165056,
              9.853184803621396
            ],
            [
              106.08847121575783,
              9.853321940921957
            ],
            [
              106.08815038821723,
              9.853597617355929
            ],
            [
              106.08895363451059,
              9.854157202775047
            ],
            [
              106.08895362677835,
              9.854152844786357
            ],
            [
              106.08947421811483,
              9.854512583113026
            ],
            [
              106.08968922970006,
              9.854648309125626
            ],
            [
              106.09064802491164,
              9.855310522203402
            ],
            [
              106.09131294875348,
              9.855771920501722
            ],
            [
              106.09164737949018,
              9.856032633409852
            ],
            [
              106.09175336408667,
              9.856110746879308
            ],
            [
              106.09191222011043,
              9.856227826812216
            ],
            [
              106.09233323049061,
              9.856519670652641
            ],
            [
              106.09277289866081,
              9.856843849671039
            ],
            [
              106.09320453411813,
              9.857162255631861
            ],
            [
              106.09360540871359,
              9.85746037176193
            ],
            [
              106.09399661223173,
              9.85775434531213
            ],
            [
              106.09431615907563,
              9.858000163065078
            ],
            [
              106.09443109738092,
              9.858084471341243
            ],
            [
              106.09487834399548,
              9.858412548961635
            ],
            [
              106.09508218927641,
              9.858554683255262
            ],
            [
              106.09540178487187,
              9.8587759973752
            ],
            [
              106.0957666783519,
              9.859039274065712
            ],
            [
              106.09591438665896,
              9.85914470810897
            ],
            [
              106.0964913021284,
              9.859532924292198
            ],
            [
              106.09685521437125,
              9.8597454968125
            ],
            [
              106.09687246617406,
              9.859791097195203
            ],
            [
              106.0971975961247,
              9.859972627645332
            ],
            [
              106.09757684784955,
              9.86015757758034
            ],
            [
              106.09769256546548,
              9.860218131300728
            ],
            [
              106.0978026140625,
              9.860269653547425
            ],
            [
              106.09789751906511,
              9.860316320200058
            ],
            [
              106.09828498988978,
              9.860508307073918
            ],
            [
              106.0983567271138,
              9.860549589793726
            ],
            [
              106.09863485382965,
              9.8606761290619
            ],
            [
              106.09892504474294,
              9.860818740493745
            ],
            [
              106.09913171223957,
              9.86090634702786
            ],
            [
              106.09954633950045,
              9.86109014680011
            ],
            [
              106.09997731655196,
              9.86128682866213
            ],
            [
              106.10016723434816,
              9.86097087060565
            ],
            [
              106.10056560762915,
              9.861158495349198
            ],
            [
              106.10066029241187,
              9.861183914115655
            ],
            [
              106.10067049260947,
              9.861228018338977
            ],
            [
              106.10093003413436,
              9.861369778397178
            ],
            [
              106.10093744314538,
              9.86137491883619
            ],
            [
              106.10094570966538,
              9.861358177383833
            ],
            [
              106.10095597971677,
              9.861340166555456
            ],
            [
              106.10107190539348,
              9.861414371305518
            ],
            [
              106.10114872045712,
              9.861490273187037
            ],
            [
              106.10192183966326,
              9.86247405299691
            ],
            [
              106.10263969737132,
              9.863500153133446
            ],
            [
              106.10267704901196,
              9.863533811058769
            ],
            [
              106.10275414918065,
              9.86366576911045
            ],
            [
              106.10293685085169,
              9.863909562128008
            ],
            [
              106.10305306265087,
              9.864040093941105
            ],
            [
              106.10342665475788,
              9.864517719206406
            ],
            [
              106.10386208254957,
              9.865105267882585
            ],
            [
              106.10404153073722,
              9.86536398443335
            ],
            [
              106.10429823187751,
              9.865737660259688
            ],
            [
              106.10443696068246,
              9.865923010858596
            ],
            [
              106.10496765252684,
              9.867321732251693
            ],
            [
              106.10516427469983,
              9.868966894200426
            ],
            [
              106.10506443230284,
              9.870017533674195
            ],
            [
              106.10563159688283,
              9.87013234418582
            ],
            [
              106.10424918909607,
              9.873556100341178
            ],
            [
              106.10392383370909,
              9.874361885189506
            ],
            [
              106.10270715985465,
              9.874452792486286
            ],
            [
              106.10133563805579,
              9.877106167323072
            ],
            [
              106.1007540765998,
              9.880468036492207
            ],
            [
              106.10039607814389,
              9.880311082669987
            ],
            [
              106.09953560317673,
              9.879967558826053
            ],
            [
              106.09850109873258,
              9.879554553972042
            ],
            [
              106.09733394887827,
              9.879051317930797
            ],
            [
              106.0964568083843,
              9.881053769450423
            ],
            [
              106.09791012992359,
              9.881437435429499
            ],
            [
              106.08808411532213,
              9.887143132783255
            ],
            [
              106.08809504011673,
              9.887046975139674
            ],
            [
              106.08811475995084,
              9.886753092605174
            ],
            [
              106.08812245551061,
              9.886568361737055
            ],
            [
              106.08813974842394,
              9.886345459049469
            ],
            [
              106.08818631221493,
              9.885867083403696
            ],
            [
              106.08823839915648,
              9.88521302214274
            ],
            [
              106.08824590784177,
              9.884974494783446
            ],
            [
              106.08827516848876,
              9.884713325698037
            ],
            [
              106.08830818071883,
              9.884408298872817
            ],
            [
              106.08834871921968,
              9.883874690268303
            ],
            [
              106.08840067635437,
              9.883208875244211
            ],
            [
              106.0884124609963,
              9.883057861918624
            ],
            [
              106.088483828468,
              9.882119773945805
            ],
            [
              106.08853014700894,
              9.881503877697268
            ],
            [
              106.08854564795332,
              9.88135023583206
            ],
            [
              106.08854841924007,
              9.880755030270807
            ],
            [
              106.08850411445547,
              9.880298241653483
            ],
            [
              106.08847980759087,
              9.879909319588423
            ],
            [
              106.08847755832383,
              9.87977243548115
            ],
            [
              106.08838402971669,
              9.879425406019724
            ],
            [
              106.08825692018155,
              9.878960443833146
            ],
            [
              106.0882345501542,
              9.878788965982288
            ],
            [
              106.08820671461878,
              9.878671746573138
            ],
            [
              106.08816904560382,
              9.878562320011882
            ],
            [
              106.08801018957732,
              9.878139184776348
            ],
            [
              106.08782498029177,
              9.877817088813126
            ],
            [
              106.08768878913892,
              9.877525829059842
            ],
            [
              106.08763225900348,
              9.87742348768646
            ],
            [
              106.08757424095545,
              9.877356139443188
            ],
            [
              106.08752176059714,
              9.877275128885172
            ],
            [
              106.08751347734737,
              9.877128852109411
            ],
            [
              106.08749441236877,
              9.877021201281515
            ],
            [
              106.08742317756334,
              9.876956136432122
            ],
            [
              106.087401325463,
              9.876922088147301
            ],
            [
              106.08732859570149,
              9.876785236488383
            ],
            [
              106.087219500674,
              9.876553964691345
            ],
            [
              106.08710764953389,
              9.876465191471123
            ],
            [
              106.08704228077129,
              9.876365849069945
            ],
            [
              106.08699661439763,
              9.876270902643682
            ],
            [
              106.08695809792928,
              9.8761459260143
            ],
            [
              106.08673201291853,
              9.875858348587748
            ],
            [
              106.08632062811569,
              9.875401656111627
            ],
            [
              106.08596041619005,
              9.875008254877429
            ],
            [
              106.0858080186839,
              9.87483166842844
            ],
            [
              106.08567307211166,
              9.87467530449446
            ],
            [
              106.08542063478912,
              9.87443704797798
            ],
            [
              106.08534912302405,
              9.874369496696346
            ],
            [
              106.0852464676125,
              9.874272524251326
            ],
            [
              106.0851842280053,
              9.874173085570066
            ],
            [
              106.08516591245541,
              9.87414382295783
            ],
            [
              106.08514276846533,
              9.87404919875703
            ],
            [
              106.08508820127616,
              9.874024971925627
            ],
            [
              106.08500662411934,
              9.87398867639335
            ],
            [
              106.08483261142028,
              9.87391140254177
            ],
            [
              106.08471800201107,
              9.873860426649195
            ],
            [
              106.08450379001766,
              9.873788828114678
            ],
            [
              106.08353371021776,
              9.873352901584184
            ],
            [
              106.08299414434507,
              9.873107545430617
            ],
            [
              106.08151452630956,
              9.872544014484095
            ],
            [
              106.08070708069855,
              9.872192969544374
            ],
            [
              106.08000678484836,
              9.871902406600293
            ],
            [
              106.0795070731922,
              9.871712038695039
            ],
            [
              106.07867672634016,
              9.871349726149658
            ],
            [
              106.07728566192928,
              9.870789821082417
            ],
            [
              106.07688892768776,
              9.870619796893529
            ],
            [
              106.07646673647456,
              9.870438875540232
            ],
            [
              106.07622429057227,
              9.870330502791193
            ],
            [
              106.07593476091618,
              9.87020108936736
            ],
            [
              106.0753588695338,
              9.869981008226775
            ],
            [
              106.07438306506731,
              9.869596238680717
            ],
            [
              106.07352380945495,
              9.869224649301751
            ],
            [
              106.07318702146168,
              9.869077483953873
            ],
            [
              106.07277765074721,
              9.868926644173703
            ],
            [
              106.07250209503518,
              9.868809663105774
            ],
            [
              106.07214619301081,
              9.868628352214026
            ],
            [
              106.07172707129585,
              9.868479788027752
            ],
            [
              106.07097326327064,
              9.868185498707136
            ],
            [
              106.07036627537069,
              9.867905606475462
            ],
            [
              106.06954785984995,
              9.867578150349873
            ],
            [
              106.06904036641063,
              9.867468610505663
            ],
            [
              106.06856823671978,
              9.867404669902394
            ],
            [
              106.06841517177811,
              9.867363246637971
            ],
            [
              106.06811298860121,
              9.867295582995258
            ],
            [
              106.0678926299437,
              9.867250837114065
            ],
            [
              106.06753320712485,
              9.867353973266768
            ],
            [
              106.06725788871593,
              9.867427220923787
            ],
            [
              106.06710564057683,
              9.867467720903154
            ],
            [
              106.06686865149229,
              9.867530768219684
            ],
            [
              106.0667357089706,
              9.867579815973496
            ],
            [
              106.06606126419581,
              9.867785920538354
            ],
            [
              106.06565751179838,
              9.867879364346448
            ],
            [
              106.06526879164842,
              9.868050790772001
            ],
            [
              106.06507708545125,
              9.868153057351437
            ],
            [
              106.06500787530753,
              9.86830935664978
            ],
            [
              106.0646728308959,
              9.868151293610875
            ],
            [
              106.06465376620463,
              9.86798985296982
            ],
            [
              106.06457506617075,
              9.867831360293051
            ],
            [
              106.06462599828849,
              9.867741971846439
            ],
            [
              106.06463775081427,
              9.867747250492915
            ],
            [
              106.06465615814724,
              9.867734769479362
            ],
            [
              106.06465048514484,
              9.867723047918524
            ],
            [
              106.06470970718985,
              9.867650846761482
            ],
            [
              106.0648854437781,
              9.86757880781583
            ],
            [
              106.06494778497274,
              9.867553251447982
            ],
            [
              106.06495379874823,
              9.867550980988021
            ],
            [
              106.06490793427348,
              9.867442378733996
            ],
            [
              106.06494549053048,
              9.867442785951976
            ],
            [
              106.06508160303876,
              9.867444275696847
            ],
            [
              106.06543138779152,
              9.867448101418276
            ],
            [
              106.06554598524147,
              9.867494925094691
            ],
            [
              106.06557536463505,
              9.867506991443475
            ],
            [
              106.06578244525791,
              9.867464691269186
            ],
            [
              106.0660232114305,
              9.867393311122257
            ],
            [
              106.06639277270055,
              9.867300286022157
            ],
            [
              106.06648451053869,
              9.867255376337154
            ],
            [
              106.06655952480848,
              9.867188071762014
            ],
            [
              106.06664988182392,
              9.867188824039742
            ],
            [
              106.0666881103013,
              9.86719920787258
            ],
            [
              106.06673373473255,
              9.86717168501541
            ],
            [
              106.06676725304558,
              9.867151466069611
            ],
            [
              106.06680862297063,
              9.867084037176856
            ],
            [
              106.06686760016306,
              9.866969291515062
            ],
            [
              106.06692757654089,
              9.866852374198887
            ],
            [
              106.06694073118346,
              9.866813835194892
            ],
            [
              106.06696686908718,
              9.866743176954012
            ],
            [
              106.06701208284866,
              9.866684240605109
            ],
            [
              106.06704906438799,
              9.866663202072402
            ],
            [
              106.06707122461752,
              9.866665786838048
            ],
            [
              106.06710288387649,
              9.866678138547798
            ],
            [
              106.06714275447607,
              9.866693695224004
            ],
            [
              106.06722983066305,
              9.866748701999217
            ],
            [
              106.0673235359139,
              9.866841310320954
            ],
            [
              106.06753157768978,
              9.867090191731638
            ],
            [
              106.06757398727026,
              9.867101917436777
            ],
            [
              106.06781928178988,
              9.867013168697882
            ],
            [
              106.06790446504311,
              9.86697432749922
            ],
            [
              106.06796089516165,
              9.866916457117897
            ],
            [
              106.06803226618565,
              9.866851599582558
            ],
            [
              106.06803932012122,
              9.866817862827777
            ],
            [
              106.06803485831294,
              9.866768051571835
            ],
            [
              106.06799663409001,
              9.866649129575459
            ],
            [
              106.06798330406681,
              9.86658522848825
            ],
            [
              106.06798591966385,
              9.866568587684654
            ],
            [
              106.06801516551295,
              9.866502716143913
            ],
            [
              106.06805038456659,
              9.866464139926553
            ],
            [
              106.06814120583282,
              9.866416699732074
            ],
            [
              106.0682576554837,
              9.86642708204228
            ],
            [
              106.0683372908785,
              9.866449642013125
            ],
            [
              106.0683700158394,
              9.866498591877905
            ],
            [
              106.0684506658196,
              9.866527931249465
            ],
            [
              106.06856777080156,
              9.866548258015875
            ],
            [
              106.06866833310745,
              9.866545375942335
            ],
            [
              106.06876892507825,
              9.866538746721194
            ],
            [
              106.0687867515655,
              9.866480981384452
            ],
            [
              106.0687962334637,
              9.866374456294302
            ],
            [
              106.06880989800314,
              9.866314397553825
            ],
            [
              106.06882361636889,
              9.86628571279267
            ],
            [
              106.06889388697773,
              9.866270494884098
            ],
            [
              106.06894759664112,
              9.866274563345174
            ],
            [
              106.06898483607856,
              9.866297646784641
            ],
            [
              106.06904701143758,
              9.866399982248097
            ],
            [
              106.06910786682616,
              9.866423839546039
            ],
            [
              106.06948400881518,
              9.866235231203751
            ],
            [
              106.07007073042651,
              9.865919413968822
            ],
            [
              106.07018219874986,
              9.865896260015251
            ],
            [
              106.07029662169138,
              9.865894619838011
            ],
            [
              106.07037770887803,
              9.865913108188568
            ],
            [
              106.07044142587385,
              9.865904410944674
            ],
            [
              106.07080139307573,
              9.865748287610407
            ],
            [
              106.07097651390949,
              9.865679094726598
            ],
            [
              106.07100105470127,
              9.865634568906003
            ],
            [
              106.07102557804595,
              9.865579916615506
            ],
            [
              106.0710603304836,
              9.865535373495796
            ],
            [
              106.07117749327308,
              9.865483547973108
            ],
            [
              106.07124988164493,
              9.865480532046401
            ],
            [
              106.07127889025728,
              9.86548907233504
            ],
            [
              106.07134121267846,
              9.865517718748913
            ],
            [
              106.07154662973696,
              9.865728128305603
            ],
            [
              106.0716307777958,
              9.865776809824508
            ],
            [
              106.07169456643634,
              9.865809703193982
            ],
            [
              106.07179869842972,
              9.865762149064219
            ],
            [
              106.07182456677627,
              9.86564158179894
            ],
            [
              106.07186217767502,
              9.865615659274523
            ],
            [
              106.07191285396217,
              9.86560553723419
            ],
            [
              106.07194900120592,
              9.865576814313908
            ],
            [
              106.07202996912257,
              9.865473332437903
            ],
            [
              106.07214924691185,
              9.865379188710943
            ],
            [
              106.07218101711668,
              9.865297309090783
            ],
            [
              106.07251519291601,
              9.865095839369307
            ],
            [
              106.07256812993491,
              9.865074972077148
            ],
            [
              106.07273559670482,
              9.865008937762093
            ],
            [
              106.07283513343522,
              9.86494050524112
            ],
            [
              106.0730455539156,
              9.86482758084295
            ],
            [
              106.07325374660581,
              9.864744587516558
            ],
            [
              106.0735184265575,
              9.86458491637819
            ],
            [
              106.07354295738565,
              9.864587587106504
            ],
            [
              106.0736136585415,
              9.864610793940598
            ],
            [
              106.0737453832531,
              9.864544295539446
            ],
            [
              106.0738197790533,
              9.864489648621758
            ],
            [
              106.0738423866995,
              9.864434728167508
            ],
            [
              106.07387960881037,
              9.864395062995223
            ],
            [
              106.07406285832755,
              9.864279275286677
            ],
            [
              106.07409507322903,
              9.864131329928853
            ],
            [
              106.07422944869624,
              9.864079009054509
            ],
            [
              106.07434702451606,
              9.864213617751458
            ],
            [
              106.07441735633711,
              9.864392067802068
            ],
            [
              106.07445213164154,
              9.86451895138027
            ],
            [
              106.07449891015189,
              9.864574748222376
            ],
            [
              106.07461773344131,
              9.864549880505383
            ],
            [
              106.07479926638781,
              9.864515456427883
            ],
            [
              106.07482580033803,
              9.864537211325247
            ],
            [
              106.07493990912982,
              9.864459892689718
            ],
            [
              106.07499076953802,
              9.864389659867697
            ],
            [
              106.074983640772,
              9.864335949423356
            ],
            [
              106.07496278088153,
              9.86429448445871
            ],
            [
              106.07502860862053,
              9.864136236183956
            ],
            [
              106.07505879180148,
              9.864033473148705
            ],
            [
              106.075096389707,
              9.864000317098515
            ],
            [
              106.07514390037207,
              9.864005118482059
            ],
            [
              106.07527393233765,
              9.86396176866555
            ],
            [
              106.07540487975943,
              9.863973118375919
            ],
            [
              106.07551240524705,
              9.863990294576896
            ],
            [
              106.07588860443242,
              9.864310987547162
            ],
            [
              106.07590745161399,
              9.864295946452184
            ],
            [
              106.07581206288998,
              9.86417983554438
            ],
            [
              106.07595217105919,
              9.864058530450047
            ],
            [
              106.07619517481604,
              9.863808569651363
            ],
            [
              106.07621292549922,
              9.863792174188433
            ],
            [
              106.07621291173672,
              9.86378425385046
            ],
            [
              106.0762591386602,
              9.863740802736858
            ],
            [
              106.0764006590606,
              9.863614101317621
            ],
            [
              106.07638778804407,
              9.863569712484331
            ],
            [
              106.07647549717365,
              9.863516158304929
            ],
            [
              106.0765962015058,
              9.863419307253116
            ],
            [
              106.07672893496994,
              9.863293891546123
            ],
            [
              106.07682688395357,
              9.863207685023639
            ],
            [
              106.07687764772743,
              9.86314439804454
            ],
            [
              106.07695960022268,
              9.863072486349422
            ],
            [
              106.07729629405463,
              9.862804814957
            ],
            [
              106.07739022712734,
              9.862724736260125
            ],
            [
              106.07740087130985,
              9.862705332937505
            ],
            [
              106.07752299297692,
              9.862623488162132
            ],
            [
              106.0775804016557,
              9.862605397247073
            ],
            [
              106.07765091222812,
              9.862571642073254
            ],
            [
              106.07768869110473,
              9.862537942954214
            ],
            [
              106.07772510566224,
              9.862506144884991
            ],
            [
              106.07795269434922,
              9.862253858547415
            ],
            [
              106.0781465463356,
              9.86205289525063
            ],
            [
              106.0786486904383,
              9.861650807740997
            ]
          ]
        ]
      }
    }
  ]
}
