{
"type": "FeatureCollection",
"name": "ranh_gioi_ap_cu",
"crs": { "type": "name", "properties": { "name": "urn:ogc:def:crs:OGC:1.3:CRS84" } },
"features": [
{ "type": "Feature", "properties": { "Layer": "AP 10", "PaperSpace": null, "SubClasses": "AcDbEntity:AcDbPolyline", "Linetype": null, "EntityHandle": "2BBDE0", "Text": null, "path": "LineString?crs=&field=Layer:string(0,0)&field=PaperSpace:boolean(0,0)&field=SubClasses:string(0,0)&field=Linetype:string(0,0)&field=EntityHandle:string(0,0)&field=Text:string(0,0)&uid={0218270d-b8d1-4304-b334-387530555d43}" }, "geometry": { "type": "LineString", "coordinates": [ [ 106.0786486904383, 9.861650807740997 ], [ 106.078521431499553, 9.861538734627864 ], [ 106.078494822508958, 9.861502764311625 ], [ 106.078485134302753, 9.861484837090323 ], [ 106.078473693946506, 9.861411933404236 ], [ 106.078344263893925, 9.861224453670317 ], [ 106.078509081407333, 9.861105003960938 ], [ 106.0783990700305, 9.860864326870162 ], [ 106.078363043851908, 9.860804985940208 ], [ 106.078252867697685, 9.860584069600877 ], [ 106.078302815679194, 9.860513048506535 ], [ 106.078581393625541, 9.860274869563671 ], [ 106.078330415345192, 9.859922771554285 ], [ 106.078512524842935, 9.859785842114176 ], [ 106.078852601425467, 9.859522964611044 ], [ 106.078679635587022, 9.859308887206174 ], [ 106.078569742840642, 9.859149017227985 ], [ 106.078462074613299, 9.859036025946697 ], [ 106.078374387321674, 9.858944043316409 ], [ 106.078233354806827, 9.858794828928975 ], [ 106.078157903803231, 9.858713675072687 ], [ 106.077799001181049, 9.858322792563774 ], [ 106.078085901875681, 9.858079825098098 ], [ 106.077867137984413, 9.857868882497529 ], [ 106.077705240556085, 9.857727208029253 ], [ 106.07743901054468, 9.857463380403038 ], [ 106.077553177611549, 9.857368882049615 ], [ 106.077488230905089, 9.857298559842581 ], [ 106.077399566308358, 9.857220864168999 ], [ 106.077356311540314, 9.857198696066446 ], [ 106.077204742382605, 9.857071470068103 ], [ 106.076980660716373, 9.85687465793653 ], [ 106.076805244948929, 9.857033003460424 ], [ 106.076649459049577, 9.857207318831026 ], [ 106.076560941900183, 9.857319313596621 ], [ 106.076435187306274, 9.8574615706095 ], [ 106.07632359329142, 9.857567908589653 ], [ 106.076254803386533, 9.857646958482809 ], [ 106.076144515191928, 9.857770292222442 ], [ 106.076023307146542, 9.857905760199285 ], [ 106.075924852803254, 9.858018404686328 ], [ 106.075782954330521, 9.858157434092186 ], [ 106.075652096694654, 9.858038851901284 ], [ 106.075501413445636, 9.857896614705412 ], [ 106.075319483521696, 9.857716637187185 ], [ 106.0753612678389, 9.857662124919017 ], [ 106.075361296632252, 9.857662149373034 ], [ 106.075373007462304, 9.857624229550828 ], [ 106.078102919638539, 9.854631433003199 ], [ 106.078513782267123, 9.854987185096814 ], [ 106.080172413642927, 9.853270733769497 ], [ 106.081298834841803, 9.854390956120167 ], [ 106.081672702007864, 9.854006599281325 ], [ 106.080521358185749, 9.852884688578797 ], [ 106.080739913006013, 9.852683445606482 ], [ 106.079374229194343, 9.851700582534219 ], [ 106.079834835460517, 9.851339761958396 ], [ 106.080481762836769, 9.85201141720534 ], [ 106.080862016079379, 9.852365882294635 ], [ 106.080962822731792, 9.85247819229822 ], [ 106.084483690630961, 9.849236156658598 ], [ 106.084495869393365, 9.849250316209298 ], [ 106.084578456305806, 9.849190499323971 ], [ 106.084735243760278, 9.849071693753977 ], [ 106.084830412467966, 9.849012035855202 ], [ 106.085047215638184, 9.848855875212982 ], [ 106.085240177853692, 9.849036280513157 ], [ 106.08551706398778, 9.84934637616354 ], [ 106.085519795765691, 9.849344472711291 ], [ 106.085611789429379, 9.849449013787746 ], [ 106.085747935110859, 9.849619481216529 ], [ 106.085956274779889, 9.84988548239941 ], [ 106.086025300698395, 9.849839070122805 ], [ 106.086375264452116, 9.850279597410951 ], [ 106.086114022374545, 9.850465763422052 ], [ 106.08591890727314, 9.850616100569539 ], [ 106.085556394833247, 9.850917992292581 ], [ 106.085880127626396, 9.85125119022174 ], [ 106.086221086759878, 9.851566741927584 ], [ 106.086561939448558, 9.85185466416657 ], [ 106.0868521546127, 9.852121245699493 ], [ 106.086606606630014, 9.852418324053662 ], [ 106.087002680362914, 9.852740597912385 ], [ 106.087325089432895, 9.852393838157749 ], [ 106.087364805723311, 9.852374239421321 ], [ 106.087565049811303, 9.852546041077046 ], [ 106.087788207024786, 9.85273407740009 ], [ 106.088306692958724, 9.853191849323091 ], [ 106.088318431650563, 9.853184803621396 ], [ 106.088471215757835, 9.853321940921957 ], [ 106.08815038821723, 9.853597617355929 ], [ 106.088953634510588, 9.854157202775047 ], [ 106.088953626778348, 9.854152844786357 ], [ 106.08947421811483, 9.854512583113026 ], [ 106.089689229700056, 9.854648309125626 ], [ 106.090648024911644, 9.855310522203402 ], [ 106.091312948753483, 9.855771920501722 ], [ 106.091647379490183, 9.856032633409852 ], [ 106.091753364086671, 9.856110746879308 ], [ 106.09191222011043, 9.856227826812216 ], [ 106.09233323049061, 9.856519670652641 ], [ 106.092772898660812, 9.856843849671039 ], [ 106.093204534118129, 9.857162255631861 ], [ 106.093605408713586, 9.857460371761929 ], [ 106.093996612231734, 9.857754345312131 ], [ 106.094316159075632, 9.858000163065078 ], [ 106.094431097380919, 9.858084471341243 ], [ 106.094878343995475, 9.858412548961635 ], [ 106.095082189276411, 9.858554683255262 ], [ 106.095401784871868, 9.858775997375201 ], [ 106.095766678351893, 9.859039274065712 ], [ 106.095914386658961, 9.859144708108969 ], [ 106.096491302128399, 9.859532924292198 ], [ 106.096855214371246, 9.859745496812501 ], [ 106.096872466174062, 9.859791097195203 ], [ 106.097197596124701, 9.859972627645332 ], [ 106.097576847849552, 9.86015757758034 ], [ 106.097692565465479, 9.860218131300728 ], [ 106.097802614062502, 9.860269653547425 ], [ 106.097897519065114, 9.860316320200058 ], [ 106.098284989889777, 9.860508307073918 ], [ 106.098356727113796, 9.860549589793726 ], [ 106.098634853829651, 9.8606761290619 ], [ 106.098925044742941, 9.860818740493745 ], [ 106.099131712239569, 9.860906347027861 ], [ 106.099546339500449, 9.861090146800111 ], [ 106.099977316551957, 9.861286828662131 ], [ 106.100167234348163, 9.86097087060565 ], [ 106.10056560762915, 9.861158495349198 ], [ 106.100660292411874, 9.861183914115655 ], [ 106.100670492609467, 9.861228018338977 ], [ 106.100930034134365, 9.861369778397178 ], [ 106.100937443145384, 9.861374918836191 ], [ 106.100945709665382, 9.861358177383833 ], [ 106.100955979716773, 9.861340166555456 ], [ 106.101071905393482, 9.861414371305518 ], [ 106.101148720457118, 9.861490273187037 ], [ 106.101921839663262, 9.862474052996911 ], [ 106.102639697371316, 9.863500153133446 ], [ 106.102677049011959, 9.863533811058769 ], [ 106.102754149180655, 9.863665769110449 ], [ 106.102936850851691, 9.863909562128008 ], [ 106.103053062650872, 9.864040093941105 ], [ 106.103426654757882, 9.864517719206406 ], [ 106.103862082549568, 9.865105267882585 ], [ 106.10404153073722, 9.865363984433349 ], [ 106.104298231877507, 9.865737660259688 ], [ 106.104436960682463, 9.865923010858596 ], [ 106.104967652526838, 9.867321732251693 ], [ 106.105164274699831, 9.868966894200426 ], [ 106.105064432302839, 9.870017533674195 ], [ 106.10563159688283, 9.870132344185819 ], [ 106.104249189096066, 9.873556100341178 ] ] } },
{ "type": "Feature", "properties": { "Layer": "A-RANH AP C", "PaperSpace": null, "SubClasses": "AcDbEntity:AcDbPolyline", "Linetype": "ACAD_ISO08W100", "EntityHandle": "2BFF1B", "Text": null, "path": "LineString?crs=&field=Layer:string(0,0)&field=PaperSpace:boolean(0,0)&field=SubClasses:string(0,0)&field=Linetype:string(0,0)&field=EntityHandle:string(0,0)&field=Text:string(0,0)&uid={b306a17a-6d58-463c-88d5-a4a4c98515c8}" }, "geometry": { "type": "LineString", "coordinates": [ [ 106.104249189096066, 9.873556100341178 ], [ 106.103315206823126, 9.873125425444295 ], [ 106.102261678221581, 9.872639003460408 ], [ 106.101342520207567, 9.872217974565746 ], [ 106.100251286563079, 9.871709232231915 ], [ 106.09846202210322, 9.870881048791036 ], [ 106.09457892804275, 9.869064313226225 ], [ 106.091483561830046, 9.867633193103243 ], [ 106.089793720859475, 9.866832312303444 ], [ 106.088358233426561, 9.866174378909632 ], [ 106.084837669993306, 9.864545637276981 ], [ 106.083258756541639, 9.863778168562106 ], [ 106.082795683892314, 9.863554362501887 ], [ 106.081925876064275, 9.863154913301479 ], [ 106.081063107817968, 9.862755449855012 ], [ 106.080431869028402, 9.862469331655181 ], [ 106.079790716015808, 9.862034617865769 ], [ 106.079362858377465, 9.861751758233964 ], [ 106.078915123244911, 9.861428211193116 ], [ 106.078671253247833, 9.861632740728789 ] ] } },
{ "type": "Feature", "properties": { "Layer": "A-RANH AP C", "PaperSpace": null, "SubClasses": "AcDbEntity:AcDbPolyline", "Linetype": "ACAD_ISO08W100", "EntityHandle": "2BFF1B", "Text": null, "path": "LineString?crs=&field=Layer:string(0,0)&field=PaperSpace:boolean(0,0)&field=SubClasses:string(0,0)&field=Linetype:string(0,0)&field=EntityHandle:string(0,0)&field=Text:string(0,0)&uid={b306a17a-6d58-463c-88d5-a4a4c98515c8}" }, "geometry": { "type": "LineString", "coordinates": [ [ 106.104249189096066, 9.873556100341178 ], [ 106.103315206823126, 9.873125425444295 ], [ 106.102261678221581, 9.872639003460408 ], [ 106.101342520207567, 9.872217974565746 ], [ 106.100251286563079, 9.871709232231915 ], [ 106.09846202210322, 9.870881048791036 ], [ 106.09457892804275, 9.869064313226225 ], [ 106.091483561830046, 9.867633193103243 ], [ 106.089793720859475, 9.866832312303444 ], [ 106.088358233426561, 9.866174378909632 ], [ 106.084837669993306, 9.864545637276981 ], [ 106.083258756541639, 9.863778168562106 ], [ 106.082795683892314, 9.863554362501887 ], [ 106.081925876064275, 9.863154913301479 ], [ 106.081063107817968, 9.862755449855012 ], [ 106.080431869028402, 9.862469331655181 ], [ 106.079790716015808, 9.862034617865769 ], [ 106.079362858377465, 9.861751758233964 ], [ 106.078915123244911, 9.861428211193116 ], [ 106.078671253247833, 9.861632740728789 ] ] } },
{ "type": "Feature", "properties": { "Layer": "AP 10", "PaperSpace": null, "SubClasses": "AcDbEntity:AcDbPolyline", "Linetype": null, "EntityHandle": "2BBDE0", "Text": null, "path": "LineString?crs=&field=Layer:string(0,0)&field=PaperSpace:boolean(0,0)&field=SubClasses:string(0,0)&field=Linetype:string(0,0)&field=EntityHandle:string(0,0)&field=Text:string(0,0)&uid={0218270d-b8d1-4304-b334-387530555d43}" }, "geometry": { "type": "LineString", "coordinates": [ [ 106.104249189096066, 9.873556100341178 ], [ 106.103923833709089, 9.874361885189506 ] ] } },
{ "type": "Feature", "properties": { "Layer": "AP 10", "PaperSpace": null, "SubClasses": "AcDbEntity:AcDbPolyline", "Linetype": null, "EntityHandle": "2BBDE0", "Text": null, "path": "LineString?crs=&field=Layer:string(0,0)&field=PaperSpace:boolean(0,0)&field=SubClasses:string(0,0)&field=Linetype:string(0,0)&field=EntityHandle:string(0,0)&field=Text:string(0,0)&uid={0218270d-b8d1-4304-b334-387530555d43}" }, "geometry": { "type": "LineString", "coordinates": [ [ 106.103923833709089, 9.874361885189506 ], [ 106.102707159854646, 9.874452792486286 ], [ 106.101335638055787, 9.877106167323072 ], [ 106.100754076599799, 9.880468036492207 ], [ 106.100396078143888, 9.880311082669987 ], [ 106.099535603176733, 9.879967558826053 ], [ 106.098501098732584, 9.879554553972042 ], [ 106.097333948878273, 9.879051317930797 ], [ 106.096456808384303, 9.881053769450423 ], [ 106.097910129923591, 9.881437435429499 ], [ 106.088084115322133, 9.887143132783255 ], [ 106.088095040116727, 9.887046975139674 ], [ 106.088114759950841, 9.886753092605174 ], [ 106.088122455510614, 9.886568361737055 ], [ 106.088139748423941, 9.886345459049469 ], [ 106.08818631221493, 9.885867083403696 ], [ 106.088238399156481, 9.885213022142739 ], [ 106.088245907841767, 9.884974494783446 ], [ 106.088275168488764, 9.884713325698037 ], [ 106.088308180718826, 9.884408298872817 ], [ 106.088348719219681, 9.883874690268303 ], [ 106.088400676354368, 9.883208875244211 ], [ 106.088412460996295, 9.883057861918624 ], [ 106.088483828468, 9.882119773945805 ], [ 106.088530147008939, 9.881503877697268 ], [ 106.088545647953325, 9.881350235832061 ], [ 106.08854841924007, 9.880755030270807 ], [ 106.088504114455475, 9.880298241653483 ], [ 106.088479807590872, 9.879909319588423 ], [ 106.088477558323831, 9.879772435481151 ], [ 106.088384029716693, 9.879425406019724 ], [ 106.08825692018155, 9.878960443833146 ], [ 106.088234550154198, 9.878788965982288 ], [ 106.088206714618778, 9.878671746573138 ], [ 106.08816904560382, 9.878562320011882 ], [ 106.088010189577318, 9.878139184776348 ], [ 106.087824980291771, 9.877817088813126 ], [ 106.087688789138923, 9.877525829059842 ], [ 106.087632259003485, 9.87742348768646 ], [ 106.087574240955448, 9.877356139443188 ], [ 106.087521760597141, 9.877275128885172 ], [ 106.087513477347372, 9.877128852109411 ], [ 106.08749441236877, 9.877021201281515 ], [ 106.087423177563338, 9.876956136432122 ], [ 106.087401325463006, 9.876922088147301 ], [ 106.087328595701493, 9.876785236488383 ], [ 106.087219500673996, 9.876553964691345 ], [ 106.087107649533891, 9.876465191471123 ], [ 106.087042280771286, 9.876365849069945 ], [ 106.086996614397634, 9.876270902643682 ], [ 106.086958097929283, 9.876145926014299 ], [ 106.086732012918532, 9.875858348587748 ], [ 106.086320628115686, 9.875401656111627 ], [ 106.085960416190048, 9.875008254877429 ], [ 106.085808018683906, 9.87483166842844 ], [ 106.085673072111661, 9.87467530449446 ], [ 106.085420634789116, 9.874437047977979 ], [ 106.085349123024045, 9.874369496696346 ], [ 106.085246467612507, 9.874272524251326 ], [ 106.085184228005303, 9.874173085570066 ], [ 106.085165912455409, 9.87414382295783 ], [ 106.085142768465332, 9.87404919875703 ], [ 106.085088201276164, 9.874024971925627 ], [ 106.085006624119345, 9.873988676393351 ], [ 106.084832611420282, 9.87391140254177 ], [ 106.084718002011073, 9.873860426649195 ], [ 106.084503790017664, 9.873788828114678 ], [ 106.083533710217765, 9.873352901584184 ], [ 106.082994144345065, 9.873107545430617 ], [ 106.081514526309562, 9.872544014484095 ], [ 106.080707080698545, 9.872192969544374 ], [ 106.080006784848365, 9.871902406600293 ], [ 106.079507073192204, 9.871712038695039 ], [ 106.078676726340163, 9.871349726149658 ], [ 106.077285661929281, 9.870789821082417 ], [ 106.076888927687762, 9.870619796893529 ], [ 106.076466736474558, 9.870438875540232 ], [ 106.07622429057227, 9.870330502791193 ], [ 106.075934760916184, 9.87020108936736 ], [ 106.075358869533801, 9.869981008226775 ], [ 106.074383065067309, 9.869596238680717 ], [ 106.073523809454954, 9.869224649301751 ], [ 106.073187021461678, 9.869077483953873 ], [ 106.072777650747213, 9.868926644173703 ], [ 106.072502095035176, 9.868809663105774 ], [ 106.072146193010809, 9.868628352214026 ], [ 106.071727071295854, 9.868479788027752 ], [ 106.070973263270645, 9.868185498707136 ], [ 106.070366275370688, 9.867905606475462 ], [ 106.069547859849948, 9.867578150349873 ], [ 106.069040366410633, 9.867468610505663 ], [ 106.068568236719784, 9.867404669902394 ], [ 106.068415171778113, 9.867363246637971 ], [ 106.068112988601214, 9.867295582995258 ], [ 106.067892629943699, 9.867250837114065 ], [ 106.067533207124853, 9.867353973266768 ], [ 106.067257888715929, 9.867427220923787 ], [ 106.067105640576827, 9.867467720903154 ], [ 106.066868651492285, 9.867530768219684 ], [ 106.066735708970597, 9.867579815973496 ], [ 106.06606126419581, 9.867785920538354 ], [ 106.065657511798378, 9.867879364346448 ], [ 106.065268791648421, 9.868050790772001 ], [ 106.06507708545125, 9.868153057351437 ], [ 106.065007875307529, 9.86830935664978 ], [ 106.064672830895901, 9.868151293610875 ], [ 106.064653766204628, 9.867989852969821 ], [ 106.064575066170747, 9.867831360293051 ], [ 106.064625998288491, 9.867741971846439 ], [ 106.064637750814271, 9.867747250492915 ], [ 106.064656158147244, 9.867734769479362 ], [ 106.064650485144838, 9.867723047918524 ], [ 106.064709707189849, 9.867650846761482 ], [ 106.064885443778095, 9.86757880781583 ], [ 106.064947784972745, 9.867553251447982 ], [ 106.064953798748235, 9.867550980988021 ], [ 106.064907934273478, 9.867442378733996 ], [ 106.064945490530476, 9.867442785951976 ], [ 106.065081603038763, 9.867444275696847 ], [ 106.06543138779152, 9.867448101418276 ], [ 106.065545985241471, 9.867494925094691 ], [ 106.065575364635052, 9.867506991443475 ], [ 106.065782445257909, 9.867464691269186 ], [ 106.066023211430505, 9.867393311122257 ], [ 106.066392772700553, 9.867300286022157 ], [ 106.066484510538686, 9.867255376337154 ], [ 106.066559524808483, 9.867188071762014 ], [ 106.066649881823921, 9.867188824039742 ], [ 106.0666881103013, 9.867199207872581 ], [ 106.066733734732551, 9.867171685015411 ], [ 106.066767253045583, 9.867151466069611 ], [ 106.066808622970626, 9.867084037176856 ], [ 106.066867600163064, 9.866969291515062 ], [ 106.066927576540891, 9.866852374198887 ], [ 106.066940731183465, 9.866813835194892 ], [ 106.066966869087182, 9.866743176954012 ], [ 106.067012082848663, 9.866684240605109 ], [ 106.067049064387987, 9.866663202072402 ], [ 106.067071224617521, 9.866665786838048 ], [ 106.067102883876487, 9.866678138547798 ], [ 106.067142754476066, 9.866693695224004 ], [ 106.067229830663052, 9.866748701999217 ], [ 106.0673235359139, 9.866841310320954 ], [ 106.067531577689778, 9.867090191731638 ], [ 106.067573987270265, 9.867101917436777 ], [ 106.06781928178988, 9.867013168697882 ], [ 106.067904465043114, 9.86697432749922 ], [ 106.067960895161647, 9.866916457117897 ], [ 106.068032266185654, 9.866851599582558 ], [ 106.068039320121215, 9.866817862827777 ], [ 106.068034858312942, 9.866768051571835 ], [ 106.067996634090008, 9.866649129575459 ], [ 106.067983304066814, 9.866585228488249 ], [ 106.067985919663855, 9.866568587684654 ], [ 106.068015165512946, 9.866502716143913 ], [ 106.06805038456659, 9.866464139926553 ], [ 106.068141205832816, 9.866416699732074 ], [ 106.068257655483706, 9.86642708204228 ], [ 106.068337290878503, 9.866449642013125 ], [ 106.068370015839406, 9.866498591877905 ], [ 106.068450665819597, 9.866527931249465 ], [ 106.068567770801565, 9.866548258015875 ], [ 106.068668333107453, 9.866545375942335 ], [ 106.068768925078246, 9.866538746721194 ], [ 106.068786751565497, 9.866480981384452 ], [ 106.068796233463701, 9.866374456294302 ], [ 106.068809898003138, 9.866314397553825 ], [ 106.068823616368888, 9.866285712792671 ], [ 106.068893886977733, 9.866270494884098 ], [ 106.068947596641124, 9.866274563345174 ], [ 106.068984836078556, 9.866297646784641 ], [ 106.069047011437576, 9.866399982248097 ], [ 106.069107866826158, 9.866423839546039 ], [ 106.069484008815181, 9.866235231203751 ], [ 106.070070730426508, 9.865919413968822 ], [ 106.070182198749862, 9.865896260015251 ], [ 106.070296621691384, 9.865894619838011 ], [ 106.070377708878027, 9.865913108188568 ], [ 106.070441425873852, 9.865904410944674 ], [ 106.070801393075726, 9.865748287610407 ], [ 106.070976513909486, 9.865679094726598 ], [ 106.07100105470127, 9.865634568906003 ], [ 106.071025578045948, 9.865579916615506 ], [ 106.071060330483604, 9.865535373495796 ], [ 106.071177493273083, 9.865483547973108 ], [ 106.071249881644931, 9.865480532046401 ], [ 106.071278890257275, 9.865489072335039 ], [ 106.071341212678462, 9.865517718748913 ], [ 106.071546629736957, 9.865728128305603 ], [ 106.071630777795804, 9.865776809824508 ], [ 106.071694566436335, 9.865809703193982 ], [ 106.071798698429717, 9.865762149064219 ], [ 106.071824566776272, 9.86564158179894 ], [ 106.071862177675015, 9.865615659274523 ], [ 106.071912853962175, 9.86560553723419 ], [ 106.071949001205923, 9.865576814313908 ], [ 106.072029969122568, 9.865473332437903 ], [ 106.072149246911849, 9.865379188710943 ], [ 106.072181017116677, 9.865297309090783 ], [ 106.072515192916015, 9.865095839369307 ], [ 106.072568129934908, 9.865074972077148 ], [ 106.072735596704817, 9.865008937762093 ], [ 106.07283513343522, 9.864940505241121 ], [ 106.073045553915605, 9.864827580842951 ], [ 106.073253746605815, 9.864744587516558 ], [ 106.073518426557499, 9.86458491637819 ], [ 106.073542957385655, 9.864587587106504 ], [ 106.073613658541504, 9.864610793940598 ], [ 106.073745383253097, 9.864544295539446 ], [ 106.073819779053295, 9.864489648621758 ], [ 106.073842386699496, 9.864434728167508 ], [ 106.073879608810373, 9.864395062995223 ], [ 106.074062858327551, 9.864279275286677 ], [ 106.074095073229032, 9.864131329928853 ], [ 106.074229448696244, 9.864079009054509 ], [ 106.074347024516058, 9.864213617751458 ], [ 106.074417356337108, 9.864392067802068 ], [ 106.074452131641536, 9.864518951380269 ], [ 106.074498910151888, 9.864574748222376 ], [ 106.074617733441315, 9.864549880505383 ], [ 106.074799266387814, 9.864515456427883 ], [ 106.074825800338033, 9.864537211325247 ], [ 106.074939909129824, 9.864459892689718 ], [ 106.074990769538019, 9.864389659867697 ], [ 106.074983640772004, 9.864335949423356 ], [ 106.074962780881535, 9.864294484458711 ], [ 106.075028608620528, 9.864136236183956 ], [ 106.075058791801482, 9.864033473148705 ], [ 106.075096389706999, 9.864000317098515 ], [ 106.075143900372069, 9.864005118482059 ], [ 106.075273932337652, 9.863961768665551 ], [ 106.075404879759432, 9.863973118375919 ], [ 106.075512405247053, 9.863990294576896 ], [ 106.075888604432421, 9.864310987547162 ], [ 106.075907451613986, 9.864295946452184 ], [ 106.07581206288998, 9.86417983554438 ], [ 106.075952171059186, 9.864058530450047 ], [ 106.076195174816036, 9.863808569651363 ], [ 106.07621292549922, 9.863792174188433 ], [ 106.076212911736718, 9.86378425385046 ], [ 106.076259138660205, 9.863740802736858 ], [ 106.076400659060596, 9.863614101317621 ], [ 106.076387788044073, 9.863569712484331 ], [ 106.076475497173647, 9.863516158304929 ], [ 106.076596201505794, 9.863419307253116 ], [ 106.076728934969935, 9.863293891546123 ], [ 106.076826883953572, 9.863207685023639 ], [ 106.076877647727429, 9.86314439804454 ], [ 106.076959600222679, 9.863072486349422 ], [ 106.077296294054634, 9.862804814957 ], [ 106.077390227127339, 9.862724736260125 ], [ 106.077400871309848, 9.862705332937505 ], [ 106.077522992976924, 9.862623488162132 ], [ 106.077580401655695, 9.862605397247073 ], [ 106.077650912228123, 9.862571642073254 ], [ 106.077688691104726, 9.862537942954214 ], [ 106.077725105662239, 9.862506144884991 ], [ 106.077952694349221, 9.862253858547415 ], [ 106.078146546335603, 9.862052895250629 ], [ 106.0786486904383, 9.861650807740997 ] ] } },
{ "type": "Feature", "properties": { "Layer": "AP 13", "PaperSpace": null, "SubClasses": "AcDbEntity:AcDbPolyline", "Linetype": null, "EntityHandle": "2BF846", "Text": null, "path": "LineString?crs=&field=Layer:string(0,0)&field=PaperSpace:boolean(0,0)&field=SubClasses:string(0,0)&field=Linetype:string(0,0)&field=EntityHandle:string(0,0)&field=Text:string(0,0)&uid={dc62d827-2752-4e74-9d18-37bf6bb529e0}" }, "geometry": { "type": "LineString", "coordinates": [ [ 106.114083818740625, 9.88916935256235 ], [ 106.114545988361343, 9.887888192913662 ], [ 106.113403407785455, 9.887695574969722 ], [ 106.114602486655201, 9.884376829395634 ], [ 106.115780719957229, 9.884806005095642 ], [ 106.116015691098113, 9.884521535801818 ], [ 106.115408998270667, 9.883018115589788 ], [ 106.115005692597833, 9.882079849623924 ], [ 106.114482762692546, 9.880745561198072 ], [ 106.113717112074553, 9.878915365057996 ], [ 106.113515534756232, 9.878444057234605 ], [ 106.113442347548784, 9.878312208571687 ], [ 106.113215570680794, 9.878053180681141 ], [ 106.113059861253603, 9.877910853042399 ], [ 106.113192704821472, 9.877717844785749 ], [ 106.114397810803922, 9.878012205619623 ], [ 106.115801089830157, 9.878365060450447 ], [ 106.116648929793882, 9.878551617042005 ], [ 106.117136862828616, 9.878695680355195 ], [ 106.117859927618852, 9.878849086996643 ], [ 106.11862606117279, 9.879027269820186 ], [ 106.119135434201283, 9.877955902051129 ], [ 106.119758625619752, 9.878114371534945 ], [ 106.120312351998976, 9.876897918266936 ], [ 106.121301851566329, 9.877227745366483 ], [ 106.121923121914023, 9.875548618194689 ], [ 106.122525197054173, 9.875801941328497 ], [ 106.123267729878251, 9.876140770778777 ], [ 106.123779977744135, 9.876347663386325 ], [ 106.124023449284124, 9.875754902169287 ], [ 106.124981332545346, 9.876098021292393 ], [ 106.124932349765217, 9.874275592417 ], [ 106.124872072469472, 9.873690740341896 ], [ 106.12480700481774, 9.87325254240795 ], [ 106.124346418306985, 9.869383329678245 ], [ 106.12440247556583, 9.869345069077168 ], [ 106.12507192936603, 9.869692933487517 ], [ 106.125118418434667, 9.869687241573708 ], [ 106.125189697321531, 9.869724540870989 ], [ 106.125175740311718, 9.869750768857175 ], [ 106.125318188062451, 9.869833703777326 ], [ 106.125562533008363, 9.870119773181738 ], [ 106.125671425964526, 9.870279785139195 ], [ 106.125690706249117, 9.870302081670246 ], [ 106.126001578410992, 9.870571119710084 ], [ 106.126056964470621, 9.870641630366045 ], [ 106.126135235054775, 9.870711736834007 ], [ 106.126250805972532, 9.870834937554513 ], [ 106.12638576603716, 9.870941465963311 ], [ 106.126815727017828, 9.871312811546044 ], [ 106.126975538204874, 9.871494337295005 ], [ 106.126988795225586, 9.87160995245789 ], [ 106.127296686850727, 9.871748255690237 ], [ 106.127915865107823, 9.871987694683266 ], [ 106.128154535851593, 9.872068170554879 ], [ 106.128109787270091, 9.872156199900862 ], [ 106.128114222547325, 9.872157394141666 ], [ 106.128035195920717, 9.872314138905121 ], [ 106.128196092749192, 9.872442498405073 ], [ 106.128194261124818, 9.872444763842839 ], [ 106.128206807347581, 9.872454738596515 ], [ 106.128466013909858, 9.872750850020195 ], [ 106.128880806064728, 9.873150158935434 ], [ 106.129309108320342, 9.873557308069795 ], [ 106.129734042542552, 9.87387088418946 ], [ 106.130005277294771, 9.874053556208715 ], [ 106.130198397425474, 9.874344690328039 ], [ 106.130248613904584, 9.874428862400952 ], [ 106.130298830410084, 9.874513034464377 ], [ 106.130444772721333, 9.87468753197043 ], [ 106.130670484410473, 9.87480835486911 ], [ 106.130748269894895, 9.874862096073072 ], [ 106.130815889370808, 9.874939906465643 ], [ 106.130954744158842, 9.875079065051287 ], [ 106.131244861446916, 9.8753133270758 ], [ 106.131774742001681, 9.875625257017541 ], [ 106.132514787495595, 9.876255071818319 ], [ 106.133068757175138, 9.876734197833718 ], [ 106.134019256569388, 9.877575702192409 ], [ 106.134858897470266, 9.878184415454349 ], [ 106.135106721295884, 9.87832770653073 ], [ 106.135256227034418, 9.878361329798144 ], [ 106.135478170360855, 9.878369319531055 ], [ 106.135653150836518, 9.878326675476545 ], [ 106.135743391576526, 9.878364542317691 ], [ 106.135698759811277, 9.879286786821856 ], [ 106.13575635483555, 9.879588394243662 ], [ 106.135990473955118, 9.88040050495866 ], [ 106.135977996938252, 9.880688400762292 ], [ 106.13592427733569, 9.880965259670235 ], [ 106.135780094754594, 9.881425106656565 ], [ 106.135486584577166, 9.882182607374689 ], [ 106.135288202050717, 9.882717509766431 ], [ 106.135087329091689, 9.884045528867652 ], [ 106.134974053191442, 9.884647357729305 ], [ 106.134874501145191, 9.885178728118296 ], [ 106.134840381381025, 9.885691892229806 ], [ 106.134855259919661, 9.886175488904243 ], [ 106.134788090313592, 9.886523980955833 ], [ 106.134683832109999, 9.88693149291924 ], [ 106.13462768234578, 9.887083223191633 ], [ 106.134345941674027, 9.887562768145012 ], [ 106.134082343813233, 9.887946439809694 ], [ 106.133835635229303, 9.888388848609127 ], [ 106.133674920985001, 9.888741856605057 ], [ 106.133505045451415, 9.889215313310892 ], [ 106.133340355803909, 9.889873476093536 ], [ 106.133298271946643, 9.889990641531339 ], [ 106.13302359040712, 9.890444675506821 ], [ 106.132853569070818, 9.890890465519307 ], [ 106.132562601035985, 9.891649496437875 ], [ 106.132351022702125, 9.892202776307448 ], [ 106.13219823890141, 9.892611999633258 ] ] } },
{ "type": "Feature", "properties": { "Layer": "A-RANH AP C", "PaperSpace": null, "SubClasses": "AcDbEntity:AcDbPolyline", "Linetype": "ACAD_ISO08W100", "EntityHandle": "2BFF1A", "Text": null, "path": "LineString?crs=&field=Layer:string(0,0)&field=PaperSpace:boolean(0,0)&field=SubClasses:string(0,0)&field=Linetype:string(0,0)&field=EntityHandle:string(0,0)&field=Text:string(0,0)&uid={b306a17a-6d58-463c-88d5-a4a4c98515c8}" }, "geometry": { "type": "LineString", "coordinates": [ [ 106.114083818740625, 9.88916935256235 ], [ 106.114417638579624, 9.889233436389302 ], [ 106.114659408853115, 9.889356251769655 ], [ 106.115271485666312, 9.889400358538255 ], [ 106.115247497425869, 9.889591425246886 ], [ 106.115250460636062, 9.889609233088255 ], [ 106.114880379446362, 9.892321588745938 ], [ 106.117186789369867, 9.89259252083836 ], [ 106.117217988524303, 9.89240503472595 ], [ 106.117257922462102, 9.892354058174353 ], [ 106.117303367715522, 9.8922270330737 ], [ 106.117289135909516, 9.892174257245912 ], [ 106.117331372396862, 9.891989101635719 ], [ 106.117347404617135, 9.891882925813057 ], [ 106.117363755954514, 9.891801161265651 ], [ 106.117535295755957, 9.890908675409269 ], [ 106.118641052427762, 9.891079622830654 ], [ 106.118791024261171, 9.89038373535872 ], [ 106.118857408100197, 9.890141935830572 ], [ 106.118868900692647, 9.8901439037991 ], [ 106.118916234444882, 9.889974390732887 ], [ 106.124464051877226, 9.890943748472855 ], [ 106.124503095008322, 9.890954722001979 ], [ 106.124527448701173, 9.89095901666076 ], [ 106.132051868985272, 9.892580460113233 ] ] } },
{ "type": "Feature", "properties": { "Layer": "A-RANH AP C", "PaperSpace": null, "SubClasses": "AcDbEntity:AcDbPolyline", "Linetype": "ACAD_ISO08W100", "EntityHandle": "2BFF1A", "Text": null, "path": "LineString?crs=&field=Layer:string(0,0)&field=PaperSpace:boolean(0,0)&field=SubClasses:string(0,0)&field=Linetype:string(0,0)&field=EntityHandle:string(0,0)&field=Text:string(0,0)&uid={b306a17a-6d58-463c-88d5-a4a4c98515c8}" }, "geometry": { "type": "LineString", "coordinates": [ [ 106.114083818740625, 9.88916935256235 ], [ 106.114417638579624, 9.889233436389302 ], [ 106.114659408853115, 9.889356251769655 ], [ 106.115271485666312, 9.889400358538255 ], [ 106.115247497425869, 9.889591425246886 ], [ 106.115250460636062, 9.889609233088255 ], [ 106.114880379446362, 9.892321588745938 ], [ 106.117186789369867, 9.89259252083836 ], [ 106.117217988524303, 9.89240503472595 ], [ 106.117257922462102, 9.892354058174353 ], [ 106.117303367715522, 9.8922270330737 ], [ 106.117289135909516, 9.892174257245912 ], [ 106.117331372396862, 9.891989101635719 ], [ 106.117347404617135, 9.891882925813057 ], [ 106.117363755954514, 9.891801161265651 ], [ 106.117535295755957, 9.890908675409269 ], [ 106.118641052427762, 9.891079622830654 ], [ 106.118791024261171, 9.89038373535872 ], [ 106.118857408100197, 9.890141935830572 ], [ 106.118868900692647, 9.8901439037991 ], [ 106.118916234444882, 9.889974390732887 ], [ 106.124464051877226, 9.890943748472855 ], [ 106.124503095008322, 9.890954722001979 ], [ 106.124527448701173, 9.89095901666076 ], [ 106.132051868985272, 9.892580460113233 ] ] } },
{ "type": "Feature", "properties": { "Layer": "AP 13", "PaperSpace": null, "SubClasses": "AcDbEntity:AcDbPolyline", "Linetype": null, "EntityHandle": "2BF846", "Text": null, "path": "LineString?crs=&field=Layer:string(0,0)&field=PaperSpace:boolean(0,0)&field=SubClasses:string(0,0)&field=Linetype:string(0,0)&field=EntityHandle:string(0,0)&field=Text:string(0,0)&uid={dc62d827-2752-4e74-9d18-37bf6bb529e0}" }, "geometry": { "type": "LineString", "coordinates": [ [ 106.13219823890141, 9.892611999633258 ], [ 106.131952318262279, 9.89327068296344 ], [ 106.131717059734456, 9.893743809742649 ], [ 106.131381473306547, 9.894489632787987 ], [ 106.130971671793304, 9.895526936092264 ], [ 106.130815787094988, 9.895929272857638 ], [ 106.130566988447953, 9.896523940881648 ], [ 106.130449498836882, 9.896834733572673 ], [ 106.130191165522746, 9.897403018344995 ], [ 106.129833818101233, 9.898169133670581 ], [ 106.129657544834373, 9.898544139865933 ], [ 106.129045757342709, 9.899771390800767 ], [ 106.128835438993548, 9.900273492138547 ], [ 106.128650755035068, 9.900734045348536 ], [ 106.128476297717455, 9.901249632474554 ], [ 106.128477512275325, 9.901249621163196 ], [ 106.128348445368985, 9.901627630647042 ], [ 106.128262217209652, 9.901980406789139 ], [ 106.128260127452691, 9.90208022783284 ], [ 106.128009848612237, 9.90257236751304 ], [ 106.127785202875302, 9.902974225887975 ], [ 106.127670930501907, 9.903109065980885 ], [ 106.127304153701601, 9.903765524423502 ], [ 106.127102762009301, 9.904217157142146 ], [ 106.126983033580728, 9.904187408383617 ], [ 106.126210911629954, 9.903995588637491 ], [ 106.125709002304987, 9.903886580421155 ], [ 106.125269236295566, 9.903849877466529 ], [ 106.124874716504806, 9.903678191897338 ], [ 106.124522259987401, 9.903472251098385 ], [ 106.123825880517131, 9.903087928770471 ], [ 106.123198944302686, 9.902826620150483 ], [ 106.122737388236857, 9.902645743617139 ], [ 106.122342346975685, 9.902538060051761 ], [ 106.122087405665212, 9.902492882125056 ], [ 106.121987594431602, 9.902463863158355 ], [ 106.121941862737003, 9.902440503902227 ], [ 106.12183966812664, 9.902409297229509 ], [ 106.121707691739545, 9.902385992176248 ], [ 106.121624462613923, 9.90239817127579 ], [ 106.12149487262289, 9.902438193278053 ], [ 106.12114812214223, 9.902597873132747 ], [ 106.12108684957154, 9.902648437534459 ], [ 106.12100213837337, 9.902696875313968 ], [ 106.120706094855876, 9.902778125503241 ], [ 106.120636675324079, 9.902834772315456 ], [ 106.120556897421167, 9.902899864210092 ], [ 106.12042488194308, 9.902959510178553 ], [ 106.120237639524376, 9.903035894282382 ], [ 106.119913106264718, 9.903082532236471 ], [ 106.11961595164459, 9.903091922980575 ], [ 106.119101827156896, 9.902983288861552 ], [ 106.118988213148171, 9.902936211591502 ], [ 106.11878795103469, 9.90287735922084 ], [ 106.118014023821303, 9.902810701984533 ], [ 106.117735086739984, 9.902808140940694 ], [ 106.117656091073371, 9.902779868997305 ], [ 106.117527177281545, 9.902733741570314 ], [ 106.117166986932006, 9.902604848909982 ], [ 106.116892960180877, 9.90245038218805 ], [ 106.116755375966846, 9.902409225073679 ], [ 106.11664783584861, 9.902391701290952 ], [ 106.116563691379383, 9.902388962474841 ], [ 106.116560957541154, 9.902403072116826 ], [ 106.116200683469188, 9.902318824481714 ], [ 106.116039977438021, 9.902284500196814 ], [ 106.115696872226238, 9.902199958931432 ], [ 106.115507930593836, 9.902147864865958 ], [ 106.115501674698223, 9.902169078474316 ], [ 106.115460627630043, 9.902159262353839 ], [ 106.115463977291824, 9.902146770004562 ], [ 106.115093684767771, 9.902054502281757 ], [ 106.114023404693299, 9.901787929624779 ], [ 106.11393223612319, 9.901747771453833 ], [ 106.11365971713299, 9.901667529350261 ], [ 106.113628960652804, 9.901652938407739 ], [ 106.113454288241812, 9.901624415222258 ], [ 106.113301393066578, 9.901587262831717 ], [ 106.113145396129624, 9.90154930230125 ], [ 106.113089032036441, 9.901542985742424 ], [ 106.11301952660169, 9.90153090663526 ], [ 106.112870488041125, 9.901473028350443 ], [ 106.112743553851629, 9.901456546996874 ], [ 106.112494771527068, 9.901391450233158 ], [ 106.111692892101004, 9.901195446177686 ], [ 106.111367200183608, 9.901113283774478 ], [ 106.111367384840662, 9.90110942168535 ], [ 106.111347872493965, 9.901110090089864 ], [ 106.110969181161366, 9.901011413542324 ], [ 106.110914366984389, 9.901004912963577 ], [ 106.110312717756941, 9.900850945721215 ], [ 106.109571968475734, 9.900680155286752 ], [ 106.109296735897743, 9.900604059654631 ], [ 106.10905370204226, 9.900540396468813 ], [ 106.109007540160363, 9.900528274196446 ], [ 106.10881176231824, 9.900476640704689 ], [ 106.108574925846241, 9.900411157644317 ], [ 106.108568539598849, 9.900409360922833 ], [ 106.108317415587493, 9.900344594684647 ], [ 106.108523344918879, 9.898294626629976 ], [ 106.110148038305553, 9.895598904583334 ], [ 106.110521544686108, 9.89141533179235 ], [ 106.111409978141069, 9.891438411007901 ], [ 106.111280404383393, 9.891080310636736 ], [ 106.111201684217974, 9.890627557062144 ], [ 106.111100161012331, 9.889950191873144 ], [ 106.11102381232871, 9.889770597308548 ], [ 106.110675843198436, 9.889524655510805 ], [ 106.111402765719347, 9.88932439748411 ], [ 106.112129354871357, 9.889292624567407 ], [ 106.113328551380235, 9.889219482156705 ], [ 106.114000122182432, 9.889158069484438 ], [ 106.114083818740625, 9.88916935256235 ] ] } }
]
}
