{
"type": "FeatureCollection",
"name": "Ấp Ô Tưng A",
"crs": { "type": "name", "properties": { "name": "urn:ogc:def:crs:OGC:1.3:CRS84" } },
"features": [
{ "type": "Feature", "properties": { "Layer": "AP 10", "PaperSpace": null, "SubClasses": "AcDbEntity:AcDbPolyline", "Linetype": null, "EntityHandle": "2BBDE0", "Text": null, "path": "LineString?crs=&field=Layer:string(0,0)&field=PaperSpace:boolean(0,0)&field=SubClasses:string(0,0)&field=Linetype:string(0,0)&field=EntityHandle:string(0,0)&field=Text:string(0,0)&uid={0218270d-b8d1-4304-b334-387530555d43}" }, "geometry": { "type": "LineString", "coordinates": [ [ 106.0786486904383, 9.861650807740997 ], [ 106.078521431499553, 9.861538734627864 ], [ 106.078494822508958, 9.861502764311625 ], [ 106.078485134302753, 9.861484837090323 ], [ 106.078473693946506, 9.861411933404236 ], [ 106.078344263893925, 9.861224453670317 ], [ 106.078509081407333, 9.861105003960938 ], [ 106.0783990700305, 9.860864326870162 ], [ 106.078363043851908, 9.860804985940208 ], [ 106.078252867697685, 9.860584069600877 ], [ 106.078302815679194, 9.860513048506535 ], [ 106.078581393625541, 9.860274869563671 ], [ 106.078330415345192, 9.859922771554285 ], [ 106.078512524842935, 9.859785842114176 ], [ 106.078852601425467, 9.859522964611044 ], [ 106.078679635587022, 9.859308887206174 ], [ 106.078569742840642, 9.859149017227985 ], [ 106.078462074613299, 9.859036025946697 ], [ 106.078374387321674, 9.858944043316409 ], [ 106.078233354806827, 9.858794828928975 ], [ 106.078157903803231, 9.858713675072687 ], [ 106.077799001181049, 9.858322792563774 ], [ 106.078085901875681, 9.858079825098098 ], [ 106.077867137984413, 9.857868882497529 ], [ 106.077705240556085, 9.857727208029253 ], [ 106.07743901054468, 9.857463380403038 ], [ 106.077553177611549, 9.857368882049615 ], [ 106.077488230905089, 9.857298559842581 ], [ 106.077399566308358, 9.857220864168999 ], [ 106.077356311540314, 9.857198696066446 ], [ 106.077204742382605, 9.857071470068103 ], [ 106.076980660716373, 9.85687465793653 ], [ 106.076805244948929, 9.857033003460424 ], [ 106.076649459049577, 9.857207318831026 ], [ 106.076560941900183, 9.857319313596621 ], [ 106.076435187306274, 9.8574615706095 ], [ 106.07632359329142, 9.857567908589653 ], [ 106.076254803386533, 9.857646958482809 ], [ 106.076144515191928, 9.857770292222442 ], [ 106.076023307146542, 9.857905760199285 ], [ 106.075924852803254, 9.858018404686328 ], [ 106.075782954330521, 9.858157434092186 ], [ 106.075652096694654, 9.858038851901284 ], [ 106.075501413445636, 9.857896614705412 ], [ 106.075319483521696, 9.857716637187185 ], [ 106.0753612678389, 9.857662124919017 ], [ 106.075361296632252, 9.857662149373034 ], [ 106.075373007462304, 9.857624229550828 ], [ 106.078102919638539, 9.854631433003199 ], [ 106.078513782267123, 9.854987185096814 ], [ 106.080172413642927, 9.853270733769497 ], [ 106.081298834841803, 9.854390956120167 ], [ 106.081672702007864, 9.854006599281325 ], [ 106.080521358185749, 9.852884688578797 ], [ 106.080739913006013, 9.852683445606482 ], [ 106.079374229194343, 9.851700582534219 ], [ 106.079834835460517, 9.851339761958396 ], [ 106.080481762836769, 9.85201141720534 ], [ 106.080862016079379, 9.852365882294635 ], [ 106.080962822731792, 9.85247819229822 ], [ 106.084483690630961, 9.849236156658598 ], [ 106.084495869393365, 9.849250316209298 ], [ 106.084578456305806, 9.849190499323971 ], [ 106.084735243760278, 9.849071693753977 ], [ 106.084830412467966, 9.849012035855202 ], [ 106.085047215638184, 9.848855875212982 ], [ 106.085240177853692, 9.849036280513157 ], [ 106.08551706398778, 9.84934637616354 ], [ 106.085519795765691, 9.849344472711291 ], [ 106.085611789429379, 9.849449013787746 ], [ 106.085747935110859, 9.849619481216529 ], [ 106.085956274779889, 9.84988548239941 ], [ 106.086025300698395, 9.849839070122805 ], [ 106.086375264452116, 9.850279597410951 ], [ 106.086114022374545, 9.850465763422052 ], [ 106.08591890727314, 9.850616100569539 ], [ 106.085556394833247, 9.850917992292581 ], [ 106.085880127626396, 9.85125119022174 ], [ 106.086221086759878, 9.851566741927584 ], [ 106.086561939448558, 9.85185466416657 ], [ 106.0868521546127, 9.852121245699493 ], [ 106.086606606630014, 9.852418324053662 ], [ 106.087002680362914, 9.852740597912385 ], [ 106.087325089432895, 9.852393838157749 ], [ 106.087364805723311, 9.852374239421321 ], [ 106.087565049811303, 9.852546041077046 ], [ 106.087788207024786, 9.85273407740009 ], [ 106.088306692958724, 9.853191849323091 ], [ 106.088318431650563, 9.853184803621396 ], [ 106.088471215757835, 9.853321940921957 ], [ 106.08815038821723, 9.853597617355929 ], [ 106.088953634510588, 9.854157202775047 ], [ 106.088953626778348, 9.854152844786357 ], [ 106.08947421811483, 9.854512583113026 ], [ 106.089689229700056, 9.854648309125626 ], [ 106.090648024911644, 9.855310522203402 ], [ 106.091312948753483, 9.855771920501722 ], [ 106.091647379490183, 9.856032633409852 ], [ 106.091753364086671, 9.856110746879308 ], [ 106.09191222011043, 9.856227826812216 ], [ 106.09233323049061, 9.856519670652641 ], [ 106.092772898660812, 9.856843849671039 ], [ 106.093204534118129, 9.857162255631861 ], [ 106.093605408713586, 9.857460371761929 ], [ 106.093996612231734, 9.857754345312131 ], [ 106.094316159075632, 9.858000163065078 ], [ 106.094431097380919, 9.858084471341243 ], [ 106.094878343995475, 9.858412548961635 ], [ 106.095082189276411, 9.858554683255262 ], [ 106.095401784871868, 9.858775997375201 ], [ 106.095766678351893, 9.859039274065712 ], [ 106.095914386658961, 9.859144708108969 ], [ 106.096491302128399, 9.859532924292198 ], [ 106.096855214371246, 9.859745496812501 ], [ 106.096872466174062, 9.859791097195203 ], [ 106.097197596124701, 9.859972627645332 ], [ 106.097576847849552, 9.86015757758034 ], [ 106.097692565465479, 9.860218131300728 ], [ 106.097802614062502, 9.860269653547425 ], [ 106.097897519065114, 9.860316320200058 ], [ 106.098284989889777, 9.860508307073918 ], [ 106.098356727113796, 9.860549589793726 ], [ 106.098634853829651, 9.8606761290619 ], [ 106.098925044742941, 9.860818740493745 ], [ 106.099131712239569, 9.860906347027861 ], [ 106.099546339500449, 9.861090146800111 ], [ 106.099977316551957, 9.861286828662131 ], [ 106.100167234348163, 9.86097087060565 ], [ 106.10056560762915, 9.861158495349198 ], [ 106.100660292411874, 9.861183914115655 ], [ 106.100670492609467, 9.861228018338977 ], [ 106.100930034134365, 9.861369778397178 ], [ 106.100937443145384, 9.861374918836191 ], [ 106.100945709665382, 9.861358177383833 ], [ 106.100955979716773, 9.861340166555456 ], [ 106.101071905393482, 9.861414371305518 ], [ 106.101148720457118, 9.861490273187037 ], [ 106.101921839663262, 9.862474052996911 ], [ 106.102639697371316, 9.863500153133446 ], [ 106.102677049011959, 9.863533811058769 ], [ 106.102754149180655, 9.863665769110449 ], [ 106.102936850851691, 9.863909562128008 ], [ 106.103053062650872, 9.864040093941105 ], [ 106.103426654757882, 9.864517719206406 ], [ 106.103862082549568, 9.865105267882585 ], [ 106.10404153073722, 9.865363984433349 ], [ 106.104298231877507, 9.865737660259688 ], [ 106.104436960682463, 9.865923010858596 ], [ 106.104967652526838, 9.867321732251693 ], [ 106.105164274699831, 9.868966894200426 ], [ 106.105064432302839, 9.870017533674195 ], [ 106.10563159688283, 9.870132344185819 ], [ 106.104249189096066, 9.873556100341178 ] ] } },
{ "type": "Feature", "properties": { "Layer": "A-RANH AP C", "PaperSpace": null, "SubClasses": "AcDbEntity:AcDbPolyline", "Linetype": "ACAD_ISO08W100", "EntityHandle": "2BFF1B", "Text": null, "path": "LineString?crs=&field=Layer:string(0,0)&field=PaperSpace:boolean(0,0)&field=SubClasses:string(0,0)&field=Linetype:string(0,0)&field=EntityHandle:string(0,0)&field=Text:string(0,0)&uid={b306a17a-6d58-463c-88d5-a4a4c98515c8}" }, "geometry": { "type": "LineString", "coordinates": [ [ 106.104249189096066, 9.873556100341178 ], [ 106.103315206823126, 9.873125425444295 ], [ 106.102261678221581, 9.872639003460408 ], [ 106.101342520207567, 9.872217974565746 ], [ 106.100251286563079, 9.871709232231915 ], [ 106.09846202210322, 9.870881048791036 ], [ 106.09457892804275, 9.869064313226225 ], [ 106.091483561830046, 9.867633193103243 ], [ 106.089793720859475, 9.866832312303444 ], [ 106.088358233426561, 9.866174378909632 ], [ 106.084837669993306, 9.864545637276981 ], [ 106.083258756541639, 9.863778168562106 ], [ 106.082795683892314, 9.863554362501887 ], [ 106.081925876064275, 9.863154913301479 ], [ 106.081063107817968, 9.862755449855012 ], [ 106.080431869028402, 9.862469331655181 ], [ 106.079790716015808, 9.862034617865769 ], [ 106.079362858377465, 9.861751758233964 ], [ 106.078915123244911, 9.861428211193116 ], [ 106.078671253247833, 9.861632740728789 ] ] } }
]
}
