{
"type": "FeatureCollection",
"name": "Ấp Xóm Lớn",
"crs": { "type": "name", "properties": { "name": "urn:ogc:def:crs:OGC:1.3:CRS84" } },
"features": [
{ "type": "Feature", "properties": { "Layer": "A-RANH AP C", "PaperSpace": null, "SubClasses": "AcDbEntity:AcDbPolyline", "Linetype": "ACAD_ISO08W100", "EntityHandle": "2BFF1A", "Text": null, "path": "LineString?crs=&field=Layer:string(0,0)&field=PaperSpace:boolean(0,0)&field=SubClasses:string(0,0)&field=Linetype:string(0,0)&field=EntityHandle:string(0,0)&field=Text:string(0,0)&uid={b306a17a-6d58-463c-88d5-a4a4c98515c8}" }, "geometry": { "type": "LineString", "coordinates": [ [ 106.114083818740625, 9.88916935256235 ], [ 106.114417638579624, 9.889233436389302 ], [ 106.114659408853115, 9.889356251769655 ], [ 106.115271485666312, 9.889400358538255 ], [ 106.115247497425869, 9.889591425246886 ], [ 106.115250460636062, 9.889609233088255 ], [ 106.114880379446362, 9.892321588745938 ], [ 106.117186789369867, 9.89259252083836 ], [ 106.117217988524303, 9.89240503472595 ], [ 106.117257922462102, 9.892354058174353 ], [ 106.117303367715522, 9.8922270330737 ], [ 106.117289135909516, 9.892174257245912 ], [ 106.117331372396862, 9.891989101635719 ], [ 106.117347404617135, 9.891882925813057 ], [ 106.117363755954514, 9.891801161265651 ], [ 106.117535295755957, 9.890908675409269 ], [ 106.118641052427762, 9.891079622830654 ], [ 106.118791024261171, 9.89038373535872 ], [ 106.118857408100197, 9.890141935830572 ], [ 106.118868900692647, 9.8901439037991 ], [ 106.118916234444882, 9.889974390732887 ], [ 106.124464051877226, 9.890943748472855 ], [ 106.124503095008322, 9.890954722001979 ], [ 106.124527448701173, 9.89095901666076 ], [ 106.132051868985272, 9.892580460113233 ] ] } },
{ "type": "Feature", "properties": { "Layer": "AP 13", "PaperSpace": null, "SubClasses": "AcDbEntity:AcDbPolyline", "Linetype": null, "EntityHandle": "2BF846", "Text": null, "path": "LineString?crs=&field=Layer:string(0,0)&field=PaperSpace:boolean(0,0)&field=SubClasses:string(0,0)&field=Linetype:string(0,0)&field=EntityHandle:string(0,0)&field=Text:string(0,0)&uid={dc62d827-2752-4e74-9d18-37bf6bb529e0}" }, "geometry": { "type": "LineString", "coordinates": [ [ 106.13219823890141, 9.892611999633258 ], [ 106.131952318262279, 9.89327068296344 ], [ 106.131717059734456, 9.893743809742649 ], [ 106.131381473306547, 9.894489632787987 ], [ 106.130971671793304, 9.895526936092264 ], [ 106.130815787094988, 9.895929272857638 ], [ 106.130566988447953, 9.896523940881648 ], [ 106.130449498836882, 9.896834733572673 ], [ 106.130191165522746, 9.897403018344995 ], [ 106.129833818101233, 9.898169133670581 ], [ 106.129657544834373, 9.898544139865933 ], [ 106.129045757342709, 9.899771390800767 ], [ 106.128835438993548, 9.900273492138547 ], [ 106.128650755035068, 9.900734045348536 ], [ 106.128476297717455, 9.901249632474554 ], [ 106.128477512275325, 9.901249621163196 ], [ 106.128348445368985, 9.901627630647042 ], [ 106.128262217209652, 9.901980406789139 ], [ 106.128260127452691, 9.90208022783284 ], [ 106.128009848612237, 9.90257236751304 ], [ 106.127785202875302, 9.902974225887975 ], [ 106.127670930501907, 9.903109065980885 ], [ 106.127304153701601, 9.903765524423502 ], [ 106.127102762009301, 9.904217157142146 ], [ 106.126983033580728, 9.904187408383617 ], [ 106.126210911629954, 9.903995588637491 ], [ 106.125709002304987, 9.903886580421155 ], [ 106.125269236295566, 9.903849877466529 ], [ 106.124874716504806, 9.903678191897338 ], [ 106.124522259987401, 9.903472251098385 ], [ 106.123825880517131, 9.903087928770471 ], [ 106.123198944302686, 9.902826620150483 ], [ 106.122737388236857, 9.902645743617139 ], [ 106.122342346975685, 9.902538060051761 ], [ 106.122087405665212, 9.902492882125056 ], [ 106.121987594431602, 9.902463863158355 ], [ 106.121941862737003, 9.902440503902227 ], [ 106.12183966812664, 9.902409297229509 ], [ 106.121707691739545, 9.902385992176248 ], [ 106.121624462613923, 9.90239817127579 ], [ 106.12149487262289, 9.902438193278053 ], [ 106.12114812214223, 9.902597873132747 ], [ 106.12108684957154, 9.902648437534459 ], [ 106.12100213837337, 9.902696875313968 ], [ 106.120706094855876, 9.902778125503241 ], [ 106.120636675324079, 9.902834772315456 ], [ 106.120556897421167, 9.902899864210092 ], [ 106.12042488194308, 9.902959510178553 ], [ 106.120237639524376, 9.903035894282382 ], [ 106.119913106264718, 9.903082532236471 ], [ 106.11961595164459, 9.903091922980575 ], [ 106.119101827156896, 9.902983288861552 ], [ 106.118988213148171, 9.902936211591502 ], [ 106.11878795103469, 9.90287735922084 ], [ 106.118014023821303, 9.902810701984533 ], [ 106.117735086739984, 9.902808140940694 ], [ 106.117656091073371, 9.902779868997305 ], [ 106.117527177281545, 9.902733741570314 ], [ 106.117166986932006, 9.902604848909982 ], [ 106.116892960180877, 9.90245038218805 ], [ 106.116755375966846, 9.902409225073679 ], [ 106.11664783584861, 9.902391701290952 ], [ 106.116563691379383, 9.902388962474841 ], [ 106.116560957541154, 9.902403072116826 ], [ 106.116200683469188, 9.902318824481714 ], [ 106.116039977438021, 9.902284500196814 ], [ 106.115696872226238, 9.902199958931432 ], [ 106.115507930593836, 9.902147864865958 ], [ 106.115501674698223, 9.902169078474316 ], [ 106.115460627630043, 9.902159262353839 ], [ 106.115463977291824, 9.902146770004562 ], [ 106.115093684767771, 9.902054502281757 ], [ 106.114023404693299, 9.901787929624779 ], [ 106.11393223612319, 9.901747771453833 ], [ 106.11365971713299, 9.901667529350261 ], [ 106.113628960652804, 9.901652938407739 ], [ 106.113454288241812, 9.901624415222258 ], [ 106.113301393066578, 9.901587262831717 ], [ 106.113145396129624, 9.90154930230125 ], [ 106.113089032036441, 9.901542985742424 ], [ 106.11301952660169, 9.90153090663526 ], [ 106.112870488041125, 9.901473028350443 ], [ 106.112743553851629, 9.901456546996874 ], [ 106.112494771527068, 9.901391450233158 ], [ 106.111692892101004, 9.901195446177686 ], [ 106.111367200183608, 9.901113283774478 ], [ 106.111367384840662, 9.90110942168535 ], [ 106.111347872493965, 9.901110090089864 ], [ 106.110969181161366, 9.901011413542324 ], [ 106.110914366984389, 9.901004912963577 ], [ 106.110312717756941, 9.900850945721215 ], [ 106.109571968475734, 9.900680155286752 ], [ 106.109296735897743, 9.900604059654631 ], [ 106.10905370204226, 9.900540396468813 ], [ 106.109007540160363, 9.900528274196446 ], [ 106.10881176231824, 9.900476640704689 ], [ 106.108574925846241, 9.900411157644317 ], [ 106.108568539598849, 9.900409360922833 ], [ 106.108317415587493, 9.900344594684647 ], [ 106.108523344918879, 9.898294626629976 ], [ 106.110148038305553, 9.895598904583334 ], [ 106.110521544686108, 9.89141533179235 ], [ 106.111409978141069, 9.891438411007901 ], [ 106.111280404383393, 9.891080310636736 ], [ 106.111201684217974, 9.890627557062144 ], [ 106.111100161012331, 9.889950191873144 ], [ 106.11102381232871, 9.889770597308548 ], [ 106.110675843198436, 9.889524655510805 ], [ 106.111402765719347, 9.88932439748411 ], [ 106.112129354871357, 9.889292624567407 ], [ 106.113328551380235, 9.889219482156705 ], [ 106.114000122182432, 9.889158069484438 ], [ 106.114083818740625, 9.88916935256235 ] ] } }
]
}
