{
"type": "FeatureCollection",
"name": "Ấp Ô Tưng B",
"crs": { "type": "name", "properties": { "name": "urn:ogc:def:crs:OGC:1.3:CRS84" } },
"features": [
{ "type": "Feature", "properties": { "Layer": "A-RANH AP C", "PaperSpace": null, "SubClasses": "AcDbEntity:AcDbPolyline", "Linetype": "ACAD_ISO08W100", "EntityHandle": "2BFF1B", "Text": null, "path": "LineString?crs=&field=Layer:string(0,0)&field=PaperSpace:boolean(0,0)&field=SubClasses:string(0,0)&field=Linetype:string(0,0)&field=EntityHandle:string(0,0)&field=Text:string(0,0)&uid={b306a17a-6d58-463c-88d5-a4a4c98515c8}" }, "geometry": { "type": "LineString", "coordinates": [ [ 106.104249189096066, 9.873556100341178 ], [ 106.103315206823126, 9.873125425444295 ], [ 106.102261678221581, 9.872639003460408 ], [ 106.101342520207567, 9.872217974565746 ], [ 106.100251286563079, 9.871709232231915 ], [ 106.09846202210322, 9.870881048791036 ], [ 106.09457892804275, 9.869064313226225 ], [ 106.091483561830046, 9.867633193103243 ], [ 106.089793720859475, 9.866832312303444 ], [ 106.088358233426561, 9.866174378909632 ], [ 106.084837669993306, 9.864545637276981 ], [ 106.083258756541639, 9.863778168562106 ], [ 106.082795683892314, 9.863554362501887 ], [ 106.081925876064275, 9.863154913301479 ], [ 106.081063107817968, 9.862755449855012 ], [ 106.080431869028402, 9.862469331655181 ], [ 106.079790716015808, 9.862034617865769 ], [ 106.079362858377465, 9.861751758233964 ], [ 106.078915123244911, 9.861428211193116 ], [ 106.078671253247833, 9.861632740728789 ] ] } },
{ "type": "Feature", "properties": { "Layer": "AP 10", "PaperSpace": null, "SubClasses": "AcDbEntity:AcDbPolyline", "Linetype": null, "EntityHandle": "2BBDE0", "Text": null, "path": "LineString?crs=&field=Layer:string(0,0)&field=PaperSpace:boolean(0,0)&field=SubClasses:string(0,0)&field=Linetype:string(0,0)&field=EntityHandle:string(0,0)&field=Text:string(0,0)&uid={0218270d-b8d1-4304-b334-387530555d43}" }, "geometry": { "type": "LineString", "coordinates": [ [ 106.104249189096066, 9.873556100341178 ], [ 106.103923833709089, 9.874361885189506 ] ] } },
{ "type": "Feature", "properties": { "Layer": "AP 10", "PaperSpace": null, "SubClasses": "AcDbEntity:AcDbPolyline", "Linetype": null, "EntityHandle": "2BBDE0", "Text": null, "path": "LineString?crs=&field=Layer:string(0,0)&field=PaperSpace:boolean(0,0)&field=SubClasses:string(0,0)&field=Linetype:string(0,0)&field=EntityHandle:string(0,0)&field=Text:string(0,0)&uid={0218270d-b8d1-4304-b334-387530555d43}" }, "geometry": { "type": "LineString", "coordinates": [ [ 106.103923833709089, 9.874361885189506 ], [ 106.102707159854646, 9.874452792486286 ], [ 106.101335638055787, 9.877106167323072 ], [ 106.100754076599799, 9.880468036492207 ], [ 106.100396078143888, 9.880311082669987 ], [ 106.099535603176733, 9.879967558826053 ], [ 106.098501098732584, 9.879554553972042 ], [ 106.097333948878273, 9.879051317930797 ], [ 106.096456808384303, 9.881053769450423 ], [ 106.097910129923591, 9.881437435429499 ], [ 106.088084115322133, 9.887143132783255 ], [ 106.088095040116727, 9.887046975139674 ], [ 106.088114759950841, 9.886753092605174 ], [ 106.088122455510614, 9.886568361737055 ], [ 106.088139748423941, 9.886345459049469 ], [ 106.08818631221493, 9.885867083403696 ], [ 106.088238399156481, 9.885213022142739 ], [ 106.088245907841767, 9.884974494783446 ], [ 106.088275168488764, 9.884713325698037 ], [ 106.088308180718826, 9.884408298872817 ], [ 106.088348719219681, 9.883874690268303 ], [ 106.088400676354368, 9.883208875244211 ], [ 106.088412460996295, 9.883057861918624 ], [ 106.088483828468, 9.882119773945805 ], [ 106.088530147008939, 9.881503877697268 ], [ 106.088545647953325, 9.881350235832061 ], [ 106.08854841924007, 9.880755030270807 ], [ 106.088504114455475, 9.880298241653483 ], [ 106.088479807590872, 9.879909319588423 ], [ 106.088477558323831, 9.879772435481151 ], [ 106.088384029716693, 9.879425406019724 ], [ 106.08825692018155, 9.878960443833146 ], [ 106.088234550154198, 9.878788965982288 ], [ 106.088206714618778, 9.878671746573138 ], [ 106.08816904560382, 9.878562320011882 ], [ 106.088010189577318, 9.878139184776348 ], [ 106.087824980291771, 9.877817088813126 ], [ 106.087688789138923, 9.877525829059842 ], [ 106.087632259003485, 9.87742348768646 ], [ 106.087574240955448, 9.877356139443188 ], [ 106.087521760597141, 9.877275128885172 ], [ 106.087513477347372, 9.877128852109411 ], [ 106.08749441236877, 9.877021201281515 ], [ 106.087423177563338, 9.876956136432122 ], [ 106.087401325463006, 9.876922088147301 ], [ 106.087328595701493, 9.876785236488383 ], [ 106.087219500673996, 9.876553964691345 ], [ 106.087107649533891, 9.876465191471123 ], [ 106.087042280771286, 9.876365849069945 ], [ 106.086996614397634, 9.876270902643682 ], [ 106.086958097929283, 9.876145926014299 ], [ 106.086732012918532, 9.875858348587748 ], [ 106.086320628115686, 9.875401656111627 ], [ 106.085960416190048, 9.875008254877429 ], [ 106.085808018683906, 9.87483166842844 ], [ 106.085673072111661, 9.87467530449446 ], [ 106.085420634789116, 9.874437047977979 ], [ 106.085349123024045, 9.874369496696346 ], [ 106.085246467612507, 9.874272524251326 ], [ 106.085184228005303, 9.874173085570066 ], [ 106.085165912455409, 9.87414382295783 ], [ 106.085142768465332, 9.87404919875703 ], [ 106.085088201276164, 9.874024971925627 ], [ 106.085006624119345, 9.873988676393351 ], [ 106.084832611420282, 9.87391140254177 ], [ 106.084718002011073, 9.873860426649195 ], [ 106.084503790017664, 9.873788828114678 ], [ 106.083533710217765, 9.873352901584184 ], [ 106.082994144345065, 9.873107545430617 ], [ 106.081514526309562, 9.872544014484095 ], [ 106.080707080698545, 9.872192969544374 ], [ 106.080006784848365, 9.871902406600293 ], [ 106.079507073192204, 9.871712038695039 ], [ 106.078676726340163, 9.871349726149658 ], [ 106.077285661929281, 9.870789821082417 ], [ 106.076888927687762, 9.870619796893529 ], [ 106.076466736474558, 9.870438875540232 ], [ 106.07622429057227, 9.870330502791193 ], [ 106.075934760916184, 9.87020108936736 ], [ 106.075358869533801, 9.869981008226775 ], [ 106.074383065067309, 9.869596238680717 ], [ 106.073523809454954, 9.869224649301751 ], [ 106.073187021461678, 9.869077483953873 ], [ 106.072777650747213, 9.868926644173703 ], [ 106.072502095035176, 9.868809663105774 ], [ 106.072146193010809, 9.868628352214026 ], [ 106.071727071295854, 9.868479788027752 ], [ 106.070973263270645, 9.868185498707136 ], [ 106.070366275370688, 9.867905606475462 ], [ 106.069547859849948, 9.867578150349873 ], [ 106.069040366410633, 9.867468610505663 ], [ 106.068568236719784, 9.867404669902394 ], [ 106.068415171778113, 9.867363246637971 ], [ 106.068112988601214, 9.867295582995258 ], [ 106.067892629943699, 9.867250837114065 ], [ 106.067533207124853, 9.867353973266768 ], [ 106.067257888715929, 9.867427220923787 ], [ 106.067105640576827, 9.867467720903154 ], [ 106.066868651492285, 9.867530768219684 ], [ 106.066735708970597, 9.867579815973496 ], [ 106.06606126419581, 9.867785920538354 ], [ 106.065657511798378, 9.867879364346448 ], [ 106.065268791648421, 9.868050790772001 ], [ 106.06507708545125, 9.868153057351437 ], [ 106.065007875307529, 9.86830935664978 ], [ 106.064672830895901, 9.868151293610875 ], [ 106.064653766204628, 9.867989852969821 ], [ 106.064575066170747, 9.867831360293051 ], [ 106.064625998288491, 9.867741971846439 ], [ 106.064637750814271, 9.867747250492915 ], [ 106.064656158147244, 9.867734769479362 ], [ 106.064650485144838, 9.867723047918524 ], [ 106.064709707189849, 9.867650846761482 ], [ 106.064885443778095, 9.86757880781583 ], [ 106.064947784972745, 9.867553251447982 ], [ 106.064953798748235, 9.867550980988021 ], [ 106.064907934273478, 9.867442378733996 ], [ 106.064945490530476, 9.867442785951976 ], [ 106.065081603038763, 9.867444275696847 ], [ 106.06543138779152, 9.867448101418276 ], [ 106.065545985241471, 9.867494925094691 ], [ 106.065575364635052, 9.867506991443475 ], [ 106.065782445257909, 9.867464691269186 ], [ 106.066023211430505, 9.867393311122257 ], [ 106.066392772700553, 9.867300286022157 ], [ 106.066484510538686, 9.867255376337154 ], [ 106.066559524808483, 9.867188071762014 ], [ 106.066649881823921, 9.867188824039742 ], [ 106.0666881103013, 9.867199207872581 ], [ 106.066733734732551, 9.867171685015411 ], [ 106.066767253045583, 9.867151466069611 ], [ 106.066808622970626, 9.867084037176856 ], [ 106.066867600163064, 9.866969291515062 ], [ 106.066927576540891, 9.866852374198887 ], [ 106.066940731183465, 9.866813835194892 ], [ 106.066966869087182, 9.866743176954012 ], [ 106.067012082848663, 9.866684240605109 ], [ 106.067049064387987, 9.866663202072402 ], [ 106.067071224617521, 9.866665786838048 ], [ 106.067102883876487, 9.866678138547798 ], [ 106.067142754476066, 9.866693695224004 ], [ 106.067229830663052, 9.866748701999217 ], [ 106.0673235359139, 9.866841310320954 ], [ 106.067531577689778, 9.867090191731638 ], [ 106.067573987270265, 9.867101917436777 ], [ 106.06781928178988, 9.867013168697882 ], [ 106.067904465043114, 9.86697432749922 ], [ 106.067960895161647, 9.866916457117897 ], [ 106.068032266185654, 9.866851599582558 ], [ 106.068039320121215, 9.866817862827777 ], [ 106.068034858312942, 9.866768051571835 ], [ 106.067996634090008, 9.866649129575459 ], [ 106.067983304066814, 9.866585228488249 ], [ 106.067985919663855, 9.866568587684654 ], [ 106.068015165512946, 9.866502716143913 ], [ 106.06805038456659, 9.866464139926553 ], [ 106.068141205832816, 9.866416699732074 ], [ 106.068257655483706, 9.86642708204228 ], [ 106.068337290878503, 9.866449642013125 ], [ 106.068370015839406, 9.866498591877905 ], [ 106.068450665819597, 9.866527931249465 ], [ 106.068567770801565, 9.866548258015875 ], [ 106.068668333107453, 9.866545375942335 ], [ 106.068768925078246, 9.866538746721194 ], [ 106.068786751565497, 9.866480981384452 ], [ 106.068796233463701, 9.866374456294302 ], [ 106.068809898003138, 9.866314397553825 ], [ 106.068823616368888, 9.866285712792671 ], [ 106.068893886977733, 9.866270494884098 ], [ 106.068947596641124, 9.866274563345174 ], [ 106.068984836078556, 9.866297646784641 ], [ 106.069047011437576, 9.866399982248097 ], [ 106.069107866826158, 9.866423839546039 ], [ 106.069484008815181, 9.866235231203751 ], [ 106.070070730426508, 9.865919413968822 ], [ 106.070182198749862, 9.865896260015251 ], [ 106.070296621691384, 9.865894619838011 ], [ 106.070377708878027, 9.865913108188568 ], [ 106.070441425873852, 9.865904410944674 ], [ 106.070801393075726, 9.865748287610407 ], [ 106.070976513909486, 9.865679094726598 ], [ 106.07100105470127, 9.865634568906003 ], [ 106.071025578045948, 9.865579916615506 ], [ 106.071060330483604, 9.865535373495796 ], [ 106.071177493273083, 9.865483547973108 ], [ 106.071249881644931, 9.865480532046401 ], [ 106.071278890257275, 9.865489072335039 ], [ 106.071341212678462, 9.865517718748913 ], [ 106.071546629736957, 9.865728128305603 ], [ 106.071630777795804, 9.865776809824508 ], [ 106.071694566436335, 9.865809703193982 ], [ 106.071798698429717, 9.865762149064219 ], [ 106.071824566776272, 9.86564158179894 ], [ 106.071862177675015, 9.865615659274523 ], [ 106.071912853962175, 9.86560553723419 ], [ 106.071949001205923, 9.865576814313908 ], [ 106.072029969122568, 9.865473332437903 ], [ 106.072149246911849, 9.865379188710943 ], [ 106.072181017116677, 9.865297309090783 ], [ 106.072515192916015, 9.865095839369307 ], [ 106.072568129934908, 9.865074972077148 ], [ 106.072735596704817, 9.865008937762093 ], [ 106.07283513343522, 9.864940505241121 ], [ 106.073045553915605, 9.864827580842951 ], [ 106.073253746605815, 9.864744587516558 ], [ 106.073518426557499, 9.86458491637819 ], [ 106.073542957385655, 9.864587587106504 ], [ 106.073613658541504, 9.864610793940598 ], [ 106.073745383253097, 9.864544295539446 ], [ 106.073819779053295, 9.864489648621758 ], [ 106.073842386699496, 9.864434728167508 ], [ 106.073879608810373, 9.864395062995223 ], [ 106.074062858327551, 9.864279275286677 ], [ 106.074095073229032, 9.864131329928853 ], [ 106.074229448696244, 9.864079009054509 ], [ 106.074347024516058, 9.864213617751458 ], [ 106.074417356337108, 9.864392067802068 ], [ 106.074452131641536, 9.864518951380269 ], [ 106.074498910151888, 9.864574748222376 ], [ 106.074617733441315, 9.864549880505383 ], [ 106.074799266387814, 9.864515456427883 ], [ 106.074825800338033, 9.864537211325247 ], [ 106.074939909129824, 9.864459892689718 ], [ 106.074990769538019, 9.864389659867697 ], [ 106.074983640772004, 9.864335949423356 ], [ 106.074962780881535, 9.864294484458711 ], [ 106.075028608620528, 9.864136236183956 ], [ 106.075058791801482, 9.864033473148705 ], [ 106.075096389706999, 9.864000317098515 ], [ 106.075143900372069, 9.864005118482059 ], [ 106.075273932337652, 9.863961768665551 ], [ 106.075404879759432, 9.863973118375919 ], [ 106.075512405247053, 9.863990294576896 ], [ 106.075888604432421, 9.864310987547162 ], [ 106.075907451613986, 9.864295946452184 ], [ 106.07581206288998, 9.86417983554438 ], [ 106.075952171059186, 9.864058530450047 ], [ 106.076195174816036, 9.863808569651363 ], [ 106.07621292549922, 9.863792174188433 ], [ 106.076212911736718, 9.86378425385046 ], [ 106.076259138660205, 9.863740802736858 ], [ 106.076400659060596, 9.863614101317621 ], [ 106.076387788044073, 9.863569712484331 ], [ 106.076475497173647, 9.863516158304929 ], [ 106.076596201505794, 9.863419307253116 ], [ 106.076728934969935, 9.863293891546123 ], [ 106.076826883953572, 9.863207685023639 ], [ 106.076877647727429, 9.86314439804454 ], [ 106.076959600222679, 9.863072486349422 ], [ 106.077296294054634, 9.862804814957 ], [ 106.077390227127339, 9.862724736260125 ], [ 106.077400871309848, 9.862705332937505 ], [ 106.077522992976924, 9.862623488162132 ], [ 106.077580401655695, 9.862605397247073 ], [ 106.077650912228123, 9.862571642073254 ], [ 106.077688691104726, 9.862537942954214 ], [ 106.077725105662239, 9.862506144884991 ], [ 106.077952694349221, 9.862253858547415 ], [ 106.078146546335603, 9.862052895250629 ], [ 106.0786486904383, 9.861650807740997 ] ] } }
]
}
