{
"type": "FeatureCollection",
"name": "Ấp Trà Bôn",
"crs": { "type": "name", "properties": { "name": "urn:ogc:def:crs:OGC:1.3:CRS84" } },
"features": [
{ "type": "Feature", "properties": { "Layer": "AP 13", "PaperSpace": null, "SubClasses": "AcDbEntity:AcDbPolyline", "Linetype": null, "EntityHandle": "2BF846", "Text": null, "path": "LineString?crs=&field=Layer:string(0,0)&field=PaperSpace:boolean(0,0)&field=SubClasses:string(0,0)&field=Linetype:string(0,0)&field=EntityHandle:string(0,0)&field=Text:string(0,0)&uid={dc62d827-2752-4e74-9d18-37bf6bb529e0}" }, "geometry": { "type": "LineString", "coordinates": [ [ 106.114083818740625, 9.88916935256235 ], [ 106.114545988361343, 9.887888192913662 ], [ 106.113403407785455, 9.887695574969722 ], [ 106.114602486655201, 9.884376829395634 ], [ 106.115780719957229, 9.884806005095642 ], [ 106.116015691098113, 9.884521535801818 ], [ 106.115408998270667, 9.883018115589788 ], [ 106.115005692597833, 9.882079849623924 ], [ 106.114482762692546, 9.880745561198072 ], [ 106.113717112074553, 9.878915365057996 ], [ 106.113515534756232, 9.878444057234605 ], [ 106.113442347548784, 9.878312208571687 ], [ 106.113215570680794, 9.878053180681141 ], [ 106.113059861253603, 9.877910853042399 ], [ 106.113192704821472, 9.877717844785749 ], [ 106.114397810803922, 9.878012205619623 ], [ 106.115801089830157, 9.878365060450447 ], [ 106.116648929793882, 9.878551617042005 ], [ 106.117136862828616, 9.878695680355195 ], [ 106.117859927618852, 9.878849086996643 ], [ 106.11862606117279, 9.879027269820186 ], [ 106.119135434201283, 9.877955902051129 ], [ 106.119758625619752, 9.878114371534945 ], [ 106.120312351998976, 9.876897918266936 ], [ 106.121301851566329, 9.877227745366483 ], [ 106.121923121914023, 9.875548618194689 ], [ 106.122525197054173, 9.875801941328497 ], [ 106.123267729878251, 9.876140770778777 ], [ 106.123779977744135, 9.876347663386325 ], [ 106.124023449284124, 9.875754902169287 ], [ 106.124981332545346, 9.876098021292393 ], [ 106.124932349765217, 9.874275592417 ], [ 106.124872072469472, 9.873690740341896 ], [ 106.12480700481774, 9.87325254240795 ], [ 106.124346418306985, 9.869383329678245 ], [ 106.12440247556583, 9.869345069077168 ], [ 106.12507192936603, 9.869692933487517 ], [ 106.125118418434667, 9.869687241573708 ], [ 106.125189697321531, 9.869724540870989 ], [ 106.125175740311718, 9.869750768857175 ], [ 106.125318188062451, 9.869833703777326 ], [ 106.125562533008363, 9.870119773181738 ], [ 106.125671425964526, 9.870279785139195 ], [ 106.125690706249117, 9.870302081670246 ], [ 106.126001578410992, 9.870571119710084 ], [ 106.126056964470621, 9.870641630366045 ], [ 106.126135235054775, 9.870711736834007 ], [ 106.126250805972532, 9.870834937554513 ], [ 106.12638576603716, 9.870941465963311 ], [ 106.126815727017828, 9.871312811546044 ], [ 106.126975538204874, 9.871494337295005 ], [ 106.126988795225586, 9.87160995245789 ], [ 106.127296686850727, 9.871748255690237 ], [ 106.127915865107823, 9.871987694683266 ], [ 106.128154535851593, 9.872068170554879 ], [ 106.128109787270091, 9.872156199900862 ], [ 106.128114222547325, 9.872157394141666 ], [ 106.128035195920717, 9.872314138905121 ], [ 106.128196092749192, 9.872442498405073 ], [ 106.128194261124818, 9.872444763842839 ], [ 106.128206807347581, 9.872454738596515 ], [ 106.128466013909858, 9.872750850020195 ], [ 106.128880806064728, 9.873150158935434 ], [ 106.129309108320342, 9.873557308069795 ], [ 106.129734042542552, 9.87387088418946 ], [ 106.130005277294771, 9.874053556208715 ], [ 106.130198397425474, 9.874344690328039 ], [ 106.130248613904584, 9.874428862400952 ], [ 106.130298830410084, 9.874513034464377 ], [ 106.130444772721333, 9.87468753197043 ], [ 106.130670484410473, 9.87480835486911 ], [ 106.130748269894895, 9.874862096073072 ], [ 106.130815889370808, 9.874939906465643 ], [ 106.130954744158842, 9.875079065051287 ], [ 106.131244861446916, 9.8753133270758 ], [ 106.131774742001681, 9.875625257017541 ], [ 106.132514787495595, 9.876255071818319 ], [ 106.133068757175138, 9.876734197833718 ], [ 106.134019256569388, 9.877575702192409 ], [ 106.134858897470266, 9.878184415454349 ], [ 106.135106721295884, 9.87832770653073 ], [ 106.135256227034418, 9.878361329798144 ], [ 106.135478170360855, 9.878369319531055 ], [ 106.135653150836518, 9.878326675476545 ], [ 106.135743391576526, 9.878364542317691 ], [ 106.135698759811277, 9.879286786821856 ], [ 106.13575635483555, 9.879588394243662 ], [ 106.135990473955118, 9.88040050495866 ], [ 106.135977996938252, 9.880688400762292 ], [ 106.13592427733569, 9.880965259670235 ], [ 106.135780094754594, 9.881425106656565 ], [ 106.135486584577166, 9.882182607374689 ], [ 106.135288202050717, 9.882717509766431 ], [ 106.135087329091689, 9.884045528867652 ], [ 106.134974053191442, 9.884647357729305 ], [ 106.134874501145191, 9.885178728118296 ], [ 106.134840381381025, 9.885691892229806 ], [ 106.134855259919661, 9.886175488904243 ], [ 106.134788090313592, 9.886523980955833 ], [ 106.134683832109999, 9.88693149291924 ], [ 106.13462768234578, 9.887083223191633 ], [ 106.134345941674027, 9.887562768145012 ], [ 106.134082343813233, 9.887946439809694 ], [ 106.133835635229303, 9.888388848609127 ], [ 106.133674920985001, 9.888741856605057 ], [ 106.133505045451415, 9.889215313310892 ], [ 106.133340355803909, 9.889873476093536 ], [ 106.133298271946643, 9.889990641531339 ], [ 106.13302359040712, 9.890444675506821 ], [ 106.132853569070818, 9.890890465519307 ], [ 106.132562601035985, 9.891649496437875 ], [ 106.132351022702125, 9.892202776307448 ], [ 106.13219823890141, 9.892611999633258 ] ] } },
{ "type": "Feature", "properties": { "Layer": "A-RANH AP C", "PaperSpace": null, "SubClasses": "AcDbEntity:AcDbPolyline", "Linetype": "ACAD_ISO08W100", "EntityHandle": "2BFF1A", "Text": null, "path": "LineString?crs=&field=Layer:string(0,0)&field=PaperSpace:boolean(0,0)&field=SubClasses:string(0,0)&field=Linetype:string(0,0)&field=EntityHandle:string(0,0)&field=Text:string(0,0)&uid={b306a17a-6d58-463c-88d5-a4a4c98515c8}" }, "geometry": { "type": "LineString", "coordinates": [ [ 106.114083818740625, 9.88916935256235 ], [ 106.114417638579624, 9.889233436389302 ], [ 106.114659408853115, 9.889356251769655 ], [ 106.115271485666312, 9.889400358538255 ], [ 106.115247497425869, 9.889591425246886 ], [ 106.115250460636062, 9.889609233088255 ], [ 106.114880379446362, 9.892321588745938 ], [ 106.117186789369867, 9.89259252083836 ], [ 106.117217988524303, 9.89240503472595 ], [ 106.117257922462102, 9.892354058174353 ], [ 106.117303367715522, 9.8922270330737 ], [ 106.117289135909516, 9.892174257245912 ], [ 106.117331372396862, 9.891989101635719 ], [ 106.117347404617135, 9.891882925813057 ], [ 106.117363755954514, 9.891801161265651 ], [ 106.117535295755957, 9.890908675409269 ], [ 106.118641052427762, 9.891079622830654 ], [ 106.118791024261171, 9.89038373535872 ], [ 106.118857408100197, 9.890141935830572 ], [ 106.118868900692647, 9.8901439037991 ], [ 106.118916234444882, 9.889974390732887 ], [ 106.124464051877226, 9.890943748472855 ], [ 106.124503095008322, 9.890954722001979 ], [ 106.124527448701173, 9.89095901666076 ], [ 106.132051868985272, 9.892580460113233 ] ] } }
]
}
